[
    {
        "org_id": "TP4XA",
        "name": "RAWLINGS OPTICIANS (ALRESFORD)",
        "primary_role_id": "RO167",
        "role_ids": [
            "RO167"
        ],
        "status": "Active",
        "post_code": "SO24 9AT",
        "uprn": "100062647360"
    },
    {
        "org_id": "TP53A",
        "name": "RAWLINGS OPTICIANS (HEDGE END)",
        "primary_role_id": "RO167",
        "role_ids": [
            "RO167"
        ],
        "status": "Active",
        "post_code": "SO30 4QU",
        "uprn": "Unknown"
    },
    {
        "org_id": "TP0A6",
        "name": "CHAPMAN & MYERS OPTICIANS (HALESOWEN)",
        "primary_role_id": "RO167",
        "role_ids": [
            "RO167"
        ],
        "status": "Active",
        "post_code": "B63 3AS",
        "uprn": "90122614"
    },
    {
        "org_id": "TP551",
        "name": "RAWLINGS OPTICIANS (CHANDLER'S FORD)",
        "primary_role_id": "RO167",
        "role_ids": [
            "RO167"
        ],
        "status": "Active",
        "post_code": "SO53 2DQ",
        "uprn": "Unknown"
    },
    {
        "org_id": "TP0XW",
        "name": "RAWLINGS OPTICIANS (CROYDON)",
        "primary_role_id": "RO167",
        "role_ids": [
            "RO167"
        ],
        "status": "Active",
        "post_code": "CR0 1YA",
        "uprn": "100023534776"
    },
    {
        "org_id": "TP04C",
        "name": "CHAPMAN OPTICIANS LTD (BROMSGROVE)",
        "primary_role_id": "RO167",
        "role_ids": [
            "RO167"
        ],
        "status": "Active",
        "post_code": "B61 8AE",
        "uprn": "100121266482"
    },
    {
        "org_id": "TP1RV",
        "name": "CHAPMAN OPTICIANS LTD (CHELTENHAM)",
        "primary_role_id": "RO167",
        "role_ids": [
            "RO167"
        ],
        "status": "Active",
        "post_code": "GL50 1JZ",
        "uprn": "Unknown"
    },
    {
        "org_id": "TP1QL",
        "name": "CHAPMAN OPTICIANS LTD (STOURPORT)",
        "primary_role_id": "RO167",
        "role_ids": [
            "RO167"
        ],
        "status": "Active",
        "post_code": "DY13 8BL",
        "uprn": "Unknown"
    },
    {
        "org_id": "TP5GD",
        "name": "CHAPMAN OPTICIANS LTD (WEDNESBURY)",
        "primary_role_id": "RO167",
        "role_ids": [
            "RO167"
        ],
        "status": "Active",
        "post_code": "WS10 7HB",
        "uprn": "Unknown"
    },
    {
        "org_id": "TP0LC",
        "name": "OPTIMAX LASER EYE CLINIC (BIRMINGHAM)",
        "primary_role_id": "RO167",
        "role_ids": [
            "RO167"
        ],
        "status": "Active",
        "post_code": "B5 7XJ",
        "uprn": "100071382794"
    },
    {
        "org_id": "TP0RN",
        "name": "OPTIMAX LASER EYE CLINIC (CROYDON)",
        "primary_role_id": "RO167",
        "role_ids": [
            "RO167"
        ],
        "status": "Active",
        "post_code": "CR0 1QG",
        "uprn": "Unknown"
    },
    {
        "org_id": "TP7WR",
        "name": "OPTIMAX LASER EYE CLINIC (IPSWICH)",
        "primary_role_id": "RO167",
        "role_ids": [
            "RO167"
        ],
        "status": "Active",
        "post_code": "IP1 3HD",
        "uprn": "100091483314"
    },
    {
        "org_id": "TP7WT",
        "name": "OPTIMAX LASER EYE CLINIC (LEICESTER)",
        "primary_role_id": "RO167",
        "role_ids": [
            "RO167"
        ],
        "status": "Active",
        "post_code": "LE1 1LA",
        "uprn": "Unknown"
    },
    {
        "org_id": "TP7WV",
        "name": "OPTIMAX LASER EYE CLINIC (LIVERPOOL)",
        "primary_role_id": "RO167",
        "role_ids": [
            "RO167"
        ],
        "status": "Active",
        "post_code": "L2 0RD",
        "uprn": "Unknown"
    },
    {
        "org_id": "TP3XN",
        "name": "OPTIMAX LASER EYE CLINIC (FINCHLEY RD, LONDON)",
        "primary_role_id": "RO167",
        "role_ids": [
            "RO167"
        ],
        "status": "Active",
        "post_code": "NW3 5HT",
        "uprn": "5054259"
    },
    {
        "org_id": "TP320",
        "name": "OPTIMAX LASER EYE CLINIC (MANCHESTER)",
        "primary_role_id": "RO167",
        "role_ids": [
            "RO167"
        ],
        "status": "Active",
        "post_code": "M2 3FU",
        "uprn": "77100997"
    },
    {
        "org_id": "TP7WX",
        "name": "OPTIMAX LASER EYE CLINIC (PETERBOROUGH)",
        "primary_role_id": "RO167",
        "role_ids": [
            "RO167"
        ],
        "status": "Active",
        "post_code": "PE1 2NW",
        "uprn": "100091510737"
    },
    {
        "org_id": "TP7WW",
        "name": "OPTIMAX LASER EYE CLINIC (NEWCASTLE)",
        "primary_role_id": "RO167",
        "role_ids": [
            "RO167"
        ],
        "status": "Active",
        "post_code": "NE1 1DG",
        "uprn": "Unknown"
    },
    {
        "org_id": "TP37Q",
        "name": "OPTIMAX LASER EYE CLINIC (CANARY WHARF, LONDON)",
        "primary_role_id": "RO167",
        "role_ids": [
            "RO167"
        ],
        "status": "Active",
        "post_code": "NW3 5HT",
        "uprn": "5054259"
    },
    {
        "org_id": "TP37R",
        "name": "OPTIMAX LASER EYE CLINIC (LIVERPOOL ST, LONDON)",
        "primary_role_id": "RO167",
        "role_ids": [
            "RO167"
        ],
        "status": "Active",
        "post_code": "EC2M 3UE",
        "uprn": "Unknown"
    },
    {
        "org_id": "TP37W",
        "name": "OPTIMAX LASER EYE CLINIC (MILTON KEYNES)",
        "primary_role_id": "RO167",
        "role_ids": [
            "RO167"
        ],
        "status": "Active",
        "post_code": "MK9 2GA",
        "uprn": "25121920"
    },
    {
        "org_id": "TP2EC",
        "name": "OPTICALISE OPHTHALMIC OPTICIANS",
        "primary_role_id": "RO167",
        "role_ids": [
            "RO167"
        ],
        "status": "Active",
        "post_code": "HA3 0PS",
        "uprn": "Unknown"
    },
    {
        "org_id": "TP1T2",
        "name": "BORROWASH OPTICIANS",
        "primary_role_id": "RO167",
        "role_ids": [
            "RO167"
        ],
        "status": "Active",
        "post_code": "DE72 3JW",
        "uprn": "100032026425"
    },
    {
        "org_id": "TP7F1",
        "name": "A C STEPHENS OPTICIANS LTD - HEANOR",
        "primary_role_id": "RO167",
        "role_ids": [
            "RO167"
        ],
        "status": "Active",
        "post_code": "DE75 7NR",
        "uprn": "Unknown"
    },
    {
        "org_id": "TP1Y7",
        "name": "THE EYE PLACE LTD",
        "primary_role_id": "RO167",
        "role_ids": [
            "RO167"
        ],
        "status": "Active",
        "post_code": "DE45 1HD",
        "uprn": "10070088239"
    },
    {
        "org_id": "TP34J",
        "name": "CARTWRIGHT OPTOMETRISTS",
        "primary_role_id": "RO167",
        "role_ids": [
            "RO167"
        ],
        "status": "Active",
        "post_code": "M34 3JU",
        "uprn": "Unknown"
    },
    {
        "org_id": "TP3GP",
        "name": "RUTHERFORD EYECARE - NEWPORT",
        "primary_role_id": "RO167",
        "role_ids": [
            "RO167"
        ],
        "status": "Active",
        "post_code": "PO30 1BA",
        "uprn": "10003316786"
    },
    {
        "org_id": "TP3WD",
        "name": "MALCOLM SMITH OPTOMETRISTS",
        "primary_role_id": "RO167",
        "role_ids": [
            "RO167"
        ],
        "status": "Active",
        "post_code": "PO6 2AA",
        "uprn": "1775035639"
    },
    {
        "org_id": "TP3TN",
        "name": "THE RICHARD TILDESLEY PRACTICE",
        "primary_role_id": "RO167",
        "role_ids": [
            "RO167"
        ],
        "status": "Active",
        "post_code": "PO19 1RP",
        "uprn": "Unknown"
    },
    {
        "org_id": "TP7F4",
        "name": "YOGI EYECARE (SELSEY)",
        "primary_role_id": "RO167",
        "role_ids": [
            "RO167"
        ],
        "status": "Active",
        "post_code": "PO20 0QG",
        "uprn": "Unknown"
    },
    {
        "org_id": "TP1EF",
        "name": "HINDHAUGH OPTICIAN LTD",
        "primary_role_id": "RO167",
        "role_ids": [
            "RO167"
        ],
        "status": "Active",
        "post_code": "DL16 6AB",
        "uprn": "100110748916"
    },
    {
        "org_id": "TP0J5",
        "name": "JOHN EXLEY OPTICIAN LTD",
        "primary_role_id": "RO167",
        "role_ids": [
            "RO167"
        ],
        "status": "Active",
        "post_code": "BD23 1DY",
        "uprn": "100051945563"
    },
    {
        "org_id": "TP4VG",
        "name": "MCCORMICK & GORMAN OPTICIANS",
        "primary_role_id": "RO167",
        "role_ids": [
            "RO167"
        ],
        "status": "Active",
        "post_code": "TS23 2NT",
        "uprn": "100110783809"
    },
    {
        "org_id": "TP3Y3",
        "name": "FULWOOD OPTICIANS",
        "primary_role_id": "RO167",
        "role_ids": [
            "RO167"
        ],
        "status": "Active",
        "post_code": "PR2 9HD",
        "uprn": "10002223307"
    },
    {
        "org_id": "TP4M3",
        "name": "A M HAIGH",
        "primary_role_id": "RO167",
        "role_ids": [
            "RO167"
        ],
        "status": "Active",
        "post_code": "SR7 7HQ",
        "uprn": "100110771527"
    },
    {
        "org_id": "TP1VQ",
        "name": "EYESITE",
        "primary_role_id": "RO167",
        "role_ids": [
            "RO167"
        ],
        "status": "Active",
        "post_code": "DH9 0TB",
        "uprn": "100110743515"
    },
    {
        "org_id": "TP12M",
        "name": "SCOTTS OPTICIANS",
        "primary_role_id": "RO167",
        "role_ids": [
            "RO167"
        ],
        "status": "Active",
        "post_code": "CB8 8LX",
        "uprn": "100091634445"
    },
    {
        "org_id": "TP12K",
        "name": "JAMES J BATES (OPTICIANS) LTD",
        "primary_role_id": "RO167",
        "role_ids": [
            "RO167"
        ],
        "status": "Active",
        "post_code": "CA28 7LE",
        "uprn": "Unknown"
    },
    {
        "org_id": "TP1KL",
        "name": "THE SPECTACLE WEARHOUSE",
        "primary_role_id": "RO167",
        "role_ids": [
            "RO167"
        ],
        "status": "Active",
        "post_code": "DY8 1DP",
        "uprn": "Unknown"
    },
    {
        "org_id": "TP11K",
        "name": "BOS OPTICIANS",
        "primary_role_id": "RO167",
        "role_ids": [
            "RO167"
        ],
        "status": "Active",
        "post_code": "CW8 1HH",
        "uprn": "100012825436"
    },
    {
        "org_id": "TP2J3",
        "name": "NEEDHAM MARKET OPTICIANS",
        "primary_role_id": "RO167",
        "role_ids": [
            "RO167"
        ],
        "status": "Active",
        "post_code": "IP6 8DG",
        "uprn": "100091086170"
    },
    {
        "org_id": "TP221",
        "name": "EYECARE OPTICIANS LTD",
        "primary_role_id": "RO167",
        "role_ids": [
            "RO167"
        ],
        "status": "Active",
        "post_code": "IP1 4HA",
        "uprn": "100091064344"
    },
    {
        "org_id": "TP15J",
        "name": "BASIL H BLOOM OPTOMETRIST",
        "primary_role_id": "RO167",
        "role_ids": [
            "RO167"
        ],
        "status": "Active",
        "post_code": "CR2 8LH",
        "uprn": "100022911498"
    },
    {
        "org_id": "TP4PN",
        "name": "RAJ MEHTA RBCO",
        "primary_role_id": "RO167",
        "role_ids": [
            "RO167"
        ],
        "status": "Active",
        "post_code": "ST3 2JF",
        "uprn": "3455112426"
    },
    {
        "org_id": "TP5DE",
        "name": "ASHMORE PARK OPTICIANS",
        "primary_role_id": "RO167",
        "role_ids": [
            "RO167"
        ],
        "status": "Active",
        "post_code": "WV11 2JW",
        "uprn": "100071373531"
    },
    {
        "org_id": "TP146",
        "name": "THORNBURY EYE CENTRE",
        "primary_role_id": "RO167",
        "role_ids": [
            "RO167"
        ],
        "status": "Active",
        "post_code": "BS35 2BH",
        "uprn": "579355"
    },
    {
        "org_id": "TP2PP",
        "name": "DR T J BUCKINGHAM OPTOMETRIST",
        "primary_role_id": "RO167",
        "role_ids": [
            "RO167"
        ],
        "status": "Active",
        "post_code": "LS29 9DR",
        "uprn": "100052068398"
    },
    {
        "org_id": "TP180",
        "name": "LONG MELFORD OPTICIANS",
        "primary_role_id": "RO167",
        "role_ids": [
            "RO167"
        ],
        "status": "Active",
        "post_code": "CO10 9HZ",
        "uprn": "Unknown"
    },
    {
        "org_id": "TP7WF",
        "name": "JSR OPTICIANS",
        "primary_role_id": "RO167",
        "role_ids": [
            "RO167"
        ],
        "status": "Active",
        "post_code": "M14 5AL",
        "uprn": "10023049783"
    },
    {
        "org_id": "TP2Y9",
        "name": "COSTCO OPTICIANS",
        "primary_role_id": "RO167",
        "role_ids": [
            "RO167"
        ],
        "status": "Active",
        "post_code": "LS10 1BG",
        "uprn": "Unknown"
    }
]