[
    {
        "org_id": "VKM",
        "name": "HMP/ YOI CHELMSFORD",
        "primary_role_id": "RO228",
        "role_ids": [
            "RO83",
            "RO228"
        ],
        "status": "Active",
        "post_code": "CM2 6LQ",
        "uprn": "Unknown"
    },
    {
        "org_id": "WGM",
        "name": "HMP/ YOI DONCASTER",
        "primary_role_id": "RO228",
        "role_ids": [
            "RO83",
            "RO228"
        ],
        "status": "Active",
        "post_code": "DN5 8UX",
        "uprn": "Unknown"
    },
    {
        "org_id": "WDC",
        "name": "HMP/ YOI DRAKE HALL",
        "primary_role_id": "RO228",
        "role_ids": [
            "RO83",
            "RO228"
        ],
        "status": "Active",
        "post_code": "ST21 6LQ",
        "uprn": "Unknown"
    },
    {
        "org_id": "VD1",
        "name": "HMP/ YOI EAST SUTTON PARK",
        "primary_role_id": "RO228",
        "role_ids": [
            "RO83",
            "RO228"
        ],
        "status": "Active",
        "post_code": "ME17 3DF",
        "uprn": "Unknown"
    },
    {
        "org_id": "WRC",
        "name": "HMP/ YOI EASTWOOD PARK",
        "primary_role_id": "RO228",
        "role_ids": [
            "RO83",
            "RO228"
        ],
        "status": "Active",
        "post_code": "GL12 8DB",
        "uprn": "Unknown"
    },
    {
        "org_id": "VDJ",
        "name": "HMP/ YOI FOREST BANK",
        "primary_role_id": "RO228",
        "role_ids": [
            "RO83",
            "RO228"
        ],
        "status": "Active",
        "post_code": "M27 8FB",
        "uprn": "Unknown"
    },
    {
        "org_id": "VEW",
        "name": "HMP/ YOI HIGHPOINT SOUTH",
        "primary_role_id": "RO228",
        "role_ids": [
            "RO83",
            "RO228"
        ],
        "status": "Active",
        "post_code": "CB8 9YG",
        "uprn": "Unknown"
    },
    {
        "org_id": "WJL",
        "name": "HMP/ YOI HOLLESLEY BAY",
        "primary_role_id": "RO228",
        "role_ids": [
            "RO83",
            "RO228"
        ],
        "status": "Active",
        "post_code": "IP12 3JW",
        "uprn": "Unknown"
    },
    {
        "org_id": "VPE",
        "name": "HMP / YOI LANCASTER FARMS",
        "primary_role_id": "RO228",
        "role_ids": [
            "RO83",
            "RO228"
        ],
        "status": "Active",
        "post_code": "LA1 3QZ",
        "uprn": "Unknown"
    },
    {
        "org_id": "VCC",
        "name": "HMP/ YOI NORWICH",
        "primary_role_id": "RO228",
        "role_ids": [
            "RO83",
            "RO228"
        ],
        "status": "Active",
        "post_code": "NR1 4LU",
        "uprn": "Unknown"
    },
    {
        "org_id": "WQL",
        "name": "HMP / YOI STYAL",
        "primary_role_id": "RO228",
        "role_ids": [
            "RO83",
            "RO228"
        ],
        "status": "Active",
        "post_code": "SK9 4HR",
        "uprn": "Unknown"
    },
    {
        "org_id": "VEV",
        "name": "HMYOI BRINSFORD",
        "primary_role_id": "RO228",
        "role_ids": [
            "RO83",
            "RO228"
        ],
        "status": "Active",
        "post_code": "WV10 7PY",
        "uprn": "200004529143"
    },
    {
        "org_id": "VQL",
        "name": "HMYOI HINDLEY",
        "primary_role_id": "RO228",
        "role_ids": [
            "RO83",
            "RO228"
        ],
        "status": "Active",
        "post_code": "WN2 5TH",
        "uprn": "100012815264"
    },
    {
        "org_id": "VMY",
        "name": "HMYOI STOKE HEATH",
        "primary_role_id": "RO228",
        "role_ids": [
            "RO83",
            "RO228"
        ],
        "status": "Active",
        "post_code": "TF9 2JL",
        "uprn": "Unknown"
    },
    {
        "org_id": "WYF",
        "name": "HMYOI WERRINGTON",
        "primary_role_id": "RO228",
        "role_ids": [
            "RO83",
            "RO228"
        ],
        "status": "Active",
        "post_code": "ST9 0DX",
        "uprn": "Unknown"
    },
    {
        "org_id": "VRV",
        "name": "HMYOI WETHERBY",
        "primary_role_id": "RO228",
        "role_ids": [
            "RO83",
            "RO228"
        ],
        "status": "Active",
        "post_code": "LS22 5ED",
        "uprn": "Unknown"
    },
    {
        "org_id": "WTM",
        "name": "HMP/YOI FELTHAM A",
        "primary_role_id": "RO228",
        "role_ids": [
            "RO83",
            "RO228"
        ],
        "status": "Active",
        "post_code": "TW13 4ND",
        "uprn": "Unknown"
    },
    {
        "org_id": "WWD",
        "name": "HMP/YOI MOORLAND",
        "primary_role_id": "RO228",
        "role_ids": [
            "RO83",
            "RO228"
        ],
        "status": "Active",
        "post_code": "DN7 6BW",
        "uprn": "Unknown"
    },
    {
        "org_id": "VPP",
        "name": "HMP/ YOI ASKHAM GRANGE",
        "primary_role_id": "RO228",
        "role_ids": [
            "RO83",
            "RO228"
        ],
        "status": "Active",
        "post_code": "YO23 3FT",
        "uprn": "Unknown"
    },
    {
        "org_id": "VXG",
        "name": "HMP/YOI ISIS",
        "primary_role_id": "RO228",
        "role_ids": [
            "RO83",
            "RO228"
        ],
        "status": "Active",
        "post_code": "SE28 0NZ",
        "uprn": "10010227766"
    },
    {
        "org_id": "WTH",
        "name": "HMYOI AYLESBURY",
        "primary_role_id": "RO228",
        "role_ids": [
            "RO83",
            "RO228"
        ],
        "status": "Active",
        "post_code": "HP20 1EH",
        "uprn": "Unknown"
    },
    {
        "org_id": "WY4",
        "name": "HMYOI THORN CROSS",
        "primary_role_id": "RO228",
        "role_ids": [
            "RO83",
            "RO228"
        ],
        "status": "Active",
        "post_code": "WA4 4RL",
        "uprn": "200000978972"
    },
    {
        "org_id": "WK9",
        "name": "HMYOI HATFIELD",
        "primary_role_id": "RO228",
        "role_ids": [
            "RO83",
            "RO228"
        ],
        "status": "Active",
        "post_code": "DN7 6EL",
        "uprn": "Unknown"
    },
    {
        "org_id": "WWA",
        "name": "HMP/ YOI NEW HALL",
        "primary_role_id": "RO228",
        "role_ids": [
            "RO83",
            "RO228"
        ],
        "status": "Active",
        "post_code": "WF4 4XX",
        "uprn": "Unknown"
    },
    {
        "org_id": "WF9",
        "name": "HMP/ YOI PARC",
        "primary_role_id": "RO228",
        "role_ids": [
            "RO83",
            "RO228"
        ],
        "status": "Active",
        "post_code": "CF35 6AP",
        "uprn": "Unknown"
    },
    {
        "org_id": "VJT",
        "name": "HMYOI SWINFEN HALL",
        "primary_role_id": "RO228",
        "role_ids": [
            "RO83",
            "RO228"
        ],
        "status": "Active",
        "post_code": "WS14 9QS",
        "uprn": "Unknown"
    },
    {
        "org_id": "VGW",
        "name": "HMYOI DEERBOLT",
        "primary_role_id": "RO228",
        "role_ids": [
            "RO83",
            "RO228"
        ],
        "status": "Active",
        "post_code": "DL12 9BG",
        "uprn": "Unknown"
    },
    {
        "org_id": "VPC",
        "name": "HMYOI PORTLAND",
        "primary_role_id": "RO228",
        "role_ids": [
            "RO83",
            "RO228"
        ],
        "status": "Active",
        "post_code": "DT5 1DL",
        "uprn": "Unknown"
    },
    {
        "org_id": "VH0",
        "name": "HMYOI HUNTERCOMBE",
        "primary_role_id": "RO228",
        "role_ids": [
            "RO83",
            "RO228"
        ],
        "status": "Active",
        "post_code": "RG9 5SB",
        "uprn": "Unknown"
    }
]