[
    {
        "org_id": "WT4",
        "name": "BARNSTAPLE MAGISTRATES', COUNTY AND FAMILY COURT",
        "primary_role_id": "RO235",
        "role_ids": [
            "RO229",
            "RO235"
        ],
        "status": "Active",
        "post_code": "EX31 1DX",
        "uprn": "Unknown"
    },
    {
        "org_id": "WPV",
        "name": "BATH MAGISTRATES' COURT",
        "primary_role_id": "RO235",
        "role_ids": [
            "RO229",
            "RO235"
        ],
        "status": "Active",
        "post_code": "BA1 5AF",
        "uprn": "Unknown"
    },
    {
        "org_id": "WTK",
        "name": "BEXLEY MAGISTRATES' COURT AND FAMILY COURT",
        "primary_role_id": "RO235",
        "role_ids": [
            "RO229",
            "RO235"
        ],
        "status": "Active",
        "post_code": "DA6 7ND",
        "uprn": "Unknown"
    },
    {
        "org_id": "VHA",
        "name": "BODMIN MAGISTRATES' COURT",
        "primary_role_id": "RO235",
        "role_ids": [
            "RO229",
            "RO235"
        ],
        "status": "Active",
        "post_code": "PL31 2AL",
        "uprn": "Unknown"
    },
    {
        "org_id": "WP6",
        "name": "KINGSTON-UPON-THAMES CROWN COURT",
        "primary_role_id": "RO235",
        "role_ids": [
            "RO229",
            "RO235"
        ],
        "status": "Active",
        "post_code": "KT1 2BB",
        "uprn": "Unknown"
    },
    {
        "org_id": "WYX",
        "name": "MAIDSTONE COMBINED COURT CENTRE",
        "primary_role_id": "RO235",
        "role_ids": [
            "RO229",
            "RO235"
        ],
        "status": "Active",
        "post_code": "ME16 8EQ",
        "uprn": "Unknown"
    },
    {
        "org_id": "WXF",
        "name": "MANCHESTER CROWN COURT (MINSHULL STREET)",
        "primary_role_id": "RO235",
        "role_ids": [
            "RO229",
            "RO235"
        ],
        "status": "Active",
        "post_code": "M1 3FS",
        "uprn": "Unknown"
    },
    {
        "org_id": "WKR",
        "name": "BOLTON CROWN COURT",
        "primary_role_id": "RO235",
        "role_ids": [
            "RO229",
            "RO235"
        ],
        "status": "Active",
        "post_code": "BL1 1SU",
        "uprn": "Unknown"
    },
    {
        "org_id": "WHL",
        "name": "BROMLEY MAGISTRATES' COURT",
        "primary_role_id": "RO235",
        "role_ids": [
            "RO229",
            "RO235"
        ],
        "status": "Active",
        "post_code": "BR1 1RA",
        "uprn": "Unknown"
    },
    {
        "org_id": "WT6",
        "name": "EXETER COMBINED COURT CENTRE",
        "primary_role_id": "RO235",
        "role_ids": [
            "RO229",
            "RO235"
        ],
        "status": "Active",
        "post_code": "EX1 1UH",
        "uprn": "Unknown"
    },
    {
        "org_id": "WL6",
        "name": "EXETER MAGISTRATES' COURT - NORTH AND EAST DEVON",
        "primary_role_id": "RO235",
        "role_ids": [
            "RO229",
            "RO235"
        ],
        "status": "Active",
        "post_code": "EX1 2LS",
        "uprn": "Unknown"
    },
    {
        "org_id": "WCW",
        "name": "GLOUCESTER CROWN COURT",
        "primary_role_id": "RO235",
        "role_ids": [
            "RO229",
            "RO235"
        ],
        "status": "Active",
        "post_code": "GL1 2TS",
        "uprn": "Unknown"
    },
    {
        "org_id": "WYT",
        "name": "NORTH SOMERSET MAGISTRATES' COURT",
        "primary_role_id": "RO235",
        "role_ids": [
            "RO229",
            "RO235"
        ],
        "status": "Active",
        "post_code": "BS22 7BB",
        "uprn": "Unknown"
    },
    {
        "org_id": "VP0",
        "name": "NOTTINGHAM MAGISTRATES COURT",
        "primary_role_id": "RO235",
        "role_ids": [
            "RO229",
            "RO235"
        ],
        "status": "Active",
        "post_code": "NG2 1EE",
        "uprn": "Unknown"
    },
    {
        "org_id": "WQR",
        "name": "OXFORD COMBINED COURT CENTRE",
        "primary_role_id": "RO235",
        "role_ids": [
            "RO229",
            "RO235"
        ],
        "status": "Active",
        "post_code": "OX1 1TL",
        "uprn": "Unknown"
    },
    {
        "org_id": "VH3",
        "name": "THAMES MAGISTRATES COURT",
        "primary_role_id": "RO235",
        "role_ids": [
            "RO229",
            "RO235"
        ],
        "status": "Active",
        "post_code": "E3 4DJ",
        "uprn": "Unknown"
    },
    {
        "org_id": "WT5",
        "name": "WESTMINSTER MAGISTRATES COURT",
        "primary_role_id": "RO235",
        "role_ids": [
            "RO229",
            "RO235"
        ],
        "status": "Active",
        "post_code": "NW1 5BR",
        "uprn": "Unknown"
    },
    {
        "org_id": "WC9",
        "name": "MANCHESTER & SALFORD MAGISTRATES COURT",
        "primary_role_id": "RO235",
        "role_ids": [
            "RO229",
            "RO235"
        ],
        "status": "Active",
        "post_code": "M60 1PR",
        "uprn": "Unknown"
    },
    {
        "org_id": "WV1",
        "name": "TAMESIDE MAGISTRATES COURT",
        "primary_role_id": "RO235",
        "role_ids": [
            "RO229",
            "RO235"
        ],
        "status": "Active",
        "post_code": "OL6 7TP",
        "uprn": "100012740537"
    },
    {
        "org_id": "WDN",
        "name": "BOLTON MAGISTRATES COURT",
        "primary_role_id": "RO235",
        "role_ids": [
            "RO229",
            "RO235"
        ],
        "status": "Active",
        "post_code": "BL1 1UA",
        "uprn": "Unknown"
    },
    {
        "org_id": "WTP",
        "name": "WIGAN COUNTY MAGISTRATES COURT",
        "primary_role_id": "RO235",
        "role_ids": [
            "RO229",
            "RO235"
        ],
        "status": "Active",
        "post_code": "WN1 1DW",
        "uprn": "Unknown"
    },
    {
        "org_id": "VVN",
        "name": "STOCKPORT MAGISTRATES COURT",
        "primary_role_id": "RO235",
        "role_ids": [
            "RO229",
            "RO235"
        ],
        "status": "Active",
        "post_code": "SK1 3DQ",
        "uprn": "Unknown"
    },
    {
        "org_id": "WM2",
        "name": "MANCHESTER CROWN COURT (CROWN SQ)",
        "primary_role_id": "RO235",
        "role_ids": [
            "RO229",
            "RO235"
        ],
        "status": "Active",
        "post_code": "M3 3FL",
        "uprn": "Unknown"
    },
    {
        "org_id": "VDF",
        "name": "CHESHIRE CROWN COURT",
        "primary_role_id": "RO235",
        "role_ids": [
            "RO229",
            "RO235"
        ],
        "status": "Active",
        "post_code": "CH1 2AN",
        "uprn": "Unknown"
    },
    {
        "org_id": "WCY",
        "name": "CHESHIRE MAGISTRATES COURT",
        "primary_role_id": "RO235",
        "role_ids": [
            "RO229",
            "RO235"
        ],
        "status": "Active",
        "post_code": "CH1 2XA",
        "uprn": "Unknown"
    },
    {
        "org_id": "VW1",
        "name": "WARRINGTON COMBINED CROWN AND COUNTY COURT",
        "primary_role_id": "RO235",
        "role_ids": [
            "RO229",
            "RO235"
        ],
        "status": "Active",
        "post_code": "WA1 1UR",
        "uprn": "Unknown"
    },
    {
        "org_id": "VFQ",
        "name": "PRESTON MAGISTRATES COURT",
        "primary_role_id": "RO235",
        "role_ids": [
            "RO229",
            "RO235"
        ],
        "status": "Active",
        "post_code": "PR1 2QT",
        "uprn": "10007607142"
    },
    {
        "org_id": "VCM",
        "name": "PRESTON COMBINED COURT CENTRE",
        "primary_role_id": "RO235",
        "role_ids": [
            "RO229",
            "RO235"
        ],
        "status": "Active",
        "post_code": "PR1 2LL",
        "uprn": "Unknown"
    },
    {
        "org_id": "VNF",
        "name": "BARKINGSIDE MAGISTRATES COURT",
        "primary_role_id": "RO235",
        "role_ids": [
            "RO229",
            "RO235"
        ],
        "status": "Active",
        "post_code": "IG6 1HW",
        "uprn": "100023051416"
    },
    {
        "org_id": "WQ3",
        "name": "CENTRAL CRIMINAL COURT (OLD BAILEY)",
        "primary_role_id": "RO235",
        "role_ids": [
            "RO229",
            "RO235"
        ],
        "status": "Active",
        "post_code": "EC4M 7EH",
        "uprn": "100022936049"
    },
    {
        "org_id": "VJN",
        "name": "CITY OF LONDON MAGISTRATES COURT",
        "primary_role_id": "RO235",
        "role_ids": [
            "RO229",
            "RO235"
        ],
        "status": "Active",
        "post_code": "EC4N 4XY",
        "uprn": "100023533405"
    },
    {
        "org_id": "VX5",
        "name": "CROYDON CROWN COURT",
        "primary_role_id": "RO235",
        "role_ids": [
            "RO229",
            "RO235"
        ],
        "status": "Active",
        "post_code": "CR9 5AB",
        "uprn": "100022917793"
    },
    {
        "org_id": "VN9",
        "name": "CROYDON MAGISTRATES COURT",
        "primary_role_id": "RO235",
        "role_ids": [
            "RO229",
            "RO235"
        ],
        "status": "Active",
        "post_code": "CR9 3NG",
        "uprn": "Unknown"
    },
    {
        "org_id": "VQJ",
        "name": "EALING MAGISTRATES COURT",
        "primary_role_id": "RO235",
        "role_ids": [
            "RO229",
            "RO235"
        ],
        "status": "Active",
        "post_code": "W13 0SD",
        "uprn": "12141307"
    },
    {
        "org_id": "WPR",
        "name": "HARROW CROWN COURT",
        "primary_role_id": "RO235",
        "role_ids": [
            "RO229",
            "RO235"
        ],
        "status": "Active",
        "post_code": "HA1 4TU",
        "uprn": "100023028908"
    },
    {
        "org_id": "WMN",
        "name": "HENDON MAGISTRATES COURT",
        "primary_role_id": "RO235",
        "role_ids": [
            "RO229",
            "RO235"
        ],
        "status": "Active",
        "post_code": "NW9 7BY",
        "uprn": "200222883"
    },
    {
        "org_id": "VGK",
        "name": "INNER LONDON CROWN COURT",
        "primary_role_id": "RO235",
        "role_ids": [
            "RO229",
            "RO235"
        ],
        "status": "Active",
        "post_code": "SE1 6AZ",
        "uprn": "200003372413"
    },
    {
        "org_id": "VNY",
        "name": "ISLEWORTH CROWN COURT",
        "primary_role_id": "RO235",
        "role_ids": [
            "RO229",
            "RO235"
        ],
        "status": "Active",
        "post_code": "TW7 5LG",
        "uprn": "Unknown"
    },
    {
        "org_id": "VQH",
        "name": "SNARESBROOK CROWN COURT",
        "primary_role_id": "RO235",
        "role_ids": [
            "RO229",
            "RO235"
        ],
        "status": "Active",
        "post_code": "E11 1QW",
        "uprn": "10034932250"
    },
    {
        "org_id": "WKJ",
        "name": "SOUTHWARK CROWN COURT",
        "primary_role_id": "RO235",
        "role_ids": [
            "RO229",
            "RO235"
        ],
        "status": "Active",
        "post_code": "SE1 2HU",
        "uprn": "200003356907"
    },
    {
        "org_id": "WLP",
        "name": "UXBRIDGE MAGISTRATES COURT",
        "primary_role_id": "RO235",
        "role_ids": [
            "RO229",
            "RO235"
        ],
        "status": "Active",
        "post_code": "UB8 1PQ",
        "uprn": "Unknown"
    },
    {
        "org_id": "WC0",
        "name": "WILLESDEN MAGISTRATES COURT",
        "primary_role_id": "RO235",
        "role_ids": [
            "RO229",
            "RO235"
        ],
        "status": "Active",
        "post_code": "NW10 2DZ",
        "uprn": "202086221"
    },
    {
        "org_id": "VVK",
        "name": "WIMBLEDON MAGISTRATES COURT",
        "primary_role_id": "RO235",
        "role_ids": [
            "RO229",
            "RO235"
        ],
        "status": "Active",
        "post_code": "SW19 7JP",
        "uprn": "48100274"
    },
    {
        "org_id": "WN7",
        "name": "WOOD GREEN CROWN COURT",
        "primary_role_id": "RO235",
        "role_ids": [
            "RO229",
            "RO235"
        ],
        "status": "Active",
        "post_code": "N22 5LF",
        "uprn": "10003975730"
    },
    {
        "org_id": "VVX",
        "name": "WOOLWICH CROWN COURT",
        "primary_role_id": "RO235",
        "role_ids": [
            "RO229",
            "RO235"
        ],
        "status": "Active",
        "post_code": "SE28 0EY",
        "uprn": "100023266935"
    },
    {
        "org_id": "VP7",
        "name": "IPSWICH MAGISTRATES COURT",
        "primary_role_id": "RO235",
        "role_ids": [
            "RO229",
            "RO235"
        ],
        "status": "Active",
        "post_code": "IP1 2AP",
        "uprn": "100091482386"
    },
    {
        "org_id": "VNE",
        "name": "NORTHAMPTON CUSTODY CENTRE",
        "primary_role_id": "RO235",
        "role_ids": [
            "RO229",
            "RO235"
        ],
        "status": "Active",
        "post_code": "NN4 7SL",
        "uprn": "15107087"
    },
    {
        "org_id": "WHK",
        "name": "WEEKLY WOODS CUSTODY CENTRE",
        "primary_role_id": "RO235",
        "role_ids": [
            "RO229",
            "RO235"
        ],
        "status": "Active",
        "post_code": "NN14 1UE",
        "uprn": "Unknown"
    },
    {
        "org_id": "WHN",
        "name": "LUTON CROWN COURT",
        "primary_role_id": "RO235",
        "role_ids": [
            "RO229",
            "RO235"
        ],
        "status": "Active",
        "post_code": "LU1 2AA",
        "uprn": "200003281948"
    },
    {
        "org_id": "WXD",
        "name": "CHELMSFORD CROWN COURT",
        "primary_role_id": "RO235",
        "role_ids": [
            "RO229",
            "RO235"
        ],
        "status": "Active",
        "post_code": "CM1 1NT",
        "uprn": "Unknown"
    },
    {
        "org_id": "WV5",
        "name": "ST ALBANS CROWN COURT",
        "primary_role_id": "RO235",
        "role_ids": [
            "RO229",
            "RO235"
        ],
        "status": "Active",
        "post_code": "AL1 3JU",
        "uprn": "Unknown"
    },
    {
        "org_id": "VWN",
        "name": "CAMBRIDGESHIRE CROWN COURT",
        "primary_role_id": "RO235",
        "role_ids": [
            "RO229",
            "RO235"
        ],
        "status": "Active",
        "post_code": "CB1 1BT",
        "uprn": "10002562842"
    },
    {
        "org_id": "VCR",
        "name": "CHELMSFORD MAGS COURT",
        "primary_role_id": "RO235",
        "role_ids": [
            "RO229",
            "RO235"
        ],
        "status": "Active",
        "post_code": "CM1 1NT",
        "uprn": "Unknown"
    },
    {
        "org_id": "WRX",
        "name": "LUTON MAGS COURT",
        "primary_role_id": "RO235",
        "role_ids": [
            "RO229",
            "RO235"
        ],
        "status": "Active",
        "post_code": "LU1 5BL",
        "uprn": "100081310797"
    },
    {
        "org_id": "WET",
        "name": "PETERBOROUGH MAGS COURT",
        "primary_role_id": "RO235",
        "role_ids": [
            "RO229",
            "RO235"
        ],
        "status": "Active",
        "post_code": "PE1 1ED",
        "uprn": "100091509393"
    },
    {
        "org_id": "WVW",
        "name": "HATFIELD REMAND CT MAGISTRATES COURT",
        "primary_role_id": "RO235",
        "role_ids": [
            "RO229",
            "RO235"
        ],
        "status": "Active",
        "post_code": "AL10 9SJ",
        "uprn": "10024370613"
    },
    {
        "org_id": "VQT",
        "name": "COLCHESTER MAGS COURT",
        "primary_role_id": "RO235",
        "role_ids": [
            "RO229",
            "RO235"
        ],
        "status": "Active",
        "post_code": "CO2 7EF",
        "uprn": "10024402866"
    },
    {
        "org_id": "WHD",
        "name": "CAMBRIDGE MAGS CENTRE",
        "primary_role_id": "RO235",
        "role_ids": [
            "RO229",
            "RO235"
        ],
        "status": "Active",
        "post_code": "CB2 3BJ",
        "uprn": "Unknown"
    },
    {
        "org_id": "VF9",
        "name": "HUNTINGDON MAGS COURT",
        "primary_role_id": "RO235",
        "role_ids": [
            "RO229",
            "RO235"
        ],
        "status": "Active",
        "post_code": "PE29 3DW",
        "uprn": "10012051829"
    },
    {
        "org_id": "WW3",
        "name": "STEVENAGE MAGS COURT",
        "primary_role_id": "RO235",
        "role_ids": [
            "RO229",
            "RO235"
        ],
        "status": "Active",
        "post_code": "SG1 1XH",
        "uprn": "Unknown"
    },
    {
        "org_id": "WD4",
        "name": "SOUTHEND MAGS COURT",
        "primary_role_id": "RO235",
        "role_ids": [
            "RO229",
            "RO235"
        ],
        "status": "Active",
        "post_code": "SS2 6EU",
        "uprn": "Unknown"
    },
    {
        "org_id": "VJJ",
        "name": "NOTTINGHAM CROWN COURT",
        "primary_role_id": "RO235",
        "role_ids": [
            "RO229",
            "RO235"
        ],
        "status": "Active",
        "post_code": "NG1 7EL",
        "uprn": "Unknown"
    },
    {
        "org_id": "VK2",
        "name": "BIRMINGHAM CROWN COURT",
        "primary_role_id": "RO235",
        "role_ids": [
            "RO229",
            "RO235"
        ],
        "status": "Active",
        "post_code": "B4 7NA",
        "uprn": "Unknown"
    },
    {
        "org_id": "WQQ",
        "name": "CHESTERFIELD MAGS COURT",
        "primary_role_id": "RO235",
        "role_ids": [
            "RO229",
            "RO235"
        ],
        "status": "Active",
        "post_code": "S41 7TW",
        "uprn": "74068223"
    },
    {
        "org_id": "VQ1",
        "name": "LINCOLN MAGS COURT",
        "primary_role_id": "RO235",
        "role_ids": [
            "RO229",
            "RO235"
        ],
        "status": "Active",
        "post_code": "LN5 7QA",
        "uprn": "Unknown"
    },
    {
        "org_id": "VQA",
        "name": "LEAMINGTON MAGS COURT",
        "primary_role_id": "RO235",
        "role_ids": [
            "RO229",
            "RO235"
        ],
        "status": "Active",
        "post_code": "CV32 4EL",
        "uprn": "10023406737"
    },
    {
        "org_id": "WLJ",
        "name": "BIRMINGHAM MAGS COURT",
        "primary_role_id": "RO235",
        "role_ids": [
            "RO229",
            "RO235"
        ],
        "status": "Active",
        "post_code": "B4 7NA",
        "uprn": "Unknown"
    },
    {
        "org_id": "VQQ",
        "name": "WALSALL MAGS COURT",
        "primary_role_id": "RO235",
        "role_ids": [
            "RO229",
            "RO235"
        ],
        "status": "Active",
        "post_code": "WS2 8HA",
        "uprn": "100071404537"
    },
    {
        "org_id": "WCX",
        "name": "KIDDERMINSTER COURT",
        "primary_role_id": "RO235",
        "role_ids": [
            "RO229",
            "RO235"
        ],
        "status": "Active",
        "post_code": "DY10 1QQ",
        "uprn": "Unknown"
    },
    {
        "org_id": "VY7",
        "name": "LEICESTER CROWN COURT",
        "primary_role_id": "RO235",
        "role_ids": [
            "RO229",
            "RO235"
        ],
        "status": "Active",
        "post_code": "LE1 6HG",
        "uprn": "2465074227"
    },
    {
        "org_id": "VVM",
        "name": "NORTH STAFFORDSHIRE JUSTICE CENTRE",
        "primary_role_id": "RO235",
        "role_ids": [
            "RO229",
            "RO235"
        ],
        "status": "Active",
        "post_code": "ST5 2AA",
        "uprn": "Unknown"
    },
    {
        "org_id": "VKK",
        "name": "YEOVIL COUNTY, FAMILY AND MAGISTRATES' COURT",
        "primary_role_id": "RO235",
        "role_ids": [
            "RO229",
            "RO235"
        ],
        "status": "Active",
        "post_code": "BA20 1SW",
        "uprn": "30026219"
    },
    {
        "org_id": "VFK",
        "name": "BRISTOL CROWN COURT",
        "primary_role_id": "RO235",
        "role_ids": [
            "RO229",
            "RO235"
        ],
        "status": "Active",
        "post_code": "BS1 1DA",
        "uprn": "103384"
    },
    {
        "org_id": "VNC",
        "name": "BRISTOL MAGISTRATES' COURT AND TRIBUNALS HEARING CENTRE",
        "primary_role_id": "RO235",
        "role_ids": [
            "RO229",
            "RO235"
        ],
        "status": "Active",
        "post_code": "BS1 3NU",
        "uprn": "Unknown"
    },
    {
        "org_id": "VMM",
        "name": "CHELTENHAM MAGISTRATES' COURT",
        "primary_role_id": "RO235",
        "role_ids": [
            "RO229",
            "RO235"
        ],
        "status": "Active",
        "post_code": "GL50 3PF",
        "uprn": "200002681627"
    },
    {
        "org_id": "VN3",
        "name": "PLYMOUTH MAGISTRATES' COURT",
        "primary_role_id": "RO235",
        "role_ids": [
            "RO229",
            "RO235"
        ],
        "status": "Active",
        "post_code": "PL1 2DP",
        "uprn": "100041064458"
    },
    {
        "org_id": "WCD",
        "name": "PLYMOUTH COMBINED COURT",
        "primary_role_id": "RO235",
        "role_ids": [
            "RO229",
            "RO235"
        ],
        "status": "Active",
        "post_code": "PL1 2ER",
        "uprn": "100041148840"
    },
    {
        "org_id": "WR4",
        "name": "SWINDON COMBINED COURT",
        "primary_role_id": "RO235",
        "role_ids": [
            "RO229",
            "RO235"
        ],
        "status": "Active",
        "post_code": "SN1 2HG",
        "uprn": "Unknown"
    },
    {
        "org_id": "VDC",
        "name": "SWINDON MAGISTRATES' COURT",
        "primary_role_id": "RO235",
        "role_ids": [
            "RO229",
            "RO235"
        ],
        "status": "Active",
        "post_code": "SN1 2JB",
        "uprn": "200002919349"
    },
    {
        "org_id": "WKD",
        "name": "SALISBURY LAW COURTS",
        "primary_role_id": "RO235",
        "role_ids": [
            "RO229",
            "RO235"
        ],
        "status": "Active",
        "post_code": "SP2 7EP",
        "uprn": "10014609549"
    },
    {
        "org_id": "WX4",
        "name": "TAUNTON MAGISTRATES' COURT",
        "primary_role_id": "RO235",
        "role_ids": [
            "RO229",
            "RO235"
        ],
        "status": "Active",
        "post_code": "TA1 4AX",
        "uprn": "100041071012"
    },
    {
        "org_id": "WWV",
        "name": "TRURO MAGISTRATES' COURT",
        "primary_role_id": "RO235",
        "role_ids": [
            "RO229",
            "RO235"
        ],
        "status": "Active",
        "post_code": "TR1 1HZ",
        "uprn": "10001215349"
    },
    {
        "org_id": "WK0",
        "name": "TRURO CROWN COURT",
        "primary_role_id": "RO235",
        "role_ids": [
            "RO229",
            "RO235"
        ],
        "status": "Active",
        "post_code": "TR1 2PB",
        "uprn": "100041022792"
    },
    {
        "org_id": "WV7",
        "name": "NEWTON ABBOT MAGISTRATES' COURT",
        "primary_role_id": "RO235",
        "role_ids": [
            "RO229",
            "RO235"
        ],
        "status": "Active",
        "post_code": "TQ12 1NG",
        "uprn": "100041036533"
    },
    {
        "org_id": "VLN",
        "name": "LEICESTER CROWN COURT",
        "primary_role_id": "RO235",
        "role_ids": [
            "RO229",
            "RO235"
        ],
        "status": "Active",
        "post_code": "LE1 6HG",
        "uprn": "2465074227"
    },
    {
        "org_id": "VXV",
        "name": "READING MAGISTRATES COURT",
        "primary_role_id": "RO235",
        "role_ids": [
            "RO229",
            "RO235"
        ],
        "status": "Active",
        "post_code": "RG1 7TQ",
        "uprn": "310026098"
    },
    {
        "org_id": "WAR",
        "name": "SOUTHAMPTON COMBINED COURT CENTRE",
        "primary_role_id": "RO235",
        "role_ids": [
            "RO229",
            "RO235"
        ],
        "status": "Active",
        "post_code": "SO15 2XQ",
        "uprn": "100062503923"
    },
    {
        "org_id": "WYE",
        "name": "PORTSMOUTH MAGISTRATES COURT",
        "primary_role_id": "RO235",
        "role_ids": [
            "RO229",
            "RO235"
        ],
        "status": "Active",
        "post_code": "PO1 2DQ",
        "uprn": "1775087290"
    },
    {
        "org_id": "WPP",
        "name": "POOLE MAGISTRATES COURT",
        "primary_role_id": "RO235",
        "role_ids": [
            "RO229",
            "RO235"
        ],
        "status": "Active",
        "post_code": "BH15 2NS",
        "uprn": "10091758224"
    },
    {
        "org_id": "WLH",
        "name": "READING CROWN COURT",
        "primary_role_id": "RO235",
        "role_ids": [
            "RO229",
            "RO235"
        ],
        "status": "Active",
        "post_code": "RG1 3EH",
        "uprn": "Unknown"
    },
    {
        "org_id": "VCD",
        "name": "LIVERPOOL MAGISTRATES & CROWN COURT",
        "primary_role_id": "RO235",
        "role_ids": [
            "RO229",
            "RO235"
        ],
        "status": "Active",
        "post_code": "L2 1XA",
        "uprn": "38042931"
    },
    {
        "org_id": "VCE",
        "name": "SOUTH SEFTON MAGISTRATES COURT",
        "primary_role_id": "RO235",
        "role_ids": [
            "RO229",
            "RO235"
        ],
        "status": "Active",
        "post_code": "L20 3XX",
        "uprn": "41061562"
    },
    {
        "org_id": "VCF",
        "name": "WIRRAL MAGISTRATES COURT",
        "primary_role_id": "RO235",
        "role_ids": [
            "RO229",
            "RO235"
        ],
        "status": "Active",
        "post_code": "CH41 5HW",
        "uprn": "42157102"
    },
    {
        "org_id": "VJF",
        "name": "ST. ALBANS MAGISTRATES COURT",
        "primary_role_id": "RO235",
        "role_ids": [
            "RO229",
            "RO235"
        ],
        "status": "Active",
        "post_code": "AL1 3LB",
        "uprn": "200003642177"
    },
    {
        "org_id": "N1B8W",
        "name": "WOLVERHAMPTON MAGISTRATES' COURT",
        "primary_role_id": "RO235",
        "role_ids": [
            "RO229",
            "RO235"
        ],
        "status": "Active",
        "post_code": "WV1 1RA",
        "uprn": "10007120244"
    },
    {
        "org_id": "N6J6J",
        "name": "WEST HAMPSHIRE COURT",
        "primary_role_id": "RO235",
        "role_ids": [
            "RO229",
            "RO235"
        ],
        "status": "Active",
        "post_code": "SO17 1EY",
        "uprn": "200002900524"
    },
    {
        "org_id": "L9T4M",
        "name": "STRATFORD MAGISTRATES' COURT",
        "primary_role_id": "RO235",
        "role_ids": [
            "RO229",
            "RO235"
        ],
        "status": "Active",
        "post_code": "E15 4SB",
        "uprn": "Unknown"
    }
]