[
    {
        "org_id": "XP008",
        "name": "WEST MIDLANDS PUBLIC HEALTH OBSERVATORY",
        "primary_role_id": "RO134",
        "role_ids": [
            "RO134"
        ],
        "status": "Active",
        "post_code": "B15 2SQ",
        "uprn": "Unknown"
    },
    {
        "org_id": "XP009",
        "name": "EAST MIDLANDS PUBLIC HEALTH OBSERVATORY",
        "primary_role_id": "RO134",
        "role_ids": [
            "RO134"
        ],
        "status": "Active",
        "post_code": "NG19 8RL",
        "uprn": "Unknown"
    },
    {
        "org_id": "XP002",
        "name": "LONDON PUBLIC HEALTH OBSERVATORY",
        "primary_role_id": "RO134",
        "role_ids": [
            "RO134"
        ],
        "status": "Active",
        "post_code": "SW1E 5RS",
        "uprn": "Unknown"
    },
    {
        "org_id": "XP011",
        "name": "YORKSHIRE AND HUMBER PUBLIC HEALTH OBSERVATORY",
        "primary_role_id": "RO134",
        "role_ids": [
            "RO134"
        ],
        "status": "Active",
        "post_code": "YO10 5DG",
        "uprn": "Unknown"
    },
    {
        "org_id": "XP001",
        "name": "EASTERN REGION PUBLIC HEALTH OBSERVATORY",
        "primary_role_id": "RO134",
        "role_ids": [
            "RO134"
        ],
        "status": "Active",
        "post_code": "CB2 0SR",
        "uprn": "Unknown"
    },
    {
        "org_id": "XP003",
        "name": "NORTH WEST PUBLIC HEALTH OBSERVATORY",
        "primary_role_id": "RO134",
        "role_ids": [
            "RO134"
        ],
        "status": "Active",
        "post_code": "L3 2AJ",
        "uprn": "Unknown"
    },
    {
        "org_id": "XP006",
        "name": "SOUTH WEST PUBLIC HEALTH OBSERVATORY",
        "primary_role_id": "RO134",
        "role_ids": [
            "RO134"
        ],
        "status": "Active",
        "post_code": "BS8 2RA",
        "uprn": "Unknown"
    },
    {
        "org_id": "XP005",
        "name": "SOUTH EAST PUBLIC HEALTH OBSERVATORY",
        "primary_role_id": "RO134",
        "role_ids": [
            "RO134"
        ],
        "status": "Active",
        "post_code": "OX4 2GX",
        "uprn": "Unknown"
    },
    {
        "org_id": "XP010",
        "name": "NORTH EAST PUBLIC HEALTH OBSERVATORY",
        "primary_role_id": "RO134",
        "role_ids": [
            "RO134"
        ],
        "status": "Active",
        "post_code": "TS17 6BH",
        "uprn": "Unknown"
    }
]