[
    {
        "org_id": "0CV",
        "name": "DSCRO NORTH WEST",
        "primary_role_id": "RO216",
        "role_ids": [
            "RO216"
        ],
        "status": "Active",
        "post_code": "CH2 1HJ",
        "uprn": "Unknown"
    },
    {
        "org_id": "0CW",
        "name": "DSCRO SOUTH",
        "primary_role_id": "RO216",
        "role_ids": [
            "RO216"
        ],
        "status": "Active",
        "post_code": "BN7 2PB",
        "uprn": "Unknown"
    },
    {
        "org_id": "0CK",
        "name": "DSCRO CENTRAL SOUTHERN",
        "primary_role_id": "RO216",
        "role_ids": [
            "RO216"
        ],
        "status": "Active",
        "post_code": "SN10 5EQ",
        "uprn": "Unknown"
    },
    {
        "org_id": "0CL",
        "name": "DSCRO GEM",
        "primary_role_id": "RO216",
        "role_ids": [
            "RO216"
        ],
        "status": "Active",
        "post_code": "LE1 6NB",
        "uprn": "Unknown"
    },
    {
        "org_id": "0CM",
        "name": "DSCRO NORTH OF ENGLAND",
        "primary_role_id": "RO216",
        "role_ids": [
            "RO216"
        ],
        "status": "Active",
        "post_code": "NE13 9BA",
        "uprn": "Unknown"
    },
    {
        "org_id": "0CN",
        "name": "DSCRO SOUTH WEST",
        "primary_role_id": "RO216",
        "role_ids": [
            "RO216"
        ],
        "status": "Active",
        "post_code": "BS2 8HW",
        "uprn": "Unknown"
    },
    {
        "org_id": "0CP",
        "name": "DSCRO CENTRAL MIDLANDS",
        "primary_role_id": "RO216",
        "role_ids": [
            "RO216"
        ],
        "status": "Active",
        "post_code": "B70 9LD",
        "uprn": "Unknown"
    },
    {
        "org_id": "0CQ",
        "name": "DSCRO YORKSHIRE",
        "primary_role_id": "RO216",
        "role_ids": [
            "RO216"
        ],
        "status": "Active",
        "post_code": "BD5 7JR",
        "uprn": "Unknown"
    },
    {
        "org_id": "0CR",
        "name": "DSCRO SOUTH LONDON",
        "primary_role_id": "RO216",
        "role_ids": [
            "RO216"
        ],
        "status": "Active",
        "post_code": "SE1 7NT",
        "uprn": "100023225356"
    },
    {
        "org_id": "0CT",
        "name": "DSCRO NORTH AND EAST LONDON",
        "primary_role_id": "RO216",
        "role_ids": [
            "RO216"
        ],
        "status": "Active",
        "post_code": "EC2A 2DU",
        "uprn": "Unknown"
    },
    {
        "org_id": "H5R0W",
        "name": "DSCRO NCDR",
        "primary_role_id": "RO216",
        "role_ids": [
            "RO216"
        ],
        "status": "Active",
        "post_code": "LE1 6NB",
        "uprn": "10091807238"
    },
    {
        "org_id": "W5H7E",
        "name": "UNIFIED DSCRO",
        "primary_role_id": "RO216",
        "role_ids": [
            "RO216"
        ],
        "status": "Active",
        "post_code": "LS2 7UE",
        "uprn": "Unknown"
    }
]