[
    {
        "org_id": "02T",
        "name": "NHS WEST YORKSHIRE ICB - 02T",
        "primary_role_id": "RO98",
        "role_ids": [
            "RO98",
            "RO319"
        ],
        "status": "Active",
        "post_code": "HX1 1PW",
        "uprn": "Unknown"
    },
    {
        "org_id": "05G",
        "name": "NHS STAFFORDSHIRE AND STOKE-ON-TRENT ICB - 05G",
        "primary_role_id": "RO98",
        "role_ids": [
            "RO98",
            "RO319"
        ],
        "status": "Active",
        "post_code": "ST5 1QG",
        "uprn": "Unknown"
    },
    {
        "org_id": "03W",
        "name": "NHS LEICESTER, LEICESTERSHIRE AND RUTLAND ICB - 03W",
        "primary_role_id": "RO98",
        "role_ids": [
            "RO98",
            "RO319"
        ],
        "status": "Active",
        "post_code": "LE3 8TB",
        "uprn": "Unknown"
    },
    {
        "org_id": "04C",
        "name": "NHS LEICESTER, LEICESTERSHIRE AND RUTLAND ICB - 04C",
        "primary_role_id": "RO98",
        "role_ids": [
            "RO98",
            "RO319"
        ],
        "status": "Active",
        "post_code": "LE3 8TB",
        "uprn": "Unknown"
    },
    {
        "org_id": "04V",
        "name": "NHS LEICESTER, LEICESTERSHIRE AND RUTLAND ICB - 04V",
        "primary_role_id": "RO98",
        "role_ids": [
            "RO98",
            "RO319"
        ],
        "status": "Active",
        "post_code": "LE3 8TB",
        "uprn": "Unknown"
    },
    {
        "org_id": "04Y",
        "name": "NHS STAFFORDSHIRE AND STOKE-ON-TRENT ICB - 04Y",
        "primary_role_id": "RO98",
        "role_ids": [
            "RO98",
            "RO319"
        ],
        "status": "Active",
        "post_code": "WS11 1JP",
        "uprn": "Unknown"
    },
    {
        "org_id": "05D",
        "name": "NHS STAFFORDSHIRE AND STOKE-ON-TRENT ICB - 05D",
        "primary_role_id": "RO98",
        "role_ids": [
            "RO98",
            "RO319"
        ],
        "status": "Active",
        "post_code": "DE14 2WF",
        "uprn": "Unknown"
    },
    {
        "org_id": "05Q",
        "name": "NHS STAFFORDSHIRE AND STOKE-ON-TRENT ICB - 05Q",
        "primary_role_id": "RO98",
        "role_ids": [
            "RO98",
            "RO319"
        ],
        "status": "Active",
        "post_code": "B78 3HF",
        "uprn": "Unknown"
    },
    {
        "org_id": "05V",
        "name": "NHS STAFFORDSHIRE AND STOKE-ON-TRENT ICB - 05V",
        "primary_role_id": "RO98",
        "role_ids": [
            "RO98",
            "RO319"
        ],
        "status": "Active",
        "post_code": "ST16 2LP",
        "uprn": "Unknown"
    },
    {
        "org_id": "05W",
        "name": "NHS STAFFORDSHIRE AND STOKE-ON-TRENT ICB - 05W",
        "primary_role_id": "RO98",
        "role_ids": [
            "RO98",
            "RO319"
        ],
        "status": "Active",
        "post_code": "ST4 7PZ",
        "uprn": "Unknown"
    },
    {
        "org_id": "06H",
        "name": "NHS CAMBRIDGESHIRE AND PETERBOROUGH ICB - 06H",
        "primary_role_id": "RO98",
        "role_ids": [
            "RO98",
            "RO319"
        ],
        "status": "Active",
        "post_code": "CB7 4EA",
        "uprn": "Unknown"
    },
    {
        "org_id": "06K",
        "name": "NHS HERTFORDSHIRE AND WEST ESSEX ICB - 06K",
        "primary_role_id": "RO98",
        "role_ids": [
            "RO98",
            "RO319"
        ],
        "status": "Active",
        "post_code": "AL8 6JL",
        "uprn": "100081157584"
    },
    {
        "org_id": "06L",
        "name": "NHS SUFFOLK AND NORTH EAST ESSEX ICB - 06L",
        "primary_role_id": "RO98",
        "role_ids": [
            "RO98",
            "RO319"
        ],
        "status": "Active",
        "post_code": "IP1 2BX",
        "uprn": "10093554947"
    },
    {
        "org_id": "06N",
        "name": "NHS HERTFORDSHIRE AND WEST ESSEX ICB - 06N",
        "primary_role_id": "RO98",
        "role_ids": [
            "RO98",
            "RO319"
        ],
        "status": "Active",
        "post_code": "HP1 1DN",
        "uprn": "10093313547"
    },
    {
        "org_id": "06Q",
        "name": "NHS MID AND SOUTH ESSEX ICB - 06Q",
        "primary_role_id": "RO98",
        "role_ids": [
            "RO98",
            "RO319"
        ],
        "status": "Active",
        "post_code": "CM2 5PF",
        "uprn": "100091623998"
    },
    {
        "org_id": "06T",
        "name": "NHS SUFFOLK AND NORTH EAST ESSEX ICB - 06T",
        "primary_role_id": "RO98",
        "role_ids": [
            "RO98",
            "RO319"
        ],
        "status": "Active",
        "post_code": "CO3 3WG",
        "uprn": "100091468723"
    },
    {
        "org_id": "07G",
        "name": "NHS MID AND SOUTH ESSEX ICB - 07G",
        "primary_role_id": "RO98",
        "role_ids": [
            "RO98",
            "RO319"
        ],
        "status": "Active",
        "post_code": "RM17 6SL",
        "uprn": "Unknown"
    },
    {
        "org_id": "07H",
        "name": "NHS HERTFORDSHIRE AND WEST ESSEX ICB - 07H",
        "primary_role_id": "RO98",
        "role_ids": [
            "RO98",
            "RO319"
        ],
        "status": "Active",
        "post_code": "CM17 9NA",
        "uprn": "Unknown"
    },
    {
        "org_id": "07K",
        "name": "NHS SUFFOLK AND NORTH EAST ESSEX ICB - 07K",
        "primary_role_id": "RO98",
        "role_ids": [
            "RO98",
            "RO319"
        ],
        "status": "Active",
        "post_code": "IP33 3YU",
        "uprn": "Unknown"
    },
    {
        "org_id": "99E",
        "name": "NHS MID AND SOUTH ESSEX ICB - 99E",
        "primary_role_id": "RO98",
        "role_ids": [
            "RO98",
            "RO319"
        ],
        "status": "Active",
        "post_code": "SS14 3HG",
        "uprn": "10090685023"
    },
    {
        "org_id": "99F",
        "name": "NHS MID AND SOUTH ESSEX ICB - 99F",
        "primary_role_id": "RO98",
        "role_ids": [
            "RO98",
            "RO319"
        ],
        "status": "Active",
        "post_code": "SS6 7QF",
        "uprn": "100091598870"
    },
    {
        "org_id": "99G",
        "name": "NHS MID AND SOUTH ESSEX ICB - 99G",
        "primary_role_id": "RO98",
        "role_ids": [
            "RO98",
            "RO319"
        ],
        "status": "Active",
        "post_code": "SS2 6EN",
        "uprn": "Unknown"
    },
    {
        "org_id": "00L",
        "name": "NHS NORTH EAST AND NORTH CUMBRIA ICB - 00L",
        "primary_role_id": "RO98",
        "role_ids": [
            "RO98",
            "RO319"
        ],
        "status": "Active",
        "post_code": "NE61 6BL",
        "uprn": "10091032622"
    },
    {
        "org_id": "00N",
        "name": "NHS NORTH EAST AND NORTH CUMBRIA ICB - 00N",
        "primary_role_id": "RO98",
        "role_ids": [
            "RO98",
            "RO319"
        ],
        "status": "Active",
        "post_code": "NE32 5NN",
        "uprn": "100000316308"
    },
    {
        "org_id": "00P",
        "name": "NHS NORTH EAST AND NORTH CUMBRIA ICB - 00P",
        "primary_role_id": "RO98",
        "role_ids": [
            "RO98",
            "RO319"
        ],
        "status": "Active",
        "post_code": "SR5 3XB",
        "uprn": "45127178"
    },
    {
        "org_id": "00Q",
        "name": "NHS LANCASHIRE AND SOUTH CUMBRIA ICB - 00Q",
        "primary_role_id": "RO98",
        "role_ids": [
            "RO98",
            "RO319"
        ],
        "status": "Active",
        "post_code": "BB1 2FD",
        "uprn": "Unknown"
    },
    {
        "org_id": "00R",
        "name": "NHS LANCASHIRE AND SOUTH CUMBRIA ICB - 00R",
        "primary_role_id": "RO98",
        "role_ids": [
            "RO98",
            "RO319"
        ],
        "status": "Active",
        "post_code": "FY1 6JX",
        "uprn": "10070844112"
    },
    {
        "org_id": "00T",
        "name": "NHS GREATER MANCHESTER ICB - 00T",
        "primary_role_id": "RO98",
        "role_ids": [
            "RO98",
            "RO319"
        ],
        "status": "Active",
        "post_code": "BL1 1PP",
        "uprn": "100012838080"
    },
    {
        "org_id": "00V",
        "name": "NHS GREATER MANCHESTER ICB - 00V",
        "primary_role_id": "RO98",
        "role_ids": [
            "RO98",
            "RO319"
        ],
        "status": "Active",
        "post_code": "BL9 0SN",
        "uprn": "Unknown"
    },
    {
        "org_id": "00W",
        "name": "NHS CENTRAL MANCHESTER CCG",
        "primary_role_id": "RO98",
        "role_ids": [
            "RO98"
        ],
        "status": "Active",
        "post_code": "M14 7LU",
        "uprn": "Unknown"
    },
    {
        "org_id": "00X",
        "name": "NHS LANCASHIRE AND SOUTH CUMBRIA ICB - 00X",
        "primary_role_id": "RO98",
        "role_ids": [
            "RO98",
            "RO319"
        ],
        "status": "Active",
        "post_code": "PR26 6TT",
        "uprn": "Unknown"
    },
    {
        "org_id": "00Y",
        "name": "NHS GREATER MANCHESTER ICB - 00Y",
        "primary_role_id": "RO98",
        "role_ids": [
            "RO98",
            "RO319"
        ],
        "status": "Active",
        "post_code": "OL1 1UT",
        "uprn": "10091824044"
    },
    {
        "org_id": "01A",
        "name": "NHS LANCASHIRE AND SOUTH CUMBRIA ICB - 01A",
        "primary_role_id": "RO98",
        "role_ids": [
            "RO98",
            "RO319"
        ],
        "status": "Active",
        "post_code": "BB9 8AS",
        "uprn": "10090962176"
    },
    {
        "org_id": "01D",
        "name": "NHS GREATER MANCHESTER ICB - 01D",
        "primary_role_id": "RO98",
        "role_ids": [
            "RO98",
            "RO319"
        ],
        "status": "Active",
        "post_code": "OL16 1XU",
        "uprn": "10023365089"
    },
    {
        "org_id": "01E",
        "name": "NHS LANCASHIRE AND SOUTH CUMBRIA ICB - 01E",
        "primary_role_id": "RO98",
        "role_ids": [
            "RO98",
            "RO319"
        ],
        "status": "Active",
        "post_code": "PR26 6TT",
        "uprn": "Unknown"
    },
    {
        "org_id": "01F",
        "name": "NHS CHESHIRE AND MERSEYSIDE ICB - 01F",
        "primary_role_id": "RO98",
        "role_ids": [
            "RO98",
            "RO319"
        ],
        "status": "Active",
        "post_code": "WA7 5TD",
        "uprn": "Unknown"
    },
    {
        "org_id": "01G",
        "name": "NHS GREATER MANCHESTER ICB - 01G",
        "primary_role_id": "RO98",
        "role_ids": [
            "RO98",
            "RO319"
        ],
        "status": "Active",
        "post_code": "M27 5AW",
        "uprn": "Unknown"
    },
    {
        "org_id": "01H",
        "name": "NHS NORTH EAST AND NORTH CUMBRIA ICB - 01H",
        "primary_role_id": "RO98",
        "role_ids": [
            "RO98",
            "RO319"
        ],
        "status": "Active",
        "post_code": "CA1 2SE",
        "uprn": "10008675486"
    },
    {
        "org_id": "01J",
        "name": "NHS CHESHIRE AND MERSEYSIDE ICB - 01J",
        "primary_role_id": "RO98",
        "role_ids": [
            "RO98",
            "RO319"
        ],
        "status": "Active",
        "post_code": "L36 6GA",
        "uprn": "10091806357"
    },
    {
        "org_id": "01K",
        "name": "NHS LANCASHIRE AND SOUTH CUMBRIA ICB - 01K",
        "primary_role_id": "RO98",
        "role_ids": [
            "RO98",
            "RO319"
        ],
        "status": "Active",
        "post_code": "LA1 1QD",
        "uprn": "10009273237"
    },
    {
        "org_id": "01T",
        "name": "NHS CHESHIRE AND MERSEYSIDE ICB - 01T",
        "primary_role_id": "RO98",
        "role_ids": [
            "RO98",
            "RO319"
        ],
        "status": "Active",
        "post_code": "L20 3DL",
        "uprn": "10091898967"
    },
    {
        "org_id": "01V",
        "name": "NHS CHESHIRE AND MERSEYSIDE ICB - 01V",
        "primary_role_id": "RO98",
        "role_ids": [
            "RO98",
            "RO319"
        ],
        "status": "Active",
        "post_code": "PR8 6PL",
        "uprn": "41226790"
    },
    {
        "org_id": "01W",
        "name": "NHS GREATER MANCHESTER ICB - 01W",
        "primary_role_id": "RO98",
        "role_ids": [
            "RO98",
            "RO319"
        ],
        "status": "Active",
        "post_code": "SK1 3XE",
        "uprn": "Unknown"
    },
    {
        "org_id": "01X",
        "name": "NHS CHESHIRE AND MERSEYSIDE ICB - 01X",
        "primary_role_id": "RO98",
        "role_ids": [
            "RO98",
            "RO319"
        ],
        "status": "Active",
        "post_code": "WA10 1FY",
        "uprn": "Unknown"
    },
    {
        "org_id": "01Y",
        "name": "NHS GREATER MANCHESTER ICB - 01Y",
        "primary_role_id": "RO98",
        "role_ids": [
            "RO98",
            "RO319"
        ],
        "status": "Active",
        "post_code": "OL6 6BH",
        "uprn": "Unknown"
    },
    {
        "org_id": "02A",
        "name": "NHS GREATER MANCHESTER ICB - 02A",
        "primary_role_id": "RO98",
        "role_ids": [
            "RO98",
            "RO319"
        ],
        "status": "Active",
        "post_code": "M32 0TH",
        "uprn": "10091813602"
    },
    {
        "org_id": "02E",
        "name": "NHS CHESHIRE AND MERSEYSIDE ICB - 02E",
        "primary_role_id": "RO98",
        "role_ids": [
            "RO98",
            "RO319"
        ],
        "status": "Active",
        "post_code": "WA3 7QH",
        "uprn": "200000979149"
    },
    {
        "org_id": "02G",
        "name": "NHS LANCASHIRE AND SOUTH CUMBRIA ICB - 02G",
        "primary_role_id": "RO98",
        "role_ids": [
            "RO98",
            "RO319"
        ],
        "status": "Active",
        "post_code": "L39 2JW",
        "uprn": "10091806704"
    },
    {
        "org_id": "02H",
        "name": "NHS GREATER MANCHESTER ICB - 02H",
        "primary_role_id": "RO98",
        "role_ids": [
            "RO98",
            "RO319"
        ],
        "status": "Active",
        "post_code": "WN1 1NJ",
        "uprn": "10014066702"
    },
    {
        "org_id": "02M",
        "name": "NHS LANCASHIRE AND SOUTH CUMBRIA ICB - 02M",
        "primary_role_id": "RO98",
        "role_ids": [
            "RO98",
            "RO319"
        ],
        "status": "Active",
        "post_code": "FY1 6JX",
        "uprn": "10070844112"
    },
    {
        "org_id": "02Q",
        "name": "NHS NOTTINGHAM AND NOTTINGHAMSHIRE ICB - 02Q",
        "primary_role_id": "RO98",
        "role_ids": [
            "RO98",
            "RO319"
        ],
        "status": "Active",
        "post_code": "DN22 7XF",
        "uprn": "Unknown"
    },
    {
        "org_id": "02X",
        "name": "NHS SOUTH YORKSHIRE ICB - 02X",
        "primary_role_id": "RO98",
        "role_ids": [
            "RO98",
            "RO319"
        ],
        "status": "Active",
        "post_code": "DN4 5HZ",
        "uprn": "100052238172"
    },
    {
        "org_id": "02Y",
        "name": "NHS HUMBER AND NORTH YORKSHIRE ICB - 02Y",
        "primary_role_id": "RO98",
        "role_ids": [
            "RO98",
            "RO319"
        ],
        "status": "Active",
        "post_code": "HU10 6DT",
        "uprn": "10091799610"
    },
    {
        "org_id": "03F",
        "name": "NHS HUMBER AND NORTH YORKSHIRE ICB - 03F",
        "primary_role_id": "RO98",
        "role_ids": [
            "RO98",
            "RO319"
        ],
        "status": "Active",
        "post_code": "HU1 1UY",
        "uprn": "10024009288"
    },
    {
        "org_id": "03H",
        "name": "NHS HUMBER AND NORTH YORKSHIRE ICB - 03H",
        "primary_role_id": "RO98",
        "role_ids": [
            "RO98",
            "RO319"
        ],
        "status": "Active",
        "post_code": "DN31 1HU",
        "uprn": "11070357"
    },
    {
        "org_id": "03K",
        "name": "NHS HUMBER AND NORTH YORKSHIRE ICB - 03K",
        "primary_role_id": "RO98",
        "role_ids": [
            "RO98",
            "RO319"
        ],
        "status": "Active",
        "post_code": "DN20 8GS",
        "uprn": "200000883512"
    },
    {
        "org_id": "03L",
        "name": "NHS SOUTH YORKSHIRE ICB - 03L",
        "primary_role_id": "RO98",
        "role_ids": [
            "RO98",
            "RO319"
        ],
        "status": "Active",
        "post_code": "S66 1YY",
        "uprn": "10000859370"
    },
    {
        "org_id": "03N",
        "name": "NHS SOUTH YORKSHIRE ICB - 03N",
        "primary_role_id": "RO98",
        "role_ids": [
            "RO98",
            "RO319"
        ],
        "status": "Active",
        "post_code": "S1 3FG",
        "uprn": "Unknown"
    },
    {
        "org_id": "03Q",
        "name": "NHS HUMBER AND NORTH YORKSHIRE ICB - 03Q",
        "primary_role_id": "RO98",
        "role_ids": [
            "RO98",
            "RO319"
        ],
        "status": "Active",
        "post_code": "YO1 6GA",
        "uprn": "Unknown"
    },
    {
        "org_id": "03R",
        "name": "NHS WEST YORKSHIRE ICB - 03R",
        "primary_role_id": "RO98",
        "role_ids": [
            "RO98",
            "RO319"
        ],
        "status": "Active",
        "post_code": "WF1 1LT",
        "uprn": "10091862470"
    },
    {
        "org_id": "99A",
        "name": "NHS CHESHIRE AND MERSEYSIDE ICB - 99A",
        "primary_role_id": "RO98",
        "role_ids": [
            "RO98",
            "RO319"
        ],
        "status": "Active",
        "post_code": "L1 2SA",
        "uprn": "38311679"
    },
    {
        "org_id": "99C",
        "name": "NHS NORTH EAST AND NORTH CUMBRIA ICB - 99C",
        "primary_role_id": "RO98",
        "role_ids": [
            "RO98",
            "RO319"
        ],
        "status": "Active",
        "post_code": "NE29 7ST",
        "uprn": "47227144"
    },
    {
        "org_id": "09D",
        "name": "NHS SUSSEX ICB - 09D",
        "primary_role_id": "RO98",
        "role_ids": [
            "RO98",
            "RO319"
        ],
        "status": "Active",
        "post_code": "BN3 4AH",
        "uprn": "22215690"
    },
    {
        "org_id": "10Q",
        "name": "NHS BUCKINGHAMSHIRE, OXFORDSHIRE AND BERKSHIRE WEST ICB - 10Q",
        "primary_role_id": "RO98",
        "role_ids": [
            "RO98",
            "RO319"
        ],
        "status": "Active",
        "post_code": "OX4 2LH",
        "uprn": "200004675793"
    },
    {
        "org_id": "10R",
        "name": "NHS HAMPSHIRE AND ISLE OF WIGHT ICB - 10R",
        "primary_role_id": "RO98",
        "role_ids": [
            "RO98",
            "RO319"
        ],
        "status": "Active",
        "post_code": "PO1 2GJ",
        "uprn": "Unknown"
    },
    {
        "org_id": "11J",
        "name": "NHS DORSET ICB - 11J",
        "primary_role_id": "RO98",
        "role_ids": [
            "RO98",
            "RO319"
        ],
        "status": "Active",
        "post_code": "DT1 1TG",
        "uprn": "Unknown"
    },
    {
        "org_id": "11M",
        "name": "NHS GLOUCESTERSHIRE ICB - 11M",
        "primary_role_id": "RO98",
        "role_ids": [
            "RO98",
            "RO319"
        ],
        "status": "Active",
        "post_code": "GL3 4FE",
        "uprn": "10013764630"
    },
    {
        "org_id": "11X",
        "name": "NHS SOMERSET ICB - 11X",
        "primary_role_id": "RO98",
        "role_ids": [
            "RO98",
            "RO319"
        ],
        "status": "Active",
        "post_code": "BA22 8HR",
        "uprn": "30095868"
    },
    {
        "org_id": "12A",
        "name": "NHS SOUTH GLOUCESTERSHIRE CCG",
        "primary_role_id": "RO98",
        "role_ids": [
            "RO98"
        ],
        "status": "Active",
        "post_code": "BS30 8FJ",
        "uprn": "Unknown"
    },
    {
        "org_id": "11N",
        "name": "NHS CORNWALL AND THE ISLES OF SCILLY ICB - 11N",
        "primary_role_id": "RO98",
        "role_ids": [
            "RO98",
            "RO319"
        ],
        "status": "Active",
        "post_code": "PL31 2FR",
        "uprn": "Unknown"
    },
    {
        "org_id": "02P",
        "name": "NHS SOUTH YORKSHIRE ICB - 02P",
        "primary_role_id": "RO98",
        "role_ids": [
            "RO98",
            "RO319"
        ],
        "status": "Active",
        "post_code": "S70 2DR",
        "uprn": "10022877298"
    },
    {
        "org_id": "12F",
        "name": "NHS CHESHIRE AND MERSEYSIDE ICB - 12F",
        "primary_role_id": "RO98",
        "role_ids": [
            "RO98",
            "RO319"
        ],
        "status": "Active",
        "post_code": "CH41 5AA",
        "uprn": "Unknown"
    },
    {
        "org_id": "13P",
        "name": "NHS BIRMINGHAM CROSSCITY CCG",
        "primary_role_id": "RO98",
        "role_ids": [
            "RO98"
        ],
        "status": "Active",
        "post_code": "B16 9PA",
        "uprn": "100071413349"
    },
    {
        "org_id": "13Q",
        "name": "NATIONAL COMMISSIONING HUB 1",
        "primary_role_id": "RO98",
        "role_ids": [
            "RO98",
            "RO218"
        ],
        "status": "Active",
        "post_code": "LS2 7UE",
        "uprn": "Unknown"
    },
    {
        "org_id": "13R",
        "name": "LONDON COMMISSIONING HUB",
        "primary_role_id": "RO98",
        "role_ids": [
            "RO98",
            "RO218"
        ],
        "status": "Active",
        "post_code": "LS2 7UE",
        "uprn": "Unknown"
    },
    {
        "org_id": "13T",
        "name": "NHS NORTH EAST AND NORTH CUMBRIA ICB - 13T",
        "primary_role_id": "RO98",
        "role_ids": [
            "RO98",
            "RO319"
        ],
        "status": "Active",
        "post_code": "NE15 8NY",
        "uprn": "Unknown"
    },
    {
        "org_id": "13V",
        "name": "YORKSHIRE AND HUMBER COMMISSIONING HUB",
        "primary_role_id": "RO98",
        "role_ids": [
            "RO98",
            "RO218"
        ],
        "status": "Active",
        "post_code": "LS2 7UE",
        "uprn": "Unknown"
    },
    {
        "org_id": "13W",
        "name": "LANCASHIRE AND GREATER MANCHESTER COMMISSIONING HUB",
        "primary_role_id": "RO98",
        "role_ids": [
            "RO98",
            "RO218"
        ],
        "status": "Active",
        "post_code": "LS2 7UE",
        "uprn": "Unknown"
    },
    {
        "org_id": "13X",
        "name": "CUMBRIA AND NORTH EAST COMMISSIONING HUB",
        "primary_role_id": "RO98",
        "role_ids": [
            "RO98",
            "RO218"
        ],
        "status": "Active",
        "post_code": "LS2 7UE",
        "uprn": "Unknown"
    },
    {
        "org_id": "13Y",
        "name": "CHESHIRE AND MERSEYSIDE COMMISSIONING HUB",
        "primary_role_id": "RO98",
        "role_ids": [
            "RO98",
            "RO218"
        ],
        "status": "Active",
        "post_code": "LS2 7UE",
        "uprn": "Unknown"
    },
    {
        "org_id": "14A",
        "name": "MIDLANDS COMMISSIONING HUB",
        "primary_role_id": "RO98",
        "role_ids": [
            "RO98",
            "RO218"
        ],
        "status": "Active",
        "post_code": "LS2 7UE",
        "uprn": "Unknown"
    },
    {
        "org_id": "14C",
        "name": "WEST MIDLANDS COMMISSIONING HUB",
        "primary_role_id": "RO98",
        "role_ids": [
            "RO98",
            "RO218"
        ],
        "status": "Active",
        "post_code": "LS2 7UE",
        "uprn": "Unknown"
    },
    {
        "org_id": "14D",
        "name": "CENTRAL MIDLANDS COMMISSIONING HUB",
        "primary_role_id": "RO98",
        "role_ids": [
            "RO98",
            "RO218"
        ],
        "status": "Active",
        "post_code": "LS2 7UE",
        "uprn": "Unknown"
    },
    {
        "org_id": "14E",
        "name": "EAST OF ENGLAND COMMISSIONING HUB",
        "primary_role_id": "RO98",
        "role_ids": [
            "RO98",
            "RO218"
        ],
        "status": "Active",
        "post_code": "LS2 7UE",
        "uprn": "Unknown"
    },
    {
        "org_id": "14F",
        "name": "SOUTH WEST COMMISSIONING HUB",
        "primary_role_id": "RO98",
        "role_ids": [
            "RO98",
            "RO218"
        ],
        "status": "Active",
        "post_code": "LS2 7UE",
        "uprn": "Unknown"
    },
    {
        "org_id": "14G",
        "name": "SOUTH EAST COMMISSIONING HUB",
        "primary_role_id": "RO98",
        "role_ids": [
            "RO98",
            "RO218"
        ],
        "status": "Active",
        "post_code": "LS2 7UE",
        "uprn": "Unknown"
    },
    {
        "org_id": "14H",
        "name": "SOUTH CENTRAL COMMISSIONING HUB",
        "primary_role_id": "RO98",
        "role_ids": [
            "RO98",
            "RO218"
        ],
        "status": "Active",
        "post_code": "LS2 7UE",
        "uprn": "Unknown"
    },
    {
        "org_id": "14L",
        "name": "NHS GREATER MANCHESTER ICB - 14L",
        "primary_role_id": "RO98",
        "role_ids": [
            "RO98",
            "RO319"
        ],
        "status": "Active",
        "post_code": "M14 7LU",
        "uprn": "Unknown"
    },
    {
        "org_id": "14M",
        "name": "LONDON - H&J COMMISSIONING HUB",
        "primary_role_id": "RO98",
        "role_ids": [
            "RO98",
            "RO218"
        ],
        "status": "Active",
        "post_code": "LS2 7UE",
        "uprn": "Unknown"
    },
    {
        "org_id": "14Q",
        "name": "MIDLANDS - H&J COMMISSIONING HUB",
        "primary_role_id": "RO98",
        "role_ids": [
            "RO98",
            "RO218"
        ],
        "status": "Active",
        "post_code": "LS2 7UE",
        "uprn": "Unknown"
    },
    {
        "org_id": "14R",
        "name": "EAST OF ENGLAND - H&J COMMISSIONING HUB",
        "primary_role_id": "RO98",
        "role_ids": [
            "RO98",
            "RO218"
        ],
        "status": "Active",
        "post_code": "LS2 7UE",
        "uprn": "Unknown"
    },
    {
        "org_id": "14T",
        "name": "SOUTH WEST - H&J COMMISSIONING HUB",
        "primary_role_id": "RO98",
        "role_ids": [
            "RO98",
            "RO218"
        ],
        "status": "Active",
        "post_code": "LS2 7UE",
        "uprn": "Unknown"
    },
    {
        "org_id": "14Y",
        "name": "NHS BUCKINGHAMSHIRE, OXFORDSHIRE AND BERKSHIRE WEST ICB - 14Y",
        "primary_role_id": "RO98",
        "role_ids": [
            "RO98",
            "RO319"
        ],
        "status": "Active",
        "post_code": "HP20 1UA",
        "uprn": "Unknown"
    },
    {
        "org_id": "15A",
        "name": "NHS BUCKINGHAMSHIRE, OXFORDSHIRE AND BERKSHIRE WEST ICB - 15A",
        "primary_role_id": "RO98",
        "role_ids": [
            "RO98",
            "RO319"
        ],
        "status": "Active",
        "post_code": "RG30 2BA",
        "uprn": "310037484"
    },
    {
        "org_id": "15C",
        "name": "NHS BRISTOL, NORTH SOMERSET AND SOUTH GLOUCESTERSHIRE ICB - 15C",
        "primary_role_id": "RO98",
        "role_ids": [
            "RO98",
            "RO319"
        ],
        "status": "Active",
        "post_code": "BS1 3NX",
        "uprn": "300299"
    },
    {
        "org_id": "15E",
        "name": "NHS BIRMINGHAM AND SOLIHULL ICB - 15E",
        "primary_role_id": "RO98",
        "role_ids": [
            "RO98",
            "RO319"
        ],
        "status": "Active",
        "post_code": "B1 1TT",
        "uprn": "10094294352"
    },
    {
        "org_id": "15F",
        "name": "NHS WEST YORKSHIRE ICB - 15F",
        "primary_role_id": "RO98",
        "role_ids": [
            "RO98",
            "RO319"
        ],
        "status": "Active",
        "post_code": "LS16 6EB",
        "uprn": "Unknown"
    },
    {
        "org_id": "15L",
        "name": "NATIONAL COMMISSIONING HUB 2",
        "primary_role_id": "RO98",
        "role_ids": [
            "RO98",
            "RO218"
        ],
        "status": "Active",
        "post_code": "LS2 7UE",
        "uprn": "Unknown"
    },
    {
        "org_id": "15M",
        "name": "NHS DERBY AND DERBYSHIRE ICB - 15M",
        "primary_role_id": "RO98",
        "role_ids": [
            "RO98",
            "RO319"
        ],
        "status": "Active",
        "post_code": "DE1 3QT",
        "uprn": "Unknown"
    },
    {
        "org_id": "15N",
        "name": "NHS DEVON ICB - 15N",
        "primary_role_id": "RO98",
        "role_ids": [
            "RO98",
            "RO319"
        ],
        "status": "Active",
        "post_code": "EX2 4QL",
        "uprn": "Unknown"
    },
    {
        "org_id": "26A",
        "name": "NHS NORFOLK AND WAVENEY ICB - 26A",
        "primary_role_id": "RO98",
        "role_ids": [
            "RO98",
            "RO319"
        ],
        "status": "Active",
        "post_code": "NR7 0WG",
        "uprn": "10009923395"
    },
    {
        "org_id": "92G",
        "name": "NHS BATH AND NORTH EAST SOMERSET, SWINDON AND WILTSHIRE ICB - 92G",
        "primary_role_id": "RO98",
        "role_ids": [
            "RO98",
            "RO319"
        ],
        "status": "Active",
        "post_code": "SN15 1GG",
        "uprn": "10070778450"
    },
    {
        "org_id": "91Q",
        "name": "NHS KENT AND MEDWAY ICB - 91Q",
        "primary_role_id": "RO98",
        "role_ids": [
            "RO98",
            "RO319"
        ],
        "status": "Active",
        "post_code": "ME15 6NB",
        "uprn": "200003717742"
    },
    {
        "org_id": "92A",
        "name": "NHS SURREY HEARTLANDS ICB - 92A",
        "primary_role_id": "RO98",
        "role_ids": [
            "RO98",
            "RO319"
        ],
        "status": "Active",
        "post_code": "KT13 8DP",
        "uprn": "100062360159"
    },
    {
        "org_id": "70F",
        "name": "NHS SUSSEX ICB - 70F",
        "primary_role_id": "RO98",
        "role_ids": [
            "RO98",
            "RO319"
        ],
        "status": "Active",
        "post_code": "BN11 1DJ",
        "uprn": "Unknown"
    },
    {
        "org_id": "97R",
        "name": "NHS SUSSEX ICB - 97R",
        "primary_role_id": "RO98",
        "role_ids": [
            "RO98",
            "RO319"
        ],
        "status": "Active",
        "post_code": "BN7 2PB",
        "uprn": "100062274105"
    },
    {
        "org_id": "72Q",
        "name": "NHS SOUTH EAST LONDON ICB - 72Q",
        "primary_role_id": "RO98",
        "role_ids": [
            "RO98",
            "RO319",
            "RO326"
        ],
        "status": "Active",
        "post_code": "SE1 2TZ",
        "uprn": "Unknown"
    },
    {
        "org_id": "36L",
        "name": "NHS SOUTH WEST LONDON ICB - 36L",
        "primary_role_id": "RO98",
        "role_ids": [
            "RO98",
            "RO319",
            "RO326"
        ],
        "status": "Active",
        "post_code": "SW19 1RH",
        "uprn": "Unknown"
    },
    {
        "org_id": "93C",
        "name": "NHS NORTH CENTRAL LONDON ICB - 93C",
        "primary_role_id": "RO98",
        "role_ids": [
            "RO98",
            "RO319",
            "RO326"
        ],
        "status": "Active",
        "post_code": "N1 1TH",
        "uprn": "Unknown"
    },
    {
        "org_id": "18C",
        "name": "NHS HEREFORDSHIRE AND WORCESTERSHIRE ICB - 18C",
        "primary_role_id": "RO98",
        "role_ids": [
            "RO98",
            "RO319"
        ],
        "status": "Active",
        "post_code": "WR3 7NS",
        "uprn": "Unknown"
    },
    {
        "org_id": "78H",
        "name": "NHS NORTHAMPTONSHIRE ICB - 78H",
        "primary_role_id": "RO98",
        "role_ids": [
            "RO98",
            "RO319"
        ],
        "status": "Active",
        "post_code": "NN15 6EY",
        "uprn": "100032143468"
    },
    {
        "org_id": "52R",
        "name": "NHS NOTTINGHAM AND NOTTINGHAMSHIRE ICB - 52R",
        "primary_role_id": "RO98",
        "role_ids": [
            "RO98",
            "RO319"
        ],
        "status": "Active",
        "post_code": "NG21 0HJ",
        "uprn": "10012819260"
    },
    {
        "org_id": "71E",
        "name": "NHS LINCOLNSHIRE ICB - 71E",
        "primary_role_id": "RO98",
        "role_ids": [
            "RO98",
            "RO319"
        ],
        "status": "Active",
        "post_code": "NG34 8GG",
        "uprn": "Unknown"
    },
    {
        "org_id": "27D",
        "name": "NHS CHESHIRE AND MERSEYSIDE ICB - 27D",
        "primary_role_id": "RO98",
        "role_ids": [
            "RO98",
            "RO319"
        ],
        "status": "Active",
        "post_code": "CW1 6ZQ",
        "uprn": "10096209774"
    },
    {
        "org_id": "84H",
        "name": "NHS NORTH EAST AND NORTH CUMBRIA ICB - 84H",
        "primary_role_id": "RO98",
        "role_ids": [
            "RO98",
            "RO319"
        ],
        "status": "Active",
        "post_code": "TS21 3EE",
        "uprn": "10012054388"
    },
    {
        "org_id": "16C",
        "name": "NHS NORTH EAST AND NORTH CUMBRIA ICB - 16C",
        "primary_role_id": "RO98",
        "role_ids": [
            "RO98",
            "RO319"
        ],
        "status": "Active",
        "post_code": "TS3 6AL",
        "uprn": "Unknown"
    },
    {
        "org_id": "42D",
        "name": "NHS HUMBER AND NORTH YORKSHIRE ICB - 42D",
        "primary_role_id": "RO98",
        "role_ids": [
            "RO98",
            "RO319"
        ],
        "status": "Active",
        "post_code": "HG5 8QB",
        "uprn": "10091798427"
    },
    {
        "org_id": "36J",
        "name": "NHS WEST YORKSHIRE ICB - 36J",
        "primary_role_id": "RO98",
        "role_ids": [
            "RO98",
            "RO319"
        ],
        "status": "Active",
        "post_code": "BD1 4AS",
        "uprn": "Unknown"
    },
    {
        "org_id": "85J",
        "name": "NORTH EAST AND YORKSHIRE COMMISSIONING HUB",
        "primary_role_id": "RO98",
        "role_ids": [
            "RO98",
            "RO218"
        ],
        "status": "Active",
        "post_code": "LS2 7UA",
        "uprn": "72248699"
    },
    {
        "org_id": "27T",
        "name": "NORTH WEST COMMISSIONING HUB",
        "primary_role_id": "RO98",
        "role_ids": [
            "RO98",
            "RO218"
        ],
        "status": "Active",
        "post_code": "LS2 7UA",
        "uprn": "72248699"
    },
    {
        "org_id": "76A",
        "name": "NORTH EAST AND YORKSHIRE - H&J COMMISSIONING HUB",
        "primary_role_id": "RO98",
        "role_ids": [
            "RO98",
            "RO218"
        ],
        "status": "Active",
        "post_code": "LS2 7UA",
        "uprn": "72248699"
    },
    {
        "org_id": "32T",
        "name": "NORTH WEST - H&J COMMISSIONING HUB",
        "primary_role_id": "RO98",
        "role_ids": [
            "RO98",
            "RO218"
        ],
        "status": "Active",
        "post_code": "LS2 7UA",
        "uprn": "72248699"
    },
    {
        "org_id": "97T",
        "name": "SOUTH EAST - H&J COMMISSIONING HUB",
        "primary_role_id": "RO98",
        "role_ids": [
            "RO98",
            "RO218"
        ],
        "status": "Active",
        "post_code": "LS2 7UA",
        "uprn": "72248699"
    },
    {
        "org_id": "M1J4Y",
        "name": "NHS BEDFORDSHIRE, LUTON AND MILTON KEYNES ICB - M1J4Y",
        "primary_role_id": "RO98",
        "role_ids": [
            "RO98",
            "RO319"
        ],
        "status": "Active",
        "post_code": "SG17 5TQ",
        "uprn": "10012431439"
    },
    {
        "org_id": "D9Y0V",
        "name": "NHS HAMPSHIRE AND ISLE OF WIGHT ICB - D9Y0V",
        "primary_role_id": "RO98",
        "role_ids": [
            "RO98",
            "RO319"
        ],
        "status": "Active",
        "post_code": "SO23 8UJ",
        "uprn": "200000172610"
    },
    {
        "org_id": "D4U1Y",
        "name": "NHS FRIMLEY ICB - D4U1Y",
        "primary_role_id": "RO98",
        "role_ids": [
            "RO98",
            "RO319",
            "RO326"
        ],
        "status": "Active",
        "post_code": "GU11 1AY",
        "uprn": "200004289865"
    },
    {
        "org_id": "A3A8R",
        "name": "NHS NORTH EAST LONDON ICB - A3A8R",
        "primary_role_id": "RO98",
        "role_ids": [
            "RO98",
            "RO319",
            "RO326"
        ],
        "status": "Active",
        "post_code": "E15 1DA",
        "uprn": "10090757425"
    },
    {
        "org_id": "W2U3Z",
        "name": "NHS NORTH WEST LONDON ICB - W2U3Z",
        "primary_role_id": "RO98",
        "role_ids": [
            "RO98",
            "RO319",
            "RO326"
        ],
        "status": "Active",
        "post_code": "NW1 5JD",
        "uprn": "10033538203"
    },
    {
        "org_id": "M2L0M",
        "name": "NHS SHROPSHIRE, TELFORD AND WREKIN ICB - M2L0M",
        "primary_role_id": "RO98",
        "role_ids": [
            "RO98",
            "RO319"
        ],
        "status": "Active",
        "post_code": "TF7 4BF",
        "uprn": "10024238963"
    },
    {
        "org_id": "D2P2L",
        "name": "NHS BLACK COUNTRY ICB - D2P2L",
        "primary_role_id": "RO98",
        "role_ids": [
            "RO98",
            "RO319"
        ],
        "status": "Active",
        "post_code": "WV1 1SD",
        "uprn": "Unknown"
    },
    {
        "org_id": "B2M3M",
        "name": "NHS COVENTRY AND WARWICKSHIRE ICB - B2M3M",
        "primary_role_id": "RO98",
        "role_ids": [
            "RO98",
            "RO319"
        ],
        "status": "Active",
        "post_code": "CV34 4RL",
        "uprn": "10013180510"
    },
    {
        "org_id": "X2C4Y",
        "name": "NHS WEST YORKSHIRE ICB - X2C4Y",
        "primary_role_id": "RO98",
        "role_ids": [
            "RO98",
            "RO319"
        ],
        "status": "Active",
        "post_code": "HD1 2LR",
        "uprn": "Unknown"
    },
    {
        "org_id": "Z1H8A",
        "name": "CENTRAL LONDON - SUB-ICB REPORTING ENTITY",
        "primary_role_id": "RO98",
        "role_ids": [
            "RO98",
            "RO327"
        ],
        "status": "Active",
        "post_code": "NW1 5JD",
        "uprn": "Unknown"
    },
    {
        "org_id": "C3W4U",
        "name": "GREENWICH - SUB-ICB REPORTING ENTITY",
        "primary_role_id": "RO98",
        "role_ids": [
            "RO98",
            "RO327"
        ],
        "status": "Active",
        "post_code": "SE1 2QH",
        "uprn": "10013528792"
    },
    {
        "org_id": "Z4H8X",
        "name": "HOUNSLOW - SUB-ICB REPORTING ENTITY",
        "primary_role_id": "RO98",
        "role_ids": [
            "RO98",
            "RO327"
        ],
        "status": "Active",
        "post_code": "NW1 5JD",
        "uprn": "Unknown"
    },
    {
        "org_id": "A4R1E",
        "name": "NEWHAM - SUB-ICB REPORTING ENTITY",
        "primary_role_id": "RO98",
        "role_ids": [
            "RO98",
            "RO327"
        ],
        "status": "Active",
        "post_code": "E15 1DA",
        "uprn": "Unknown"
    },
    {
        "org_id": "P7F1Z",
        "name": "MERTON - SUB-ICB REPORTING ENTITY",
        "primary_role_id": "RO98",
        "role_ids": [
            "RO98",
            "RO327"
        ],
        "status": "Active",
        "post_code": "SW19 1RH",
        "uprn": "Unknown"
    },
    {
        "org_id": "E9S1I",
        "name": "HAVERING - SUB-ICB REPORTING ENTITY",
        "primary_role_id": "RO98",
        "role_ids": [
            "RO98",
            "RO327"
        ],
        "status": "Active",
        "post_code": "E15 1DA",
        "uprn": "Unknown"
    },
    {
        "org_id": "I1L7N",
        "name": "RICHMOND - SUB-ICB REPORTING ENTITY",
        "primary_role_id": "RO98",
        "role_ids": [
            "RO98",
            "RO327"
        ],
        "status": "Active",
        "post_code": "SW19 1RH",
        "uprn": "Unknown"
    },
    {
        "org_id": "L3J1B",
        "name": "HILLINGDON - SUB-ICB REPORTING ENTITY",
        "primary_role_id": "RO98",
        "role_ids": [
            "RO98",
            "RO327"
        ],
        "status": "Active",
        "post_code": "NW1 5JD",
        "uprn": "Unknown"
    },
    {
        "org_id": "H1A0E",
        "name": "LAMBETH - SUB-ICB REPORTING ENTITY",
        "primary_role_id": "RO98",
        "role_ids": [
            "RO98",
            "RO327"
        ],
        "status": "Active",
        "post_code": "SE1 2QH",
        "uprn": "10013528792"
    },
    {
        "org_id": "Q6U7B",
        "name": "KINGSTON - SUB-ICB REPORTING ENTITY",
        "primary_role_id": "RO98",
        "role_ids": [
            "RO98",
            "RO327"
        ],
        "status": "Active",
        "post_code": "SW19 1RH",
        "uprn": "Unknown"
    },
    {
        "org_id": "I6C5L",
        "name": "REDBRIDGE - SUB-ICB REPORTING ENTITY",
        "primary_role_id": "RO98",
        "role_ids": [
            "RO98",
            "RO327"
        ],
        "status": "Active",
        "post_code": "E15 1DA",
        "uprn": "Unknown"
    },
    {
        "org_id": "W5Y6K",
        "name": "BARKING AND DAGENHAM - SUB-ICB REPORTING ENTITY",
        "primary_role_id": "RO98",
        "role_ids": [
            "RO98",
            "RO327"
        ],
        "status": "Active",
        "post_code": "E15 1DA",
        "uprn": "Unknown"
    },
    {
        "org_id": "J0P1R",
        "name": "CAMDEN - SUB-ICB REPORTING ENTITY",
        "primary_role_id": "RO98",
        "role_ids": [
            "RO98",
            "RO327"
        ],
        "status": "Active",
        "post_code": "N1C 4AG",
        "uprn": "Unknown"
    },
    {
        "org_id": "B1G9X",
        "name": "HARINGEY - SUB-ICB REPORTING ENTITY",
        "primary_role_id": "RO98",
        "role_ids": [
            "RO98",
            "RO327"
        ],
        "status": "Active",
        "post_code": "N1C 4AG",
        "uprn": "Unknown"
    },
    {
        "org_id": "Y4U7N",
        "name": "HARROW - SUB-ICB REPORTING ENTITY",
        "primary_role_id": "RO98",
        "role_ids": [
            "RO98",
            "RO327"
        ],
        "status": "Active",
        "post_code": "NW1 5JD",
        "uprn": "Unknown"
    },
    {
        "org_id": "L7N8K",
        "name": "CROYDON - SUB-ICB REPORTING ENTITY",
        "primary_role_id": "RO98",
        "role_ids": [
            "RO98",
            "RO327"
        ],
        "status": "Active",
        "post_code": "SW19 1RH",
        "uprn": "Unknown"
    },
    {
        "org_id": "D9P3T",
        "name": "ISLINGTON - SUB-ICB REPORTING ENTITY",
        "primary_role_id": "RO98",
        "role_ids": [
            "RO98",
            "RO327"
        ],
        "status": "Active",
        "post_code": "N1C 4AG",
        "uprn": "Unknown"
    },
    {
        "org_id": "O3P1D",
        "name": "LEWISHAM - SUB-ICB REPORTING ENTITY",
        "primary_role_id": "RO98",
        "role_ids": [
            "RO98",
            "RO327"
        ],
        "status": "Active",
        "post_code": "SE1 2QH",
        "uprn": "10013528792"
    },
    {
        "org_id": "R0W7N",
        "name": "HAMMERSMITH AND FULHAM - SUB-ICB REPORTING ENTITY",
        "primary_role_id": "RO98",
        "role_ids": [
            "RO98",
            "RO327"
        ],
        "status": "Active",
        "post_code": "NW1 5JD",
        "uprn": "Unknown"
    },
    {
        "org_id": "U7R3S",
        "name": "ENFIELD - SUB-ICB REPORTING ENTITY",
        "primary_role_id": "RO98",
        "role_ids": [
            "RO98",
            "RO327"
        ],
        "status": "Active",
        "post_code": "N1C 4AG",
        "uprn": "Unknown"
    },
    {
        "org_id": "G2L3T",
        "name": "BARNET - SUB-ICB REPORTING ENTITY",
        "primary_role_id": "RO98",
        "role_ids": [
            "RO98",
            "RO327"
        ],
        "status": "Active",
        "post_code": "N1C 4AG",
        "uprn": "5170230"
    },
    {
        "org_id": "A7V7E",
        "name": "CITY AND HACKNEY - SUB-ICB REPORTING ENTITY",
        "primary_role_id": "RO98",
        "role_ids": [
            "RO98",
            "RO327"
        ],
        "status": "Active",
        "post_code": "E15 1DA",
        "uprn": "Unknown"
    },
    {
        "org_id": "S7H6Y",
        "name": "TOWER HAMLETS - SUB-ICB REPORTING ENTITY",
        "primary_role_id": "RO98",
        "role_ids": [
            "RO98",
            "RO327"
        ],
        "status": "Active",
        "post_code": "E15 1DA",
        "uprn": "Unknown"
    },
    {
        "org_id": "O4I9P",
        "name": "BRENT - SUB-ICB REPORTING ENTITY",
        "primary_role_id": "RO98",
        "role_ids": [
            "RO98",
            "RO327"
        ],
        "status": "Active",
        "post_code": "NW1 5JD",
        "uprn": "10033538203"
    },
    {
        "org_id": "D2Z9S",
        "name": "WEST LONDON - SUB-ICB REPORTING ENTITY",
        "primary_role_id": "RO98",
        "role_ids": [
            "RO98",
            "RO327"
        ],
        "status": "Active",
        "post_code": "NW1 5JD",
        "uprn": "Unknown"
    },
    {
        "org_id": "K2Q5Q",
        "name": "SUTTON - SUB-ICB REPORTING ENTITY",
        "primary_role_id": "RO98",
        "role_ids": [
            "RO98",
            "RO327"
        ],
        "status": "Active",
        "post_code": "SW19 1RH",
        "uprn": "Unknown"
    },
    {
        "org_id": "K8B2G",
        "name": "BROMLEY - SUB-ICB REPORTING ENTITY",
        "primary_role_id": "RO98",
        "role_ids": [
            "RO98",
            "RO327"
        ],
        "status": "Active",
        "post_code": "SE1 2QH",
        "uprn": "10013528792"
    },
    {
        "org_id": "F7Z3N",
        "name": "WALTHAM FOREST - SUB-ICB REPORTING ENTITY",
        "primary_role_id": "RO98",
        "role_ids": [
            "RO98",
            "RO327"
        ],
        "status": "Active",
        "post_code": "E15 1DA",
        "uprn": "Unknown"
    },
    {
        "org_id": "Q0S2C",
        "name": "BEXLEY - SUB-ICB REPORTING ENTITY",
        "primary_role_id": "RO98",
        "role_ids": [
            "RO98",
            "RO327"
        ],
        "status": "Active",
        "post_code": "SE1 2QH",
        "uprn": "10013528792"
    },
    {
        "org_id": "J1I6Y",
        "name": "EALING - SUB-ICB REPORTING ENTITY",
        "primary_role_id": "RO98",
        "role_ids": [
            "RO98",
            "RO327"
        ],
        "status": "Active",
        "post_code": "NW1 5JD",
        "uprn": "Unknown"
    },
    {
        "org_id": "D7Z1O",
        "name": "SOUTHWARK - SUB-ICB REPORTING ENTITY",
        "primary_role_id": "RO98",
        "role_ids": [
            "RO98",
            "RO327"
        ],
        "status": "Active",
        "post_code": "SE1 2QH",
        "uprn": "10013528792"
    },
    {
        "org_id": "G7G6U",
        "name": "WANDSWORTH - SUB-ICB REPORTING ENTITY",
        "primary_role_id": "RO98",
        "role_ids": [
            "RO98",
            "RO327"
        ],
        "status": "Active",
        "post_code": "SW19 1RH",
        "uprn": "Unknown"
    },
    {
        "org_id": "R2L3Y",
        "name": "ROYAL BOROUGH OF WINDSOR AND MAIDENHEAD - SUB-ICB REPORTING ENTITY",
        "primary_role_id": "RO98",
        "role_ids": [
            "RO98",
            "RO327"
        ],
        "status": "Active",
        "post_code": "GU16 7UJ",
        "uprn": "100062329311"
    },
    {
        "org_id": "C7X7P",
        "name": "BRACKNELL FOREST - SUB-ICB REPORTING ENTITY",
        "primary_role_id": "RO98",
        "role_ids": [
            "RO98",
            "RO327"
        ],
        "status": "Active",
        "post_code": "GU16 7UJ",
        "uprn": "100062329311"
    },
    {
        "org_id": "M3V5R",
        "name": "SURREY HEATH - SUB-ICB REPORTING ENTITY",
        "primary_role_id": "RO98",
        "role_ids": [
            "RO98",
            "RO327"
        ],
        "status": "Active",
        "post_code": "GU16 7UJ",
        "uprn": "100062329311"
    },
    {
        "org_id": "L6J4J",
        "name": "SLOUGH - SUB-ICB REPORTING ENTITY",
        "primary_role_id": "RO98",
        "role_ids": [
            "RO98",
            "RO327"
        ],
        "status": "Active",
        "post_code": "GU16 7UJ",
        "uprn": "100062329311"
    },
    {
        "org_id": "I0N2H",
        "name": "NORTH EAST HAMPSHIRE AND FARNHAM - SUB-ICB REPORTING ENTITY",
        "primary_role_id": "RO98",
        "role_ids": [
            "RO98",
            "RO327"
        ],
        "status": "Active",
        "post_code": "GU16 7UJ",
        "uprn": "100062329311"
    }
]