[
    {
        "org_id": "TAH28",
        "name": "DENTAL CLINIC - OAKES PARK SCHOOL",
        "primary_role_id": "RO108",
        "role_ids": [
            "RO108"
        ],
        "status": "Active",
        "post_code": "S8 8LN",
        "uprn": "Unknown"
    },
    {
        "org_id": "TAH29",
        "name": "DEPT OF CLINICAL PSYCHOLOGY",
        "primary_role_id": "RO108",
        "role_ids": [
            "RO108"
        ],
        "status": "Active",
        "post_code": "S10 2TN",
        "uprn": "Unknown"
    },
    {
        "org_id": "TAH30",
        "name": "DEPT OF PSYCHIATRY - BARNSLEY DGH",
        "primary_role_id": "RO108",
        "role_ids": [
            "RO108"
        ],
        "status": "Active",
        "post_code": "S75 2EP",
        "uprn": "Unknown"
    },
    {
        "org_id": "TAH31",
        "name": "DEPT OF PSYCHIATRY - BASSETLAW DGH",
        "primary_role_id": "RO108",
        "role_ids": [
            "RO108"
        ],
        "status": "Active",
        "post_code": "S81 0BD",
        "uprn": "Unknown"
    },
    {
        "org_id": "TAH32",
        "name": "DEPT OF PSYCHIATRY - CHESTER ROYAL HOSPITAL",
        "primary_role_id": "RO108",
        "role_ids": [
            "RO108"
        ],
        "status": "Active",
        "post_code": "S44 5BL",
        "uprn": "Unknown"
    },
    {
        "org_id": "TAH33",
        "name": "DEPT OF PSYCHIATRY - DRI",
        "primary_role_id": "RO108",
        "role_ids": [
            "RO108"
        ],
        "status": "Active",
        "post_code": "DN2 5LT",
        "uprn": "Unknown"
    },
    {
        "org_id": "TAH34",
        "name": "DEPT OF PSYCHIATRY - ROTHERAM DGH",
        "primary_role_id": "RO108",
        "role_ids": [
            "RO108"
        ],
        "status": "Active",
        "post_code": "S60 2UD",
        "uprn": "Unknown"
    },
    {
        "org_id": "TAH35",
        "name": "DON VALLEY HOUSE",
        "primary_role_id": "RO108",
        "role_ids": [
            "RO108"
        ],
        "status": "Active",
        "post_code": "S4 7UQ",
        "uprn": "Unknown"
    },
    {
        "org_id": "TAH36",
        "name": "DRAGOON COURT",
        "primary_role_id": "RO108",
        "role_ids": [
            "RO108"
        ],
        "status": "Active",
        "post_code": "S6 2GZ",
        "uprn": "Unknown"
    },
    {
        "org_id": "TAH37",
        "name": "DUKE MEDICAL CENTRE",
        "primary_role_id": "RO108",
        "role_ids": [
            "RO108"
        ],
        "status": "Active",
        "post_code": "S2 2TD",
        "uprn": "100052088903"
    },
    {
        "org_id": "TAH38",
        "name": "ECCLESFIELD CARE CENTRE",
        "primary_role_id": "RO108",
        "role_ids": [
            "RO108"
        ],
        "status": "Active",
        "post_code": "S35 9WY",
        "uprn": "Unknown"
    },
    {
        "org_id": "TAH39",
        "name": "FIRST START NURSERY",
        "primary_role_id": "RO108",
        "role_ids": [
            "RO108"
        ],
        "status": "Active",
        "post_code": "S5 6QQ",
        "uprn": "Unknown"
    },
    {
        "org_id": "TAH40",
        "name": "FIRTH PARK CLINIC",
        "primary_role_id": "RO108",
        "role_ids": [
            "RO108"
        ],
        "status": "Active",
        "post_code": "S5 6NU",
        "uprn": "Unknown"
    },
    {
        "org_id": "TAH41",
        "name": "FLOCKTON HOUSE",
        "primary_role_id": "RO108",
        "role_ids": [
            "RO108"
        ],
        "status": "Active",
        "post_code": "S11 9EF",
        "uprn": "Unknown"
    },
    {
        "org_id": "TAH42",
        "name": "FOXWOOD RESOURCE CENTRE",
        "primary_role_id": "RO108",
        "role_ids": [
            "RO108"
        ],
        "status": "Active",
        "post_code": "S12 2TW",
        "uprn": "Unknown"
    },
    {
        "org_id": "TAH43",
        "name": "GREENACRES",
        "primary_role_id": "RO108",
        "role_ids": [
            "RO108"
        ],
        "status": "Active",
        "post_code": "S35 4GN",
        "uprn": "10091732523"
    },
    {
        "org_id": "TAH44",
        "name": "GREENHILL HEALTH CENTRE",
        "primary_role_id": "RO108",
        "role_ids": [
            "RO108"
        ],
        "status": "Active",
        "post_code": "S8 7NQ",
        "uprn": "100052118236"
    },
    {
        "org_id": "TAH45",
        "name": "GUERNSEY HOUSE",
        "primary_role_id": "RO108",
        "role_ids": [
            "RO108"
        ],
        "status": "Active",
        "post_code": "S2 4HG",
        "uprn": "Unknown"
    },
    {
        "org_id": "TAH46",
        "name": "HACKENTHORPE MEDICAL CENTRE",
        "primary_role_id": "RO108",
        "role_ids": [
            "RO108"
        ],
        "status": "Active",
        "post_code": "S12 4LA",
        "uprn": "100052187774"
    },
    {
        "org_id": "TAH47",
        "name": "HANDSWORTH GRANGE MEDICAL CENTRE",
        "primary_role_id": "RO108",
        "role_ids": [
            "RO108"
        ],
        "status": "Active",
        "post_code": "S13 9BZ",
        "uprn": "100052086803"
    },
    {
        "org_id": "TAH48",
        "name": "HAZELHURST RESOURCE CENTRE",
        "primary_role_id": "RO108",
        "role_ids": [
            "RO108"
        ],
        "status": "Active",
        "post_code": "S8 8DN",
        "uprn": "10091733271"
    },
    {
        "org_id": "TAH49",
        "name": "HEELEY DENTAL CLINIC",
        "primary_role_id": "RO108",
        "role_ids": [
            "RO108"
        ],
        "status": "Active",
        "post_code": "S8 0ZS",
        "uprn": "200003025655"
    },
    {
        "org_id": "TAH50",
        "name": "HIGH GREEN HEALTH CENTRE",
        "primary_role_id": "RO108",
        "role_ids": [
            "RO108"
        ],
        "status": "Active",
        "post_code": "S35 4NF",
        "uprn": "100052217913"
    },
    {
        "org_id": "TAH51",
        "name": "HOLLIES MEDICAL CENTRE",
        "primary_role_id": "RO108",
        "role_ids": [
            "RO108"
        ],
        "status": "Active",
        "post_code": "S11 9AL",
        "uprn": "Unknown"
    },
    {
        "org_id": "TAH52",
        "name": "HURLFIELD VIEW",
        "primary_role_id": "RO108",
        "role_ids": [
            "RO108"
        ],
        "status": "Active",
        "post_code": "S12 2UU",
        "uprn": "100052085386"
    },
    {
        "org_id": "TAH53",
        "name": "INCLUSION SUPPORT CENTRE",
        "primary_role_id": "RO108",
        "role_ids": [
            "RO108"
        ],
        "status": "Active",
        "post_code": "S6 1AA",
        "uprn": "Unknown"
    },
    {
        "org_id": "TAH54",
        "name": "JORDANTHORPE HEALTH CENTRE",
        "primary_role_id": "RO108",
        "role_ids": [
            "RO108"
        ],
        "status": "Active",
        "post_code": "S8 8DX",
        "uprn": "Unknown"
    },
    {
        "org_id": "TAH55",
        "name": "KERSAL MOUNT NURSING HOME",
        "primary_role_id": "RO108",
        "role_ids": [
            "RO108"
        ],
        "status": "Active",
        "post_code": "S10 5DN",
        "uprn": "100051023295"
    },
    {
        "org_id": "TAH56",
        "name": "KIRKHILL RESOURCE CENTRE",
        "primary_role_id": "RO108",
        "role_ids": [
            "RO108"
        ],
        "status": "Active",
        "post_code": "S8 7LE",
        "uprn": "Unknown"
    },
    {
        "org_id": "TAH57",
        "name": "LODGE MOOR MEDICAL CENTRE",
        "primary_role_id": "RO108",
        "role_ids": [
            "RO108"
        ],
        "status": "Active",
        "post_code": "S10 4JQ",
        "uprn": "100052082973"
    },
    {
        "org_id": "TAH59",
        "name": "MANOR HOUSE",
        "primary_role_id": "RO108",
        "role_ids": [
            "RO108"
        ],
        "status": "Active",
        "post_code": "S11 9PS",
        "uprn": "Unknown"
    },
    {
        "org_id": "TAH60",
        "name": "MANOR PARK MEDICAL CENTRE",
        "primary_role_id": "RO108",
        "role_ids": [
            "RO108"
        ],
        "status": "Active",
        "post_code": "S2 1QU",
        "uprn": "100052087764"
    },
    {
        "org_id": "TAH63",
        "name": "MILLBROOK",
        "primary_role_id": "RO108",
        "role_ids": [
            "RO108"
        ],
        "status": "Active",
        "post_code": "S13 7PS",
        "uprn": "100050915925"
    },
    {
        "org_id": "TAH64",
        "name": "NETHERTHORPE HOUSE",
        "primary_role_id": "RO108",
        "role_ids": [
            "RO108"
        ],
        "status": "Active",
        "post_code": "S3 7EZ",
        "uprn": "Unknown"
    },
    {
        "org_id": "TAH65",
        "name": "NEWFIELD GREEN CLINIC",
        "primary_role_id": "RO108",
        "role_ids": [
            "RO108"
        ],
        "status": "Active",
        "post_code": "S2 2BS",
        "uprn": "100050978339"
    },
    {
        "org_id": "TAH66",
        "name": "NORFOLK PARK HEALTH CENTRE",
        "primary_role_id": "RO108",
        "role_ids": [
            "RO108"
        ],
        "status": "Active",
        "post_code": "S2 3RE",
        "uprn": "Unknown"
    },
    {
        "org_id": "TAH67",
        "name": "NORTHERN GENERAL HOSPITAL",
        "primary_role_id": "RO108",
        "role_ids": [
            "RO108"
        ],
        "status": "Active",
        "post_code": "S5 7AU",
        "uprn": "100050995915"
    },
    {
        "org_id": "TAH68",
        "name": "NORWOOD MEDICAL CENTRE",
        "primary_role_id": "RO108",
        "role_ids": [
            "RO108"
        ],
        "status": "Active",
        "post_code": "S5 7HD",
        "uprn": "100052098476"
    },
    {
        "org_id": "TAH69",
        "name": "OAKWOOD YPC",
        "primary_role_id": "RO108",
        "role_ids": [
            "RO108"
        ],
        "status": "Active",
        "post_code": "S5 7AU",
        "uprn": "Unknown"
    },
    {
        "org_id": "TAH71",
        "name": "PARK HEALTH CENTRE",
        "primary_role_id": "RO108",
        "role_ids": [
            "RO108"
        ],
        "status": "Active",
        "post_code": "S2 5QQ",
        "uprn": "Unknown"
    },
    {
        "org_id": "TAH72",
        "name": "PSYCHOLOGY SERVICES",
        "primary_role_id": "RO108",
        "role_ids": [
            "RO108"
        ],
        "status": "Active",
        "post_code": "S65 2AA",
        "uprn": "Unknown"
    },
    {
        "org_id": "TAH73",
        "name": "ROYAL HALLAMSHIRE HOSPITAL",
        "primary_role_id": "RO108",
        "role_ids": [
            "RO108"
        ],
        "status": "Active",
        "post_code": "S10 2JF",
        "uprn": "100052081025"
    },
    {
        "org_id": "TAH74",
        "name": "RYEGATE CENTRE",
        "primary_role_id": "RO108",
        "role_ids": [
            "RO108"
        ],
        "status": "Active",
        "post_code": "S10 5DD",
        "uprn": "Unknown"
    },
    {
        "org_id": "TAH76",
        "name": "SEVENFIELDS RESOURCE CENTRE",
        "primary_role_id": "RO108",
        "role_ids": [
            "RO108"
        ],
        "status": "Active",
        "post_code": "S6 4SB",
        "uprn": "10091731921"
    },
    {
        "org_id": "TAH77",
        "name": "SHARROW SURE START",
        "primary_role_id": "RO108",
        "role_ids": [
            "RO108"
        ],
        "status": "Active",
        "post_code": "S11 8AL",
        "uprn": "Unknown"
    },
    {
        "org_id": "TAH12",
        "name": "ARBOURTHORNE",
        "primary_role_id": "RO108",
        "role_ids": [
            "RO108"
        ],
        "status": "Active",
        "post_code": "S2 2AD",
        "uprn": "Unknown"
    },
    {
        "org_id": "TAH13",
        "name": "BEECH HILL",
        "primary_role_id": "RO108",
        "role_ids": [
            "RO108"
        ],
        "status": "Active",
        "post_code": "S2 3QE",
        "uprn": "Unknown"
    },
    {
        "org_id": "TAH14",
        "name": "BEIGHTON HEALTH CENTRE",
        "primary_role_id": "RO108",
        "role_ids": [
            "RO108"
        ],
        "status": "Active",
        "post_code": "S20 1BJ",
        "uprn": "100052090312"
    },
    {
        "org_id": "TAH15",
        "name": "BELGRAVE MEDICAL CENTRE",
        "primary_role_id": "RO108",
        "role_ids": [
            "RO108"
        ],
        "status": "Active",
        "post_code": "S2 4UJ",
        "uprn": "100052089800"
    },
    {
        "org_id": "TAH16",
        "name": "67 BIRCH AVENUE",
        "primary_role_id": "RO108",
        "role_ids": [
            "RO108"
        ],
        "status": "Active",
        "post_code": "S35 1RQ",
        "uprn": "Unknown"
    },
    {
        "org_id": "TAH17",
        "name": "BOLE HILL RESIDENTIAL HOME",
        "primary_role_id": "RO108",
        "role_ids": [
            "RO108"
        ],
        "status": "Active",
        "post_code": "S10 1QL",
        "uprn": "100050961558"
    },
    {
        "org_id": "TAH18",
        "name": "BRAESIDE",
        "primary_role_id": "RO108",
        "role_ids": [
            "RO108"
        ],
        "status": "Active",
        "post_code": "S4 8AN",
        "uprn": "100052097350"
    },
    {
        "org_id": "TAH19",
        "name": "BRINCLIFFE HOUSE",
        "primary_role_id": "RO108",
        "role_ids": [
            "RO108"
        ],
        "status": "Active",
        "post_code": "S11 9BD",
        "uprn": "Unknown"
    },
    {
        "org_id": "TAH20",
        "name": "BUCKWOOD VIEW NURSING HOME",
        "primary_role_id": "RO108",
        "role_ids": [
            "RO108"
        ],
        "status": "Active",
        "post_code": "S14 1LX",
        "uprn": "Unknown"
    },
    {
        "org_id": "TAH21",
        "name": "CENTENARY ANNEXE",
        "primary_role_id": "RO108",
        "role_ids": [
            "RO108"
        ],
        "status": "Active",
        "post_code": "S6 3EB",
        "uprn": "Unknown"
    },
    {
        "org_id": "TAH22",
        "name": "CENTENARY HOUSE",
        "primary_role_id": "RO108",
        "role_ids": [
            "RO108"
        ],
        "status": "Active",
        "post_code": "S6 3BR",
        "uprn": "Unknown"
    },
    {
        "org_id": "TAH23",
        "name": "CENTRAL HEALTH CLINIC",
        "primary_role_id": "RO108",
        "role_ids": [
            "RO108"
        ],
        "status": "Active",
        "post_code": "S1 2PJ",
        "uprn": "100052079149"
    },
    {
        "org_id": "TAH24",
        "name": "CENTRE FOR HIV & SEXUAL HEALTH",
        "primary_role_id": "RO108",
        "role_ids": [
            "RO108"
        ],
        "status": "Active",
        "post_code": "S10 2BA",
        "uprn": "100052081901"
    },
    {
        "org_id": "TAH25",
        "name": "CHARNOCK MEDICAL CENTRE",
        "primary_role_id": "RO108",
        "role_ids": [
            "RO108"
        ],
        "status": "Active",
        "post_code": "S12 3GH",
        "uprn": "Unknown"
    },
    {
        "org_id": "TAH26",
        "name": "CLINICAL NEUROPSYCHOLOGY SERVICE",
        "primary_role_id": "RO108",
        "role_ids": [
            "RO108"
        ],
        "status": "Active",
        "post_code": "S10 2TA",
        "uprn": "Unknown"
    },
    {
        "org_id": "TAH27",
        "name": "DENTAL CLINC - NORFOLK PARK SCHOOL",
        "primary_role_id": "RO108",
        "role_ids": [
            "RO108"
        ],
        "status": "Active",
        "post_code": "S2 3QF",
        "uprn": "Unknown"
    },
    {
        "org_id": "TAD80",
        "name": "7 LEGRAMS TERRACE",
        "primary_role_id": "RO108",
        "role_ids": [
            "RO108"
        ],
        "status": "Active",
        "post_code": "BD7 1LN",
        "uprn": "Unknown"
    },
    {
        "org_id": "TAD81",
        "name": "LOW MOOR RESOURCE CENTRE",
        "primary_role_id": "RO108",
        "role_ids": [
            "RO108"
        ],
        "status": "Active",
        "post_code": "BD12 0SD",
        "uprn": "Unknown"
    },
    {
        "org_id": "TAD82",
        "name": "HOLYBROOK CENTRE",
        "primary_role_id": "RO108",
        "role_ids": [
            "RO108"
        ],
        "status": "Active",
        "post_code": "BD10 0DP",
        "uprn": "Unknown"
    },
    {
        "org_id": "TAD83",
        "name": "MERCURY QUAYS UNIT 9B",
        "primary_role_id": "RO108",
        "role_ids": [
            "RO108"
        ],
        "status": "Active",
        "post_code": "BD17 7DB",
        "uprn": "Unknown"
    },
    {
        "org_id": "TAD84",
        "name": "MERCURY QUAYS UNIT 9F",
        "primary_role_id": "RO108",
        "role_ids": [
            "RO108"
        ],
        "status": "Active",
        "post_code": "BD17 7DB",
        "uprn": "Unknown"
    },
    {
        "org_id": "TAD85",
        "name": "GENESIS 5",
        "primary_role_id": "RO108",
        "role_ids": [
            "RO108"
        ],
        "status": "Active",
        "post_code": "YO10 5DQ",
        "uprn": "Unknown"
    },
    {
        "org_id": "TAD88",
        "name": "ABBEYFIELD",
        "primary_role_id": "RO108",
        "role_ids": [
            "RO108"
        ],
        "status": "Active",
        "post_code": "LS29 9BF",
        "uprn": "200004702165"
    },
    {
        "org_id": "TAD89",
        "name": "CENTRAL LIBRARY",
        "primary_role_id": "RO108",
        "role_ids": [
            "RO108"
        ],
        "status": "Active",
        "post_code": "BD1 1NN",
        "uprn": "Unknown"
    },
    {
        "org_id": "TAD91",
        "name": "SHIPLEY RESOURCE CENTRE",
        "primary_role_id": "RO108",
        "role_ids": [
            "RO108"
        ],
        "status": "Active",
        "post_code": "BD18 2LZ",
        "uprn": "100051936899"
    },
    {
        "org_id": "TAD93",
        "name": "KEIGHLEY RESOURCE CENTRE",
        "primary_role_id": "RO108",
        "role_ids": [
            "RO108"
        ],
        "status": "Active",
        "post_code": "BD21 1RA",
        "uprn": "Unknown"
    },
    {
        "org_id": "TAD94",
        "name": "REEVY ROAD",
        "primary_role_id": "RO108",
        "role_ids": [
            "RO108"
        ],
        "status": "Active",
        "post_code": "BD6 3LH",
        "uprn": "200004699811"
    },
    {
        "org_id": "TAD95",
        "name": "RIX HOUSE",
        "primary_role_id": "RO108",
        "role_ids": [
            "RO108"
        ],
        "status": "Active",
        "post_code": "BD22 6AR",
        "uprn": "100051251931"
    },
    {
        "org_id": "TAD96",
        "name": "WEAVER COURT",
        "primary_role_id": "RO108",
        "role_ids": [
            "RO108"
        ],
        "status": "Active",
        "post_code": "BD10 9TL",
        "uprn": "100051195991"
    },
    {
        "org_id": "TAF02",
        "name": "ST LUKES WOODSIDE HOSPITAL",
        "primary_role_id": "RO108",
        "role_ids": [
            "RO108"
        ],
        "status": "Active",
        "post_code": "N10 3HU",
        "uprn": "Unknown"
    },
    {
        "org_id": "TAF04",
        "name": "DRAYTON PARK WOMENS SERVICE",
        "primary_role_id": "RO108",
        "role_ids": [
            "RO108"
        ],
        "status": "Active",
        "post_code": "N5 1PB",
        "uprn": "5300028326"
    },
    {
        "org_id": "TAF10",
        "name": "ABERDEEN PARK (RESIDENTIAL SERVICES)",
        "primary_role_id": "RO108",
        "role_ids": [
            "RO108"
        ],
        "status": "Active",
        "post_code": "N5 2AR",
        "uprn": "Unknown"
    },
    {
        "org_id": "TAF11",
        "name": "ISATS",
        "primary_role_id": "RO108",
        "role_ids": [
            "RO108"
        ],
        "status": "Active",
        "post_code": "WC1X 8QS",
        "uprn": "5087989"
    },
    {
        "org_id": "TAF22",
        "name": "R&R TEAM (SOUTH ISLINGTON)",
        "primary_role_id": "RO108",
        "role_ids": [
            "RO108"
        ],
        "status": "Active",
        "post_code": "N1 0YL",
        "uprn": "Unknown"
    },
    {
        "org_id": "TAF32",
        "name": "DRAYTON PARK COMMUNITY CARE CENTRE",
        "primary_role_id": "RO108",
        "role_ids": [
            "RO108"
        ],
        "status": "Active",
        "post_code": "N5 1NS",
        "uprn": "Unknown"
    },
    {
        "org_id": "TAF33",
        "name": "ELTHORNE MENTAL HEALTH & SOCIAL CARE CENTRE",
        "primary_role_id": "RO108",
        "role_ids": [
            "RO108"
        ],
        "status": "Active",
        "post_code": "N19 3AA",
        "uprn": "Unknown"
    },
    {
        "org_id": "TAF37",
        "name": "HANLEY GARDENS (RESIDENTIAL SERVICES)",
        "primary_role_id": "RO108",
        "role_ids": [
            "RO108"
        ],
        "status": "Active",
        "post_code": "N4 3DY",
        "uprn": "Unknown"
    },
    {
        "org_id": "TAF38",
        "name": "HENLEY ROAD DAY CENTRE",
        "primary_role_id": "RO108",
        "role_ids": [
            "RO108"
        ],
        "status": "Active",
        "post_code": "N4 3DQ",
        "uprn": "Unknown"
    },
    {
        "org_id": "TAF39",
        "name": "HIGHGATE ROAD DAY CENTRE",
        "primary_role_id": "RO108",
        "role_ids": [
            "RO108"
        ],
        "status": "Active",
        "post_code": "NW5 1JY",
        "uprn": "Unknown"
    },
    {
        "org_id": "TAF41",
        "name": "HIGHVIEW & CORNWALLIS COMMUNITY SUPPORT PROJECTS",
        "primary_role_id": "RO108",
        "role_ids": [
            "RO108"
        ],
        "status": "Active",
        "post_code": "N19 3TA",
        "uprn": "5300088615"
    },
    {
        "org_id": "TAJ43",
        "name": "SANDWELL DISTRICT GENERAL HOSPITAL",
        "primary_role_id": "RO108",
        "role_ids": [
            "RO108"
        ],
        "status": "Active",
        "post_code": "B71 4HJ",
        "uprn": "32115285"
    },
    {
        "org_id": "TAJ44",
        "name": "SANDWELL TALKING THERAPIES",
        "primary_role_id": "RO108",
        "role_ids": [
            "RO108"
        ],
        "status": "Active",
        "post_code": "B69 1ER",
        "uprn": "Unknown"
    },
    {
        "org_id": "TAJ45",
        "name": "OLDBURY HEALTH CENTRE",
        "primary_role_id": "RO108",
        "role_ids": [
            "RO108"
        ],
        "status": "Active",
        "post_code": "B70 7SH",
        "uprn": "Unknown"
    },
    {
        "org_id": "TAJ46",
        "name": "CITY HOSPITAL",
        "primary_role_id": "RO108",
        "role_ids": [
            "RO108"
        ],
        "status": "Active",
        "post_code": "B18 7QH",
        "uprn": "Unknown"
    },
    {
        "org_id": "TAF70",
        "name": "EARLY INTERVENTION SERVICE",
        "primary_role_id": "RO108",
        "role_ids": [
            "RO108"
        ],
        "status": "Active",
        "post_code": "NW1 7JR",
        "uprn": "Unknown"
    },
    {
        "org_id": "TAF72",
        "name": "HIGHGATE ACUTE MENTAL HEALTH CENTRE",
        "primary_role_id": "RO108",
        "role_ids": [
            "RO108"
        ],
        "status": "Active",
        "post_code": "N19 5JG",
        "uprn": "Unknown"
    },
    {
        "org_id": "TAF73",
        "name": "PSYCHOLOGY A14 ARCHWAY WING",
        "primary_role_id": "RO108",
        "role_ids": [
            "RO108"
        ],
        "status": "Active",
        "post_code": "N19 5JG",
        "uprn": "Unknown"
    },
    {
        "org_id": "TAF74",
        "name": "CAMDEN ALCOHOL SERVICE",
        "primary_role_id": "RO108",
        "role_ids": [
            "RO108"
        ],
        "status": "Active",
        "post_code": "NW1 7HG",
        "uprn": "Unknown"
    },
    {
        "org_id": "TAF75",
        "name": "CALEDONIAN ROAD (RESIDENTIAL SERVICES)",
        "primary_role_id": "RO108",
        "role_ids": [
            "RO108"
        ],
        "status": "Active",
        "post_code": "N7 9RN",
        "uprn": "5300014443"
    },
    {
        "org_id": "TAF76",
        "name": "SHAFTESBURY ROAD (RESIDENTIAL SERVICES)",
        "primary_role_id": "RO108",
        "role_ids": [
            "RO108"
        ],
        "status": "Active",
        "post_code": "N19 4QW",
        "uprn": "5300082319"
    },
    {
        "org_id": "TAF77",
        "name": "ROYAL FREE GROVE CENTRE",
        "primary_role_id": "RO108",
        "role_ids": [
            "RO108"
        ],
        "status": "Active",
        "post_code": "NW3 2QZ",
        "uprn": "Unknown"
    },
    {
        "org_id": "TAF78",
        "name": "CARE TRUST MENTAL HEALTH SERVICES",
        "primary_role_id": "RO108",
        "role_ids": [
            "RO108"
        ],
        "status": "Active",
        "post_code": "NW1 2BU",
        "uprn": "Unknown"
    },
    {
        "org_id": "TAHCC",
        "name": "THE LONGLEY CENTRE",
        "primary_role_id": "RO108",
        "role_ids": [
            "RO108"
        ],
        "status": "Active",
        "post_code": "S5 7JT",
        "uprn": "200003002851"
    },
    {
        "org_id": "TAHCG",
        "name": "THE YEWS",
        "primary_role_id": "RO108",
        "role_ids": [
            "RO108"
        ],
        "status": "Active",
        "post_code": "S35 0AU",
        "uprn": "Unknown"
    },
    {
        "org_id": "TAHCH",
        "name": "1A STOCKARTH LANE",
        "primary_role_id": "RO108",
        "role_ids": [
            "RO108"
        ],
        "status": "Active",
        "post_code": "S35 0HT",
        "uprn": "Unknown"
    },
    {
        "org_id": "TAHCJ",
        "name": "ARGYLL HOUSE",
        "primary_role_id": "RO108",
        "role_ids": [
            "RO108"
        ],
        "status": "Active",
        "post_code": "S11 9AR",
        "uprn": "Unknown"
    },
    {
        "org_id": "TAHCK",
        "name": "COALBROOK HOUSE",
        "primary_role_id": "RO108",
        "role_ids": [
            "RO108"
        ],
        "status": "Active",
        "post_code": "S13 9WB",
        "uprn": "Unknown"
    },
    {
        "org_id": "TAHCN",
        "name": "BEIGHTON HOSPITAL",
        "primary_role_id": "RO108",
        "role_ids": [
            "RO108"
        ],
        "status": "Active",
        "post_code": "S20 1NZ",
        "uprn": "Unknown"
    },
    {
        "org_id": "TAHDR",
        "name": "BRUNSWICK HOUSE",
        "primary_role_id": "RO108",
        "role_ids": [
            "RO108"
        ],
        "status": "Active",
        "post_code": "S10 2HL",
        "uprn": "Unknown"
    },
    {
        "org_id": "TAHFC",
        "name": "MICHAEL CARLISLE CENTRE",
        "primary_role_id": "RO108",
        "role_ids": [
            "RO108"
        ],
        "status": "Active",
        "post_code": "S11 9BF",
        "uprn": "100052084931"
    },
    {
        "org_id": "TAHFY",
        "name": "EAST GLADE CENTRE",
        "primary_role_id": "RO108",
        "role_ids": [
            "RO108"
        ],
        "status": "Active",
        "post_code": "S12 4QN",
        "uprn": "200003006933"
    },
    {
        "org_id": "TAHGR",
        "name": "IVY LODGE CLINIC",
        "primary_role_id": "RO108",
        "role_ids": [
            "RO108"
        ],
        "status": "Active",
        "post_code": "S3 9PR",
        "uprn": "100052093628"
    },
    {
        "org_id": "TAHHH",
        "name": "WHEATA PLACE CLINIC",
        "primary_role_id": "RO108",
        "role_ids": [
            "RO108"
        ],
        "status": "Active",
        "post_code": "S5 9JH",
        "uprn": "Unknown"
    },
    {
        "org_id": "TAHJF",
        "name": "ST GEORGE'S COMMUNITY BASE",
        "primary_role_id": "RO108",
        "role_ids": [
            "RO108"
        ],
        "status": "Active",
        "post_code": "S3 7ND",
        "uprn": "Unknown"
    },
    {
        "org_id": "TAHXD",
        "name": "RUTLAND ROAD",
        "primary_role_id": "RO108",
        "role_ids": [
            "RO108"
        ],
        "status": "Active",
        "post_code": "S3 9PZ",
        "uprn": "100051067970"
    },
    {
        "org_id": "TAHXF",
        "name": "WARMINSTER ROAD",
        "primary_role_id": "RO108",
        "role_ids": [
            "RO108"
        ],
        "status": "Active",
        "post_code": "S8 8PQ",
        "uprn": "Unknown"
    },
    {
        "org_id": "TAHXK",
        "name": "FULWOOD HOUSE (HQ)",
        "primary_role_id": "RO108",
        "role_ids": [
            "RO108"
        ],
        "status": "Active",
        "post_code": "S10 3TH",
        "uprn": "Unknown"
    },
    {
        "org_id": "TAHXL",
        "name": "WARDSEND ROAD",
        "primary_role_id": "RO108",
        "role_ids": [
            "RO108"
        ],
        "status": "Active",
        "post_code": "S6 1LX",
        "uprn": "Unknown"
    },
    {
        "org_id": "TAHXM",
        "name": "FOREST CLOSE",
        "primary_role_id": "RO108",
        "role_ids": [
            "RO108"
        ],
        "status": "Active",
        "post_code": "S35 0JW",
        "uprn": "Unknown"
    },
    {
        "org_id": "TAHXN",
        "name": "FOREST LODGE",
        "primary_role_id": "RO108",
        "role_ids": [
            "RO108"
        ],
        "status": "Active",
        "post_code": "S35 0JW",
        "uprn": "Unknown"
    },
    {
        "org_id": "TAHXP",
        "name": "GRENOSIDE GRANGE",
        "primary_role_id": "RO108",
        "role_ids": [
            "RO108"
        ],
        "status": "Active",
        "post_code": "S35 8QS",
        "uprn": "100051068589"
    },
    {
        "org_id": "TAHXQ",
        "name": "LIMBRICK HEALTH CENTRE",
        "primary_role_id": "RO108",
        "role_ids": [
            "RO108"
        ],
        "status": "Active",
        "post_code": "S6 2PE",
        "uprn": "Unknown"
    },
    {
        "org_id": "TAHXR",
        "name": "NORTHLANDS COMMUNITY HEALTH CENTRE",
        "primary_role_id": "RO108",
        "role_ids": [
            "RO108"
        ],
        "status": "Active",
        "post_code": "S5 8BE",
        "uprn": "100052098599"
    },
    {
        "org_id": "TAHYA",
        "name": "CASTLE MARKET BUILDING",
        "primary_role_id": "RO108",
        "role_ids": [
            "RO108"
        ],
        "status": "Active",
        "post_code": "S1 2AF",
        "uprn": "Unknown"
    },
    {
        "org_id": "TAHYC",
        "name": "CITY ROAD DAY SERVICE",
        "primary_role_id": "RO108",
        "role_ids": [
            "RO108"
        ],
        "status": "Active",
        "post_code": "S2 1GF",
        "uprn": "100052088230"
    },
    {
        "org_id": "TAHYD",
        "name": "CLINICAL PSYCHOLOGY",
        "primary_role_id": "RO108",
        "role_ids": [
            "RO108"
        ],
        "status": "Active",
        "post_code": "S5 7AU",
        "uprn": "Unknown"
    },
    {
        "org_id": "TAHYE",
        "name": "EDMUND ROAD",
        "primary_role_id": "RO108",
        "role_ids": [
            "RO108"
        ],
        "status": "Active",
        "post_code": "S2 4EA",
        "uprn": "Unknown"
    },
    {
        "org_id": "TAHYF",
        "name": "HANOVER MEDICAL CENTRE",
        "primary_role_id": "RO108",
        "role_ids": [
            "RO108"
        ],
        "status": "Active",
        "post_code": "S10 2EB",
        "uprn": "100052218142"
    },
    {
        "org_id": "TAHYG",
        "name": "HOWARD ROAD",
        "primary_role_id": "RO108",
        "role_ids": [
            "RO108"
        ],
        "status": "Active",
        "post_code": "S6 3RX",
        "uprn": "Unknown"
    },
    {
        "org_id": "TAHYH",
        "name": "LIGHTWOOD HOUSE",
        "primary_role_id": "RO108",
        "role_ids": [
            "RO108"
        ],
        "status": "Active",
        "post_code": "S8 8BG",
        "uprn": "Unknown"
    },
    {
        "org_id": "TAHYK",
        "name": "LYTTON ROAD",
        "primary_role_id": "RO108",
        "role_ids": [
            "RO108"
        ],
        "status": "Active",
        "post_code": "S5 8AX",
        "uprn": "Unknown"
    },
    {
        "org_id": "TAHYL",
        "name": "MONCRIEFFE DAY SERVICE",
        "primary_role_id": "RO108",
        "role_ids": [
            "RO108"
        ],
        "status": "Active",
        "post_code": "S7 1HQ",
        "uprn": "100052109173"
    },
    {
        "org_id": "TAHYM",
        "name": "NORFOLK HOUSE",
        "primary_role_id": "RO108",
        "role_ids": [
            "RO108"
        ],
        "status": "Active",
        "post_code": "S1 2JB",
        "uprn": "Unknown"
    },
    {
        "org_id": "TAHYN",
        "name": "PITSMOOR DAY CENTRE",
        "primary_role_id": "RO108",
        "role_ids": [
            "RO108"
        ],
        "status": "Active",
        "post_code": "S3 9AQ",
        "uprn": "100052093547"
    },
    {
        "org_id": "TAHYP",
        "name": "PSYCHIATRIC OUT PATIENTS",
        "primary_role_id": "RO108",
        "role_ids": [
            "RO108"
        ],
        "status": "Active",
        "post_code": "S5 7AU",
        "uprn": "Unknown"
    },
    {
        "org_id": "TAHYQ",
        "name": "SHEPCOTE TRADING CENTRE",
        "primary_role_id": "RO108",
        "role_ids": [
            "RO108"
        ],
        "status": "Active",
        "post_code": "S9 1US",
        "uprn": "Unknown"
    },
    {
        "org_id": "TAHYR",
        "name": "WAINWRIGHT CRESCENT",
        "primary_role_id": "RO108",
        "role_ids": [
            "RO108"
        ],
        "status": "Active",
        "post_code": "S13 8EN",
        "uprn": "100051102599"
    },
    {
        "org_id": "TAHYV",
        "name": "RIVERMEAD UNIT",
        "primary_role_id": "RO108",
        "role_ids": [
            "RO108"
        ],
        "status": "Active",
        "post_code": "S5 7AU",
        "uprn": "Unknown"
    },
    {
        "org_id": "TAJ05",
        "name": "EDWARD STREET DAY HOSPITAL",
        "primary_role_id": "RO108",
        "role_ids": [
            "RO108"
        ],
        "status": "Active",
        "post_code": "B70 8NL",
        "uprn": "Unknown"
    },
    {
        "org_id": "TAD27",
        "name": "PARK VIEW",
        "primary_role_id": "RO108",
        "role_ids": [
            "RO108"
        ],
        "status": "Active",
        "post_code": "BD20 6LB",
        "uprn": "Unknown"
    },
    {
        "org_id": "TAD68",
        "name": "BRADFORD CITY CMHT FOR OLDER PEOPLE",
        "primary_role_id": "RO108",
        "role_ids": [
            "RO108"
        ],
        "status": "Active",
        "post_code": "BD15 7YT",
        "uprn": "Unknown"
    },
    {
        "org_id": "TAD69",
        "name": "NORTH BRADFORD CMHT FOR OLDER PEOPLE",
        "primary_role_id": "RO108",
        "role_ids": [
            "RO108"
        ],
        "status": "Active",
        "post_code": "BD10 8LW",
        "uprn": "Unknown"
    },
    {
        "org_id": "TAD79",
        "name": "UNITS 1, 3, 4, AND 6 (MERIDIAN HOUSE)",
        "primary_role_id": "RO108",
        "role_ids": [
            "RO108"
        ],
        "status": "Active",
        "post_code": "BD21 4AJ",
        "uprn": "Unknown"
    },
    {
        "org_id": "TAD55",
        "name": "1/3 LEGRAMS TERRACE",
        "primary_role_id": "RO108",
        "role_ids": [
            "RO108"
        ],
        "status": "Active",
        "post_code": "BD7 1LN",
        "uprn": "Unknown"
    },
    {
        "org_id": "TAH01",
        "name": "NORBURY RESOURCE CENTRE",
        "primary_role_id": "RO108",
        "role_ids": [
            "RO108"
        ],
        "status": "Active",
        "post_code": "S5 7BB",
        "uprn": "100050947328"
    },
    {
        "org_id": "TAH92",
        "name": "MARGETSON SURGERY",
        "primary_role_id": "RO108",
        "role_ids": [
            "RO108"
        ],
        "status": "Active",
        "post_code": "S5 9PA",
        "uprn": "100052098927"
    },
    {
        "org_id": "TAH93",
        "name": "ACCELERATED DISCHARGE OFFICE",
        "primary_role_id": "RO108",
        "role_ids": [
            "RO108"
        ],
        "status": "Active",
        "post_code": "S5 7AU",
        "uprn": "Unknown"
    },
    {
        "org_id": "TAHYX",
        "name": "PRESIDENT PARK",
        "primary_role_id": "RO108",
        "role_ids": [
            "RO108"
        ],
        "status": "Active",
        "post_code": "S4 7UR",
        "uprn": "10091734366"
    },
    {
        "org_id": "TAD12",
        "name": "COOPER LANE OFFICES",
        "primary_role_id": "RO108",
        "role_ids": [
            "RO108"
        ],
        "status": "Active",
        "post_code": "BD6 3NJ",
        "uprn": "10010582737"
    },
    {
        "org_id": "TAD57",
        "name": "48 ASH GROVE",
        "primary_role_id": "RO108",
        "role_ids": [
            "RO108"
        ],
        "status": "Active",
        "post_code": "BD7 1BL",
        "uprn": "Unknown"
    },
    {
        "org_id": "TAD59",
        "name": "CEMETERY ROAD",
        "primary_role_id": "RO108",
        "role_ids": [
            "RO108"
        ],
        "status": "Active",
        "post_code": "BD8 9RY",
        "uprn": "Unknown"
    },
    {
        "org_id": "TAD61",
        "name": "UNIT E3 & E4 ENTERPRISE WAY",
        "primary_role_id": "RO108",
        "role_ids": [
            "RO108"
        ],
        "status": "Active",
        "post_code": "BD10 8EW",
        "uprn": "Unknown"
    },
    {
        "org_id": "TAD62",
        "name": "FIELDHEAD HOUSE",
        "primary_role_id": "RO108",
        "role_ids": [
            "RO108"
        ],
        "status": "Active",
        "post_code": "BD7 1LN",
        "uprn": "Unknown"
    },
    {
        "org_id": "TAD01",
        "name": "MOOR LANE CENTRE",
        "primary_role_id": "RO108",
        "role_ids": [
            "RO108"
        ],
        "status": "Active",
        "post_code": "LS29 7AJ",
        "uprn": "Unknown"
    },
    {
        "org_id": "TAD02",
        "name": "AIREDALE CHILD & FAMILY SERVICE",
        "primary_role_id": "RO108",
        "role_ids": [
            "RO108"
        ],
        "status": "Active",
        "post_code": "BD20 6LD",
        "uprn": "Unknown"
    },
    {
        "org_id": "TAD04",
        "name": "DRUG & ALCOHOL TEAM",
        "primary_role_id": "RO108",
        "role_ids": [
            "RO108"
        ],
        "status": "Active",
        "post_code": "BD21 3DR",
        "uprn": "Unknown"
    },
    {
        "org_id": "TAD05",
        "name": "INGROW CENTRE",
        "primary_role_id": "RO108",
        "role_ids": [
            "RO108"
        ],
        "status": "Active",
        "post_code": "BD21 1BB",
        "uprn": "Unknown"
    },
    {
        "org_id": "TAD15",
        "name": "DAISY BANK",
        "primary_role_id": "RO108",
        "role_ids": [
            "RO108"
        ],
        "status": "Active",
        "post_code": "BD9 6RL",
        "uprn": "Unknown"
    },
    {
        "org_id": "TAD17",
        "name": "LYNFIELD MOUNT HOSPITAL",
        "primary_role_id": "RO108",
        "role_ids": [
            "RO108"
        ],
        "status": "Active",
        "post_code": "BD9 6DP",
        "uprn": "100051957015"
    },
    {
        "org_id": "TAD65",
        "name": "LISTONSHIELS",
        "primary_role_id": "RO108",
        "role_ids": [
            "RO108"
        ],
        "status": "Active",
        "post_code": "BD4 6DN",
        "uprn": "100051137317"
    },
    {
        "org_id": "TAD66",
        "name": "UNIT 2D REVIVAL INDUSTRIAL ESTATE",
        "primary_role_id": "RO108",
        "role_ids": [
            "RO108"
        ],
        "status": "Active",
        "post_code": "BD4 7AQ",
        "uprn": "Unknown"
    },
    {
        "org_id": "TAJ03",
        "name": "PCL - BIRMINGHAM ROAD",
        "primary_role_id": "RO108",
        "role_ids": [
            "RO108"
        ],
        "status": "Active",
        "post_code": "B70 6JX",
        "uprn": "32134066"
    },
    {
        "org_id": "TAJ51",
        "name": "CAMHS",
        "primary_role_id": "RO108",
        "role_ids": [
            "RO108"
        ],
        "status": "Active",
        "post_code": "B70 8NY",
        "uprn": "32112374"
    },
    {
        "org_id": "TAHCQ",
        "name": "CARVER STREET",
        "primary_role_id": "RO108",
        "role_ids": [
            "RO108"
        ],
        "status": "Active",
        "post_code": "S1 4FS",
        "uprn": "Unknown"
    },
    {
        "org_id": "TAF80",
        "name": "HILL HOUSE",
        "primary_role_id": "RO108",
        "role_ids": [
            "RO108"
        ],
        "status": "Active",
        "post_code": "N19 5NA",
        "uprn": "Unknown"
    }
]