[
    {
        "org_id": "N96",
        "name": "NORTH WALES CANCER NETWORK",
        "primary_role_id": "RO103",
        "role_ids": [
            "RO103"
        ],
        "status": "Active",
        "post_code": "CH7 1PZ",
        "uprn": "Unknown"
    },
    {
        "org_id": "N95",
        "name": "SOUTH WALES CANCER NETWORK",
        "primary_role_id": "RO103",
        "role_ids": [
            "RO103"
        ],
        "status": "Active",
        "post_code": "CF11 9LJ",
        "uprn": "100100891743"
    },
    {
        "org_id": "N40",
        "name": "LONDON CANCER ALLIANCE",
        "primary_role_id": "RO103",
        "role_ids": [
            "RO103"
        ],
        "status": "Active",
        "post_code": "SW3 3TW",
        "uprn": "Unknown"
    },
    {
        "org_id": "N44",
        "name": "NORTH WEST AND SOUTH LONDON CANCER COMMISSIONING TEAM",
        "primary_role_id": "RO103",
        "role_ids": [
            "RO103"
        ],
        "status": "Active",
        "post_code": "NW1 5JD",
        "uprn": "10033538203"
    },
    {
        "org_id": "N51",
        "name": "GREATER MANCHESTER, LANCASHIRE AND SOUTH CUMBRIA STRATEGIC CLINICAL NETWORK",
        "primary_role_id": "RO103",
        "role_ids": [
            "RO103"
        ],
        "status": "Active",
        "post_code": "M1 3BN",
        "uprn": "Unknown"
    },
    {
        "org_id": "N50",
        "name": "CHESHIRE AND MERSEYSIDE STRATEGIC CLINICAL NETWORK",
        "primary_role_id": "RO103",
        "role_ids": [
            "RO103"
        ],
        "status": "Active",
        "post_code": "CH62 3QX",
        "uprn": "Unknown"
    },
    {
        "org_id": "N52",
        "name": "NORTHERN ENGLAND STRATEGIC CLINICAL NETWORK",
        "primary_role_id": "RO103",
        "role_ids": [
            "RO103"
        ],
        "status": "Active",
        "post_code": "NE15 8NY",
        "uprn": "Unknown"
    },
    {
        "org_id": "N53",
        "name": "YORKSHIRE AND THE HUMBER STRATEGIC CLINICAL NETWORK",
        "primary_role_id": "RO103",
        "role_ids": [
            "RO103"
        ],
        "status": "Active",
        "post_code": "S66 1YY",
        "uprn": "10000859370"
    },
    {
        "org_id": "N54",
        "name": "EAST OF ENGLAND STRATEGIC CLINICAL NETWORK",
        "primary_role_id": "RO103",
        "role_ids": [
            "RO103"
        ],
        "status": "Active",
        "post_code": "CB21 5XE",
        "uprn": "Unknown"
    },
    {
        "org_id": "N55",
        "name": "EAST MIDLANDS STRATEGIC CLINICAL NETWORK",
        "primary_role_id": "RO103",
        "role_ids": [
            "RO103"
        ],
        "status": "Active",
        "post_code": "NG21 0HJ",
        "uprn": "Unknown"
    },
    {
        "org_id": "N56",
        "name": "WEST MIDLANDS STRATEGIC CLINICAL NETWORK",
        "primary_role_id": "RO103",
        "role_ids": [
            "RO103"
        ],
        "status": "Active",
        "post_code": "B16 9RG",
        "uprn": "Unknown"
    },
    {
        "org_id": "N57",
        "name": "SOUTH WEST STRATEGIC CLINICAL NETWORK",
        "primary_role_id": "RO103",
        "role_ids": [
            "RO103"
        ],
        "status": "Active",
        "post_code": "TA1 2PX",
        "uprn": "10014264897"
    },
    {
        "org_id": "N58",
        "name": "SOUTH EAST COAST STRATEGIC CLINICAL NETWORK",
        "primary_role_id": "RO103",
        "role_ids": [
            "RO103"
        ],
        "status": "Active",
        "post_code": "RH6 7DE",
        "uprn": "68159068"
    },
    {
        "org_id": "N59",
        "name": "THAMES VALLEY STRATEGIC CLINICAL NETWORK",
        "primary_role_id": "RO103",
        "role_ids": [
            "RO103"
        ],
        "status": "Active",
        "post_code": "OX4 2LH",
        "uprn": "200004675793"
    },
    {
        "org_id": "N60",
        "name": "WESSEX STRATEGIC CLINICAL NETWORK",
        "primary_role_id": "RO103",
        "role_ids": [
            "RO103"
        ],
        "status": "Active",
        "post_code": "SO16 4GX",
        "uprn": "Unknown"
    },
    {
        "org_id": "N61",
        "name": "NORTH AND EAST LONDON CANCER COMMISSIONING TEAM",
        "primary_role_id": "RO103",
        "role_ids": [
            "RO103"
        ],
        "status": "Active",
        "post_code": "EC2A 2DU",
        "uprn": "Unknown"
    },
    {
        "org_id": "N62",
        "name": "UCLH CANCER COLLABORATIVE",
        "primary_role_id": "RO103",
        "role_ids": [
            "RO103"
        ],
        "status": "Active",
        "post_code": "W1G 8SG",
        "uprn": "Unknown"
    },
    {
        "org_id": "N76",
        "name": "LANCASHIRE & SOUTH CUMBRIA CANCER ALLIANCE",
        "primary_role_id": "RO103",
        "role_ids": [
            "RO103"
        ],
        "status": "Active",
        "post_code": "PR26 6TT",
        "uprn": "Unknown"
    },
    {
        "org_id": "N67",
        "name": "GREATER MANCHESTER CANCER ALLIANCE",
        "primary_role_id": "RO103",
        "role_ids": [
            "RO103"
        ],
        "status": "Active",
        "post_code": "M20 4BX",
        "uprn": "10012203949"
    },
    {
        "org_id": "N68",
        "name": "CHESHIRE AND MERSEYSIDE CANCER ALLIANCE",
        "primary_role_id": "RO103",
        "role_ids": [
            "RO103"
        ],
        "status": "Active",
        "post_code": "CH63 4JY",
        "uprn": "42025551"
    },
    {
        "org_id": "N69",
        "name": "NORTHERN CANCER ALLIANCE",
        "primary_role_id": "RO103",
        "role_ids": [
            "RO103"
        ],
        "status": "Active",
        "post_code": "NE15 8NY",
        "uprn": "4510740921"
    },
    {
        "org_id": "N63",
        "name": "WEST YORKSHIRE AND HARROGATE CANCER ALLIANCE",
        "primary_role_id": "RO103",
        "role_ids": [
            "RO103"
        ],
        "status": "Active",
        "post_code": "WF1 1LT",
        "uprn": "10091862470"
    },
    {
        "org_id": "N70",
        "name": "HUMBER AND NORTH YORKSHIRE CANCER ALLIANCE",
        "primary_role_id": "RO103",
        "role_ids": [
            "RO103"
        ],
        "status": "Active",
        "post_code": "HU10 6DT",
        "uprn": "200000646169"
    },
    {
        "org_id": "N80",
        "name": "SOUTH YORKSHIRE & BASSETLAW CANCER ALLIANCE",
        "primary_role_id": "RO103",
        "role_ids": [
            "RO103"
        ],
        "status": "Active",
        "post_code": "S9 4EU",
        "uprn": "10092049305"
    },
    {
        "org_id": "N45",
        "name": "WEST MIDLANDS CANCER ALLIANCE",
        "primary_role_id": "RO103",
        "role_ids": [
            "RO103"
        ],
        "status": "Active",
        "post_code": "B2 4BJ",
        "uprn": "Unknown"
    },
    {
        "org_id": "N88",
        "name": "EAST MIDLANDS CANCER ALLIANCE",
        "primary_role_id": "RO103",
        "role_ids": [
            "RO103"
        ],
        "status": "Active",
        "post_code": "LE3 8RA",
        "uprn": "Unknown"
    },
    {
        "org_id": "N73",
        "name": "EAST OF ENGLAND - NORTH CANCER ALLIANCE",
        "primary_role_id": "RO103",
        "role_ids": [
            "RO103"
        ],
        "status": "Active",
        "post_code": "CB21 5XA",
        "uprn": "10003196626"
    },
    {
        "org_id": "N71",
        "name": "EAST OF ENGLAND - SOUTH CANCER ALLIANCE",
        "primary_role_id": "RO103",
        "role_ids": [
            "RO103"
        ],
        "status": "Active",
        "post_code": "CB21 5XA",
        "uprn": "10003196626"
    },
    {
        "org_id": "N99",
        "name": "NORTH CENTRAL LONDON CANCER ALLIANCE",
        "primary_role_id": "RO103",
        "role_ids": [
            "RO103"
        ],
        "status": "Active",
        "post_code": "W1G 8SE",
        "uprn": "100023465244"
    },
    {
        "org_id": "N78",
        "name": "WEST LONDON CANCER ALLIANCE",
        "primary_role_id": "RO103",
        "role_ids": [
            "RO103"
        ],
        "status": "Active",
        "post_code": "SW1H 0QS",
        "uprn": "Unknown"
    },
    {
        "org_id": "N47",
        "name": "SOUTH EAST LONDON CANCER ALLIANCE",
        "primary_role_id": "RO103",
        "role_ids": [
            "RO103"
        ],
        "status": "Active",
        "post_code": "SE1 4YB",
        "uprn": "Unknown"
    },
    {
        "org_id": "N89",
        "name": "THAMES VALLEY CANCER ALLIANCE",
        "primary_role_id": "RO103",
        "role_ids": [
            "RO103"
        ],
        "status": "Active",
        "post_code": "RG1 7EB",
        "uprn": "Unknown"
    },
    {
        "org_id": "N87",
        "name": "SURREY AND SUSSEX CANCER ALLIANCE",
        "primary_role_id": "RO103",
        "role_ids": [
            "RO103"
        ],
        "status": "Active",
        "post_code": "GU2 7YG",
        "uprn": "Unknown"
    },
    {
        "org_id": "N92",
        "name": "KENT AND MEDWAY CANCER ALLIANCE",
        "primary_role_id": "RO103",
        "role_ids": [
            "RO103"
        ],
        "status": "Active",
        "post_code": "TN23 1PP",
        "uprn": "Unknown"
    },
    {
        "org_id": "N48",
        "name": "SOMERSET, WILTSHIRE, AVON AND GLOUCESTERSHIRE CANCER ALLIANCE",
        "primary_role_id": "RO103",
        "role_ids": [
            "RO103"
        ],
        "status": "Active",
        "post_code": "BS1 3NX",
        "uprn": "Unknown"
    },
    {
        "org_id": "N77",
        "name": "PENINSULA CANCER ALLIANCE",
        "primary_role_id": "RO103",
        "role_ids": [
            "RO103"
        ],
        "status": "Active",
        "post_code": "TA1 2PX",
        "uprn": "10014264897"
    },
    {
        "org_id": "N72",
        "name": "NORTH EAST LONDON CANCER ALLIANCE",
        "primary_role_id": "RO103",
        "role_ids": [
            "RO103"
        ],
        "status": "Active",
        "post_code": "E15 1DA",
        "uprn": "Unknown"
    },
    {
        "org_id": "N46",
        "name": "WESSEX CANCER ALLIANCE",
        "primary_role_id": "RO103",
        "role_ids": [
            "RO103"
        ],
        "status": "Active",
        "post_code": "SO16 4GX",
        "uprn": "Unknown"
    },
    {
        "org_id": "L0S3P",
        "name": "EAST OF ENGLAND CANCER ALLIANCE",
        "primary_role_id": "RO103",
        "role_ids": [
            "RO103"
        ],
        "status": "Active",
        "post_code": "CB7 4EA",
        "uprn": "Unknown"
    }
]