[
    {
        "org_id": "T2X3",
        "name": "OPTICALISE OPHTHALMIC OPTICIANS",
        "primary_role_id": "RO166",
        "role_ids": [
            "RO166"
        ],
        "status": "Active",
        "post_code": "HA3 0PS",
        "uprn": "Unknown"
    },
    {
        "org_id": "T2X4",
        "name": "A C STEPHENS OPTICIANS LTD",
        "primary_role_id": "RO166",
        "role_ids": [
            "RO166"
        ],
        "status": "Active",
        "post_code": "NG5 7DE",
        "uprn": "100032125788"
    },
    {
        "org_id": "T2X5",
        "name": "THE EYE PLACE LTD",
        "primary_role_id": "RO166",
        "role_ids": [
            "RO166"
        ],
        "status": "Active",
        "post_code": "DE45 1HD",
        "uprn": "10070088239"
    },
    {
        "org_id": "T2X8",
        "name": "CARTWRIGHT OPTOMETRISTS",
        "primary_role_id": "RO166",
        "role_ids": [
            "RO166"
        ],
        "status": "Active",
        "post_code": "M34 3JU",
        "uprn": "Unknown"
    },
    {
        "org_id": "T2XC",
        "name": "MALCOLM SMITH OPTOMETRISTS",
        "primary_role_id": "RO166",
        "role_ids": [
            "RO166"
        ],
        "status": "Active",
        "post_code": "PO6 2AA",
        "uprn": "1775035639"
    },
    {
        "org_id": "T2XD",
        "name": "PRIDDEY LTD",
        "primary_role_id": "RO166",
        "role_ids": [
            "RO166"
        ],
        "status": "Active",
        "post_code": "PO21 2NY",
        "uprn": "200002715577"
    },
    {
        "org_id": "T2XE",
        "name": "DAVID CREEDON LTD",
        "primary_role_id": "RO166",
        "role_ids": [
            "RO166"
        ],
        "status": "Active",
        "post_code": "DL9 4DH",
        "uprn": "Unknown"
    },
    {
        "org_id": "T2XF",
        "name": "HINDHAUGH OPTICIAN LTD",
        "primary_role_id": "RO166",
        "role_ids": [
            "RO166"
        ],
        "status": "Active",
        "post_code": "DL16 6AB",
        "uprn": "100110748916"
    },
    {
        "org_id": "T2XG",
        "name": "JOHN EXLEY OPTICIAN LTD",
        "primary_role_id": "RO166",
        "role_ids": [
            "RO166"
        ],
        "status": "Active",
        "post_code": "BD23 1DY",
        "uprn": "100051945563"
    },
    {
        "org_id": "T2XH",
        "name": "MCCORMICK & GORMAN OPTICIANS",
        "primary_role_id": "RO166",
        "role_ids": [
            "RO166"
        ],
        "status": "Active",
        "post_code": "NE3 2EA",
        "uprn": "4510009656"
    },
    {
        "org_id": "T2XJ",
        "name": "AMA OPTICAL LTD",
        "primary_role_id": "RO166",
        "role_ids": [
            "RO166"
        ],
        "status": "Active",
        "post_code": "PR2 9HD",
        "uprn": "10002223307"
    },
    {
        "org_id": "T2XK",
        "name": "PETER ANTHONY OPTOMETRIST",
        "primary_role_id": "RO166",
        "role_ids": [
            "RO166"
        ],
        "status": "Active",
        "post_code": "FY3 8DB",
        "uprn": "100010838793"
    },
    {
        "org_id": "T2XL",
        "name": "A M HAIGH",
        "primary_role_id": "RO166",
        "role_ids": [
            "RO166"
        ],
        "status": "Active",
        "post_code": "SR7 7HQ",
        "uprn": "100110771527"
    },
    {
        "org_id": "T2XQ",
        "name": "L HATTON OPTICIANS",
        "primary_role_id": "RO166",
        "role_ids": [
            "RO166"
        ],
        "status": "Active",
        "post_code": "BB4 7QN",
        "uprn": "100012543673"
    },
    {
        "org_id": "T0LG",
        "name": "JAMES J BATES (OPTICIANS) LTD",
        "primary_role_id": "RO166",
        "role_ids": [
            "RO166"
        ],
        "status": "Active",
        "post_code": "CA28 7LE",
        "uprn": "Unknown"
    },
    {
        "org_id": "T0N3",
        "name": "NEEDHAM MARKET OPTICIANS",
        "primary_role_id": "RO166",
        "role_ids": [
            "RO166"
        ],
        "status": "Active",
        "post_code": "IP6 8DG",
        "uprn": "100091086170"
    },
    {
        "org_id": "T0LH",
        "name": "BOS OPTICIANS",
        "primary_role_id": "RO166",
        "role_ids": [
            "RO166"
        ],
        "status": "Active",
        "post_code": "CW8 1HH",
        "uprn": "100012825436"
    },
    {
        "org_id": "T0N4",
        "name": "EYECARE OPTICIANS LTD",
        "primary_role_id": "RO166",
        "role_ids": [
            "RO166"
        ],
        "status": "Active",
        "post_code": "IP1 4HA",
        "uprn": "100091064344"
    },
    {
        "org_id": "T0LJ",
        "name": "BASIL H BLOOM OPTOMETRIST",
        "primary_role_id": "RO166",
        "role_ids": [
            "RO166"
        ],
        "status": "Active",
        "post_code": "CR2 8LH",
        "uprn": "100022911498"
    },
    {
        "org_id": "T0N5",
        "name": "RAJ MEHTA FBCO",
        "primary_role_id": "RO166",
        "role_ids": [
            "RO166"
        ],
        "status": "Active",
        "post_code": "ST3 2JF",
        "uprn": "3455112426"
    },
    {
        "org_id": "T0LK",
        "name": "PAMELA GIRDWOOD OPTICIAN LTD",
        "primary_role_id": "RO166",
        "role_ids": [
            "RO166"
        ],
        "status": "Active",
        "post_code": "CW1 3HA",
        "uprn": "Unknown"
    },
    {
        "org_id": "T0LL",
        "name": "J F DAVIES OPTICIANS",
        "primary_role_id": "RO166",
        "role_ids": [
            "RO166"
        ],
        "status": "Active",
        "post_code": "CT11 9AT",
        "uprn": "100061135825"
    },
    {
        "org_id": "T0N6",
        "name": "ASHMORE PARK OPTICIANS",
        "primary_role_id": "RO166",
        "role_ids": [
            "RO166"
        ],
        "status": "Active",
        "post_code": "WV11 2JW",
        "uprn": "Unknown"
    },
    {
        "org_id": "T0LM",
        "name": "THORNBURY EYE CENTRE",
        "primary_role_id": "RO166",
        "role_ids": [
            "RO166"
        ],
        "status": "Active",
        "post_code": "BS35 2BH",
        "uprn": "579355"
    },
    {
        "org_id": "T0N7",
        "name": "DR T J BUCKINGHAM OPTOMETRIST",
        "primary_role_id": "RO166",
        "role_ids": [
            "RO166"
        ],
        "status": "Active",
        "post_code": "LS29 9DR",
        "uprn": "100052068398"
    },
    {
        "org_id": "T0LP",
        "name": "LONG MELFORD OPTICIANS",
        "primary_role_id": "RO166",
        "role_ids": [
            "RO166"
        ],
        "status": "Active",
        "post_code": "CO10 9HZ",
        "uprn": "Unknown"
    },
    {
        "org_id": "T0LQ",
        "name": "ROSE OPTOMETRISTS",
        "primary_role_id": "RO166",
        "role_ids": [
            "RO166"
        ],
        "status": "Active",
        "post_code": "CM20 1XR",
        "uprn": "Unknown"
    },
    {
        "org_id": "T0LR",
        "name": "OPTHALMIC CARE OPTICIANS",
        "primary_role_id": "RO166",
        "role_ids": [
            "RO166"
        ],
        "status": "Active",
        "post_code": "B8 3PX",
        "uprn": "100071381667"
    },
    {
        "org_id": "T0N9",
        "name": "COOPERATIVE GROUP LTD",
        "primary_role_id": "RO166",
        "role_ids": [
            "RO166"
        ],
        "status": "Active",
        "post_code": "M60 0WE",
        "uprn": "Unknown"
    },
    {
        "org_id": "T0LV",
        "name": "COLLINS OPTOMETRISTS",
        "primary_role_id": "RO166",
        "role_ids": [
            "RO166"
        ],
        "status": "Active",
        "post_code": "FY1 3AU",
        "uprn": "Unknown"
    },
    {
        "org_id": "T0NA",
        "name": "BUSHEY HEATH OPTICIANS",
        "primary_role_id": "RO166",
        "role_ids": [
            "RO166"
        ],
        "status": "Active",
        "post_code": "WD23 1EE",
        "uprn": "10034170555"
    },
    {
        "org_id": "T1AP",
        "name": "PHILIP AND MARY THOMSON OPTICIANS LTD",
        "primary_role_id": "RO166",
        "role_ids": [
            "RO166"
        ],
        "status": "Active",
        "post_code": "IP21 4JL",
        "uprn": "2630161571"
    },
    {
        "org_id": "T0LW",
        "name": "MICHAEL P HARRIS (OPTICIANS) LTD",
        "primary_role_id": "RO166",
        "role_ids": [
            "RO166"
        ],
        "status": "Active",
        "post_code": "HD1 3TG",
        "uprn": "Unknown"
    },
    {
        "org_id": "T0LX",
        "name": "STOKE OPTICIANS",
        "primary_role_id": "RO166",
        "role_ids": [
            "RO166"
        ],
        "status": "Active",
        "post_code": "CV3 1FQ",
        "uprn": "100071503786"
    },
    {
        "org_id": "T0LY",
        "name": "QUEEN STREET OPTICIANS",
        "primary_role_id": "RO166",
        "role_ids": [
            "RO166"
        ],
        "status": "Active",
        "post_code": "EX32 8HJ",
        "uprn": "Unknown"
    },
    {
        "org_id": "T0M1",
        "name": "PHILLIPS OPTICIANS & OPTICAL WORLD",
        "primary_role_id": "RO166",
        "role_ids": [
            "RO166"
        ],
        "status": "Active",
        "post_code": "E10 7AA",
        "uprn": "100022958574"
    },
    {
        "org_id": "T0EP",
        "name": "A WHITELEY OPTOMETRIST",
        "primary_role_id": "RO166",
        "role_ids": [
            "RO166"
        ],
        "status": "Active",
        "post_code": "S70 2ST",
        "uprn": "Unknown"
    },
    {
        "org_id": "T0M2",
        "name": "O'BRIEN WRENCH & LOWCOCK OPTICIANS",
        "primary_role_id": "RO166",
        "role_ids": [
            "RO166"
        ],
        "status": "Active",
        "post_code": "GL20 5PP",
        "uprn": "Unknown"
    },
    {
        "org_id": "T0NC",
        "name": "WATERSIDE LABORATORIES",
        "primary_role_id": "RO166",
        "role_ids": [
            "RO166"
        ],
        "status": "Active",
        "post_code": "SO40 3SA",
        "uprn": "Unknown"
    },
    {
        "org_id": "T22R",
        "name": "LUGTON OPTICIANS",
        "primary_role_id": "RO166",
        "role_ids": [
            "RO166"
        ],
        "status": "Active",
        "post_code": "S35 2XE",
        "uprn": "100052094251"
    },
    {
        "org_id": "T22T",
        "name": "HOWARDS OPTICIANS LTD",
        "primary_role_id": "RO166",
        "role_ids": [
            "RO166"
        ],
        "status": "Active",
        "post_code": "WA5 8DL",
        "uprn": "10008654036"
    },
    {
        "org_id": "T22X",
        "name": "INSTYLE OPTICIANS",
        "primary_role_id": "RO166",
        "role_ids": [
            "RO166"
        ],
        "status": "Active",
        "post_code": "L25 6EQ",
        "uprn": "Unknown"
    },
    {
        "org_id": "T232",
        "name": "PETER A SCHAFLE",
        "primary_role_id": "RO166",
        "role_ids": [
            "RO166"
        ],
        "status": "Active",
        "post_code": "DE7 5RE",
        "uprn": "100032024488"
    },
    {
        "org_id": "T233",
        "name": "GRIMLEY AND GLYNN OPTICIANS LTD",
        "primary_role_id": "RO166",
        "role_ids": [
            "RO166"
        ],
        "status": "Active",
        "post_code": "DE11 9DG",
        "uprn": "100032001231"
    },
    {
        "org_id": "T234",
        "name": "SPECS 4 U OPTICIANS",
        "primary_role_id": "RO166",
        "role_ids": [
            "RO166"
        ],
        "status": "Active",
        "post_code": "DE1 2NG",
        "uprn": "100031999362"
    },
    {
        "org_id": "T236",
        "name": "VISION CARE",
        "primary_role_id": "RO166",
        "role_ids": [
            "RO166"
        ],
        "status": "Active",
        "post_code": "LN1 3AJ",
        "uprn": "235028156"
    },
    {
        "org_id": "T237",
        "name": "I S MERRY OPTICIANS LTD",
        "primary_role_id": "RO166",
        "role_ids": [
            "RO166"
        ],
        "status": "Active",
        "post_code": "DN16 2SF",
        "uprn": "Unknown"
    },
    {
        "org_id": "T23A",
        "name": "K S OPTICIAN",
        "primary_role_id": "RO166",
        "role_ids": [
            "RO166"
        ],
        "status": "Active",
        "post_code": "BD7 2JL",
        "uprn": "Unknown"
    },
    {
        "org_id": "T23C",
        "name": "CROWTHER-OPTOMETRISTS",
        "primary_role_id": "RO166",
        "role_ids": [
            "RO166"
        ],
        "status": "Active",
        "post_code": "OL13 0AJ",
        "uprn": "100012732767"
    },
    {
        "org_id": "T23D",
        "name": "VICTORIA J SMITH OPTICIANS LTD",
        "primary_role_id": "RO166",
        "role_ids": [
            "RO166"
        ],
        "status": "Active",
        "post_code": "S7 2LH",
        "uprn": "100052110020"
    },
    {
        "org_id": "T23G",
        "name": "QUERIDO AND DAVIDSON OPTOMETRISTS",
        "primary_role_id": "RO166",
        "role_ids": [
            "RO166"
        ],
        "status": "Active",
        "post_code": "NE6 5LN",
        "uprn": "Unknown"
    },
    {
        "org_id": "T23H",
        "name": "S H REILY LTD",
        "primary_role_id": "RO166",
        "role_ids": [
            "RO166"
        ],
        "status": "Active",
        "post_code": "TS14 6QD",
        "uprn": "100110777968"
    },
    {
        "org_id": "T23J",
        "name": "FARMILO LIMITED",
        "primary_role_id": "RO166",
        "role_ids": [
            "RO166"
        ],
        "status": "Active",
        "post_code": "LE2 2BE",
        "uprn": "2465093512"
    },
    {
        "org_id": "T23L",
        "name": "EYEWORKS OPTOMETRISTS",
        "primary_role_id": "RO166",
        "role_ids": [
            "RO166"
        ],
        "status": "Active",
        "post_code": "AL1 3YD",
        "uprn": "Unknown"
    },
    {
        "org_id": "T23M",
        "name": "HAREFIELD OPTICIANS",
        "primary_role_id": "RO166",
        "role_ids": [
            "RO166"
        ],
        "status": "Active",
        "post_code": "UB9 6BX",
        "uprn": "100021484278"
    },
    {
        "org_id": "T23P",
        "name": "SKYE OPTOMETRISTS",
        "primary_role_id": "RO166",
        "role_ids": [
            "RO166"
        ],
        "status": "Active",
        "post_code": "AL5 2SH",
        "uprn": "100081155337"
    },
    {
        "org_id": "T23Q",
        "name": "S I OPTICALS",
        "primary_role_id": "RO166",
        "role_ids": [
            "RO166"
        ],
        "status": "Active",
        "post_code": "LE3 2AP",
        "uprn": "2465037062"
    },
    {
        "org_id": "T23R",
        "name": "JOSEPH LORD OPTICIANS",
        "primary_role_id": "RO166",
        "role_ids": [
            "RO166"
        ],
        "status": "Active",
        "post_code": "CO13 9PR",
        "uprn": "100091462534"
    },
    {
        "org_id": "T23W",
        "name": "GRAHAM COE OPTICIANS",
        "primary_role_id": "RO166",
        "role_ids": [
            "RO166"
        ],
        "status": "Active",
        "post_code": "LE13 1AE",
        "uprn": "100032043512"
    },
    {
        "org_id": "T23X",
        "name": "DAVID AUSTEN OPTOMETRISTS",
        "primary_role_id": "RO166",
        "role_ids": [
            "RO166"
        ],
        "status": "Active",
        "post_code": "LE11 1UE",
        "uprn": "10070068029"
    },
    {
        "org_id": "T23Y",
        "name": "20/20 VISION LTD",
        "primary_role_id": "RO166",
        "role_ids": [
            "RO166"
        ],
        "status": "Active",
        "post_code": "SO31 7GE",
        "uprn": "Unknown"
    },
    {
        "org_id": "T240",
        "name": "DAWKINS & LODGE",
        "primary_role_id": "RO166",
        "role_ids": [
            "RO166"
        ],
        "status": "Active",
        "post_code": "BB3 1AE",
        "uprn": "200004504036"
    },
    {
        "org_id": "T241",
        "name": "MAYER & MAYER OPTOMETRISTS LTD",
        "primary_role_id": "RO166",
        "role_ids": [
            "RO166"
        ],
        "status": "Active",
        "post_code": "PR9 9AB",
        "uprn": "41036023"
    },
    {
        "org_id": "T242",
        "name": "NORWOOD & PERRIN LTD",
        "primary_role_id": "RO166",
        "role_ids": [
            "RO166"
        ],
        "status": "Active",
        "post_code": "S70 2JP",
        "uprn": "Unknown"
    },
    {
        "org_id": "T244",
        "name": "LINDFIELD EYECARE LTD",
        "primary_role_id": "RO166",
        "role_ids": [
            "RO166"
        ],
        "status": "Active",
        "post_code": "RH16 2HN",
        "uprn": "100062484973"
    },
    {
        "org_id": "T246",
        "name": "MICHAEL JAMES OPTICIANS",
        "primary_role_id": "RO166",
        "role_ids": [
            "RO166"
        ],
        "status": "Active",
        "post_code": "DN14 5DA",
        "uprn": "100052179965"
    },
    {
        "org_id": "T247",
        "name": "MATTHEW HORROCKS LTD",
        "primary_role_id": "RO166",
        "role_ids": [
            "RO166"
        ],
        "status": "Active",
        "post_code": "YO43 4TZ",
        "uprn": "Unknown"
    },
    {
        "org_id": "T249",
        "name": "BURROWS & SUNAWAY OPTICIANS",
        "primary_role_id": "RO166",
        "role_ids": [
            "RO166"
        ],
        "status": "Active",
        "post_code": "IP12 1AQ",
        "uprn": "Unknown"
    },
    {
        "org_id": "T24C",
        "name": "DRAYTON EYE CENTRE LTD",
        "primary_role_id": "RO166",
        "role_ids": [
            "RO166"
        ],
        "status": "Active",
        "post_code": "TF9 1QF",
        "uprn": "Unknown"
    },
    {
        "org_id": "T24E",
        "name": "BLAYLOCKS OF WADEBRIDGE OPTOMETRISTS",
        "primary_role_id": "RO166",
        "role_ids": [
            "RO166"
        ],
        "status": "Active",
        "post_code": "PL27 7AL",
        "uprn": "Unknown"
    },
    {
        "org_id": "T24F",
        "name": "KASMANI EYECARE LTD",
        "primary_role_id": "RO166",
        "role_ids": [
            "RO166"
        ],
        "status": "Active",
        "post_code": "TW14 9BP",
        "uprn": "100023400963"
    },
    {
        "org_id": "T24H",
        "name": "PAXTON & WELHAM LTD",
        "primary_role_id": "RO166",
        "role_ids": [
            "RO166"
        ],
        "status": "Active",
        "post_code": "GU29 9BY",
        "uprn": "Unknown"
    },
    {
        "org_id": "T24K",
        "name": "T J AMEY OPTICIANS",
        "primary_role_id": "RO166",
        "role_ids": [
            "RO166"
        ],
        "status": "Active",
        "post_code": "TN8 5BD",
        "uprn": "100062592841"
    },
    {
        "org_id": "T24L",
        "name": "WILLIAM J WILKINSON LTD OPTICIANS",
        "primary_role_id": "RO166",
        "role_ids": [
            "RO166"
        ],
        "status": "Active",
        "post_code": "TN13 1UX",
        "uprn": "Unknown"
    },
    {
        "org_id": "T24M",
        "name": "SIMS OPTICIANS",
        "primary_role_id": "RO166",
        "role_ids": [
            "RO166"
        ],
        "status": "Active",
        "post_code": "TW11 0HE",
        "uprn": "100022327012"
    },
    {
        "org_id": "T24P",
        "name": "AK OPTICAL LTD",
        "primary_role_id": "RO166",
        "role_ids": [
            "RO166"
        ],
        "status": "Active",
        "post_code": "TN18 4EY",
        "uprn": "Unknown"
    },
    {
        "org_id": "T24Q",
        "name": "CHANDLERS OPTICIANS LTD",
        "primary_role_id": "RO166",
        "role_ids": [
            "RO166"
        ],
        "status": "Active",
        "post_code": "GU7 1DY",
        "uprn": "100062351472"
    },
    {
        "org_id": "T24T",
        "name": "MCATEER'S OPTICIANS",
        "primary_role_id": "RO166",
        "role_ids": [
            "RO166"
        ],
        "status": "Active",
        "post_code": "TW17 9AW",
        "uprn": "33036983"
    },
    {
        "org_id": "T24W",
        "name": "CLAIRE REED OPTICIANS",
        "primary_role_id": "RO166",
        "role_ids": [
            "RO166"
        ],
        "status": "Active",
        "post_code": "TN31 6LB",
        "uprn": "Unknown"
    },
    {
        "org_id": "T24X",
        "name": "PHILIP JONES OPTICIANS LTD",
        "primary_role_id": "RO166",
        "role_ids": [
            "RO166"
        ],
        "status": "Active",
        "post_code": "LA5 9JX",
        "uprn": "100010456620"
    },
    {
        "org_id": "T24Y",
        "name": "HEYES OPTICIANS LTD",
        "primary_role_id": "RO166",
        "role_ids": [
            "RO166"
        ],
        "status": "Active",
        "post_code": "L40 4BY",
        "uprn": "100012657068"
    },
    {
        "org_id": "T252",
        "name": "R & T OPTICIANS",
        "primary_role_id": "RO166",
        "role_ids": [
            "RO166"
        ],
        "status": "Active",
        "post_code": "PE21 6EU",
        "uprn": "100032165176"
    },
    {
        "org_id": "T254",
        "name": "JOHN & DIANE MILLER OPTOMETRISTS",
        "primary_role_id": "RO166",
        "role_ids": [
            "RO166"
        ],
        "status": "Active",
        "post_code": "WR14 2AZ",
        "uprn": "Unknown"
    },
    {
        "org_id": "T255",
        "name": "MARK JONES EYE CARE",
        "primary_role_id": "RO166",
        "role_ids": [
            "RO166"
        ],
        "status": "Active",
        "post_code": "SP2 7SU",
        "uprn": "100121332734"
    },
    {
        "org_id": "T256",
        "name": "HEATH OPTOMETRIC LIMITED",
        "primary_role_id": "RO166",
        "role_ids": [
            "RO166"
        ],
        "status": "Active",
        "post_code": "BB3 1AE",
        "uprn": "Unknown"
    },
    {
        "org_id": "T257",
        "name": "DAVIS & SAMUELS LTD",
        "primary_role_id": "RO166",
        "role_ids": [
            "RO166"
        ],
        "status": "Active",
        "post_code": "WS1 1DA",
        "uprn": "100071545883"
    },
    {
        "org_id": "T25D",
        "name": "DAVID ARTHUR & PARTNER",
        "primary_role_id": "RO166",
        "role_ids": [
            "RO166"
        ],
        "status": "Active",
        "post_code": "WS13 6JX",
        "uprn": "100032225262"
    },
    {
        "org_id": "T25E",
        "name": "TREVOR PHILLIPS OPTICIANS LTD",
        "primary_role_id": "RO166",
        "role_ids": [
            "RO166"
        ],
        "status": "Active",
        "post_code": "WV16 4EG",
        "uprn": "100071363740"
    },
    {
        "org_id": "T25G",
        "name": "DAVID SPICER OPTICIANS",
        "primary_role_id": "RO166",
        "role_ids": [
            "RO166"
        ],
        "status": "Active",
        "post_code": "OX2 9LG",
        "uprn": "100121313772"
    },
    {
        "org_id": "T25H",
        "name": "E G E HALL OPTICIANS LTD",
        "primary_role_id": "RO166",
        "role_ids": [
            "RO166"
        ],
        "status": "Active",
        "post_code": "TS10 3AN",
        "uprn": "Unknown"
    },
    {
        "org_id": "T25J",
        "name": "HAXBY OPTICIANS",
        "primary_role_id": "RO166",
        "role_ids": [
            "RO166"
        ],
        "status": "Active",
        "post_code": "BB3 1AE",
        "uprn": "10024625891"
    },
    {
        "org_id": "T25L",
        "name": "ANTHONY KLINEBERG OPTICIANS",
        "primary_role_id": "RO166",
        "role_ids": [
            "RO166"
        ],
        "status": "Active",
        "post_code": "WF3 2EY",
        "uprn": "72361068"
    },
    {
        "org_id": "T25P",
        "name": "WERRINGTON OPTICIANS",
        "primary_role_id": "RO166",
        "role_ids": [
            "RO166"
        ],
        "status": "Active",
        "post_code": "PE4 6QF",
        "uprn": "10008073183"
    },
    {
        "org_id": "T25T",
        "name": "PORTSEA ISLAND EYECARE",
        "primary_role_id": "RO166",
        "role_ids": [
            "RO166"
        ],
        "status": "Active",
        "post_code": "PO2 9DQ",
        "uprn": "1775049471"
    },
    {
        "org_id": "T25V",
        "name": "K FRANK OPTICIANS",
        "primary_role_id": "RO166",
        "role_ids": [
            "RO166"
        ],
        "status": "Active",
        "post_code": "SK1 4JG",
        "uprn": "Unknown"
    },
    {
        "org_id": "T25W",
        "name": "JENKS & BURGESS OPTICIANS",
        "primary_role_id": "RO166",
        "role_ids": [
            "RO166"
        ],
        "status": "Active",
        "post_code": "SK23 7LP",
        "uprn": "10010747920"
    },
    {
        "org_id": "T260",
        "name": "THOMAS CARTER OPTICIANS",
        "primary_role_id": "RO166",
        "role_ids": [
            "RO166"
        ],
        "status": "Active",
        "post_code": "M41 9JN",
        "uprn": "100012711669"
    },
    {
        "org_id": "T263",
        "name": "D J MORRIS OPTOMETRIST",
        "primary_role_id": "RO166",
        "role_ids": [
            "RO166"
        ],
        "status": "Active",
        "post_code": "SR1 3PT",
        "uprn": "45061272"
    },
    {
        "org_id": "T264",
        "name": "STEWART EYECARE",
        "primary_role_id": "RO166",
        "role_ids": [
            "RO166"
        ],
        "status": "Active",
        "post_code": "NE16 4JL",
        "uprn": "100000530840"
    },
    {
        "org_id": "T265",
        "name": "BINGHAM & WILSON OPTICIANS",
        "primary_role_id": "RO166",
        "role_ids": [
            "RO166"
        ],
        "status": "Active",
        "post_code": "YO8 4AL",
        "uprn": "100052176170"
    },
    {
        "org_id": "T266",
        "name": "JOHN TOMLINSON MOBILE OPTICIAN",
        "primary_role_id": "RO166",
        "role_ids": [
            "RO166"
        ],
        "status": "Active",
        "post_code": "YO43 4SE",
        "uprn": "Unknown"
    },
    {
        "org_id": "T26D",
        "name": "WHITEHOUSE AND SONS OPTICIANS",
        "primary_role_id": "RO166",
        "role_ids": [
            "RO166"
        ],
        "status": "Active",
        "post_code": "CV11 4EZ",
        "uprn": "Unknown"
    },
    {
        "org_id": "T26E",
        "name": "CROWN EYE GLASS",
        "primary_role_id": "RO166",
        "role_ids": [
            "RO166"
        ],
        "status": "Active",
        "post_code": "BB1 5QH",
        "uprn": "Unknown"
    },
    {
        "org_id": "T26G",
        "name": "NICKLIN OPTICIANS",
        "primary_role_id": "RO166",
        "role_ids": [
            "RO166"
        ],
        "status": "Active",
        "post_code": "GU1 3JB",
        "uprn": "Unknown"
    },
    {
        "org_id": "T26H",
        "name": "VALERIE CURTIS OPTICIANS",
        "primary_role_id": "RO166",
        "role_ids": [
            "RO166"
        ],
        "status": "Active",
        "post_code": "MK42 8BH",
        "uprn": "100080002487"
    },
    {
        "org_id": "T26M",
        "name": "MCBRIDE OPTICIANS",
        "primary_role_id": "RO166",
        "role_ids": [
            "RO166"
        ],
        "status": "Active",
        "post_code": "DL7 8SE",
        "uprn": "100051958696"
    },
    {
        "org_id": "T26N",
        "name": "CHARRINGTON,CROSS,LIVERSIDGE & PARTNERS",
        "primary_role_id": "RO166",
        "role_ids": [
            "RO166"
        ],
        "status": "Active",
        "post_code": "AL4 9RB",
        "uprn": "100081154975"
    },
    {
        "org_id": "T26P",
        "name": "SEAHAM OPTICAL LTD",
        "primary_role_id": "RO166",
        "role_ids": [
            "RO166"
        ],
        "status": "Active",
        "post_code": "SR7 7EL",
        "uprn": "100110771488"
    },
    {
        "org_id": "T26V",
        "name": "WATTS AND ATTEWELL LIMITED",
        "primary_role_id": "RO166",
        "role_ids": [
            "RO166"
        ],
        "status": "Active",
        "post_code": "WS10 8DE",
        "uprn": "100071371901"
    },
    {
        "org_id": "T27P",
        "name": "MARTOCK OPTICIAN",
        "primary_role_id": "RO166",
        "role_ids": [
            "RO166"
        ],
        "status": "Active",
        "post_code": "TA12 6DH",
        "uprn": "Unknown"
    },
    {
        "org_id": "T27T",
        "name": "ELAINE M YORWARTH OPTOMETRIST",
        "primary_role_id": "RO166",
        "role_ids": [
            "RO166"
        ],
        "status": "Active",
        "post_code": "TN12 6DP",
        "uprn": "100062545283"
    },
    {
        "org_id": "T27W",
        "name": "SUZANNE FLOYD OPTOMETRIST",
        "primary_role_id": "RO166",
        "role_ids": [
            "RO166"
        ],
        "status": "Active",
        "post_code": "SY7 9PB",
        "uprn": "Unknown"
    },
    {
        "org_id": "T27Y",
        "name": "FOCUS OPTICS",
        "primary_role_id": "RO166",
        "role_ids": [
            "RO166"
        ],
        "status": "Active",
        "post_code": "M35 0AD",
        "uprn": "Unknown"
    },
    {
        "org_id": "T281",
        "name": "MCAUSLAND OPTOMETRISTS",
        "primary_role_id": "RO166",
        "role_ids": [
            "RO166"
        ],
        "status": "Active",
        "post_code": "EX8 1DL",
        "uprn": "100041042924"
    },
    {
        "org_id": "T285",
        "name": "R T BOOTH & CO LTD",
        "primary_role_id": "RO166",
        "role_ids": [
            "RO166"
        ],
        "status": "Active",
        "post_code": "CH42 8PF",
        "uprn": "42127485"
    },
    {
        "org_id": "T286",
        "name": "BLACKHAM OPTICIANS",
        "primary_role_id": "RO166",
        "role_ids": [
            "RO166"
        ],
        "status": "Active",
        "post_code": "CV21 2SD",
        "uprn": "100071499545"
    },
    {
        "org_id": "T287",
        "name": "ROBERT HILL OPTICIANS",
        "primary_role_id": "RO166",
        "role_ids": [
            "RO166"
        ],
        "status": "Active",
        "post_code": "DY9 8JX",
        "uprn": "90123170"
    },
    {
        "org_id": "T28V",
        "name": "J S EDMUNDS OPTICIANS",
        "primary_role_id": "RO166",
        "role_ids": [
            "RO166"
        ],
        "status": "Active",
        "post_code": "DY5 3AH",
        "uprn": "Unknown"
    },
    {
        "org_id": "T28W",
        "name": "SHORE SIGHT OPTICIANS",
        "primary_role_id": "RO166",
        "role_ids": [
            "RO166"
        ],
        "status": "Active",
        "post_code": "EX33 1AG",
        "uprn": "Unknown"
    },
    {
        "org_id": "T28X",
        "name": "DUIGNAN PHELPS OPTOMETRISTS",
        "primary_role_id": "RO166",
        "role_ids": [
            "RO166"
        ],
        "status": "Active",
        "post_code": "TF10 7AB",
        "uprn": "Unknown"
    },
    {
        "org_id": "T28Y",
        "name": "S NISSIM OPTICIAN",
        "primary_role_id": "RO166",
        "role_ids": [
            "RO166"
        ],
        "status": "Active",
        "post_code": "L36 2NR",
        "uprn": "Unknown"
    },
    {
        "org_id": "T291",
        "name": "OUTSIDE CLINIC LTD",
        "primary_role_id": "RO166",
        "role_ids": [
            "RO166"
        ],
        "status": "Active",
        "post_code": "SN3 4TN",
        "uprn": "200002925105"
    },
    {
        "org_id": "T294",
        "name": "CAROLYN PARKER OPTOMETRIST",
        "primary_role_id": "RO166",
        "role_ids": [
            "RO166"
        ],
        "status": "Active",
        "post_code": "ST19 5AA",
        "uprn": "200004522795"
    },
    {
        "org_id": "T295",
        "name": "EYE DEAL",
        "primary_role_id": "RO166",
        "role_ids": [
            "RO166"
        ],
        "status": "Active",
        "post_code": "B70 7NN",
        "uprn": "Unknown"
    },
    {
        "org_id": "T296",
        "name": "MOON & COXHILL LTD",
        "primary_role_id": "RO166",
        "role_ids": [
            "RO166"
        ],
        "status": "Active",
        "post_code": "LA4 6LY",
        "uprn": "100010489159"
    },
    {
        "org_id": "T297",
        "name": "PRAILLS OPTICIANS",
        "primary_role_id": "RO166",
        "role_ids": [
            "RO166"
        ],
        "status": "Active",
        "post_code": "PO16 0EN",
        "uprn": "Unknown"
    },
    {
        "org_id": "T298",
        "name": "HAZEL SMITH OPTICIANS",
        "primary_role_id": "RO166",
        "role_ids": [
            "RO166"
        ],
        "status": "Active",
        "post_code": "PO37 6JZ",
        "uprn": "Unknown"
    },
    {
        "org_id": "T2AD",
        "name": "PATRICK DUFF OPTICIANS",
        "primary_role_id": "RO166",
        "role_ids": [
            "RO166"
        ],
        "status": "Active",
        "post_code": "ME8 7HS",
        "uprn": "Unknown"
    },
    {
        "org_id": "T26W",
        "name": "T W A SCHOENHERR",
        "primary_role_id": "RO166",
        "role_ids": [
            "RO166"
        ],
        "status": "Active",
        "post_code": "NR31 6QT",
        "uprn": "10023462839"
    },
    {
        "org_id": "T26X",
        "name": "THE SPECS FACTORY",
        "primary_role_id": "RO166",
        "role_ids": [
            "RO166"
        ],
        "status": "Active",
        "post_code": "NR1 2EN",
        "uprn": "100091541751"
    },
    {
        "org_id": "T270",
        "name": "EYE-D",
        "primary_role_id": "RO166",
        "role_ids": [
            "RO166"
        ],
        "status": "Active",
        "post_code": "PE30 4PR",
        "uprn": "Unknown"
    },
    {
        "org_id": "T271",
        "name": "D R GREY LTD",
        "primary_role_id": "RO166",
        "role_ids": [
            "RO166"
        ],
        "status": "Active",
        "post_code": "NR3 1HR",
        "uprn": "Unknown"
    },
    {
        "org_id": "T272",
        "name": "LAURENCE MARTIN OPTICIANS LTD",
        "primary_role_id": "RO166",
        "role_ids": [
            "RO166"
        ],
        "status": "Active",
        "post_code": "RH7 6DN",
        "uprn": "100062498046"
    },
    {
        "org_id": "T273",
        "name": "THE OCULIST",
        "primary_role_id": "RO166",
        "role_ids": [
            "RO166"
        ],
        "status": "Active",
        "post_code": "PE1 1PY",
        "uprn": "Unknown"
    },
    {
        "org_id": "T274",
        "name": "ROYLES OPTICIANS LTD",
        "primary_role_id": "RO166",
        "role_ids": [
            "RO166"
        ],
        "status": "Active",
        "post_code": "ST3 2NS",
        "uprn": "3455112035"
    },
    {
        "org_id": "T275",
        "name": "EYECATCHERS OPTICIANS",
        "primary_role_id": "RO166",
        "role_ids": [
            "RO166"
        ],
        "status": "Active",
        "post_code": "NG1 7FF",
        "uprn": "Unknown"
    },
    {
        "org_id": "T276",
        "name": "COOK OPTICIANS",
        "primary_role_id": "RO166",
        "role_ids": [
            "RO166"
        ],
        "status": "Active",
        "post_code": "B34 7HR",
        "uprn": "Unknown"
    },
    {
        "org_id": "T277",
        "name": "D I BLOW OPTICIANS",
        "primary_role_id": "RO166",
        "role_ids": [
            "RO166"
        ],
        "status": "Active",
        "post_code": "DE55 7DP",
        "uprn": "100032237977"
    },
    {
        "org_id": "T278",
        "name": "VINCENT ROBERTS OPTOMETRISTS",
        "primary_role_id": "RO166",
        "role_ids": [
            "RO166"
        ],
        "status": "Active",
        "post_code": "B14 6EP",
        "uprn": "Unknown"
    },
    {
        "org_id": "T279",
        "name": "PITMAN OPTOMETRISTS LTD",
        "primary_role_id": "RO166",
        "role_ids": [
            "RO166"
        ],
        "status": "Active",
        "post_code": "OX28 6AG",
        "uprn": "100121319829"
    },
    {
        "org_id": "T27D",
        "name": "SPEX OPTICIANS",
        "primary_role_id": "RO166",
        "role_ids": [
            "RO166"
        ],
        "status": "Active",
        "post_code": "TQ5 8ER",
        "uprn": "10002985005"
    },
    {
        "org_id": "T27E",
        "name": "TROMANS FAMILY EYECARE",
        "primary_role_id": "RO166",
        "role_ids": [
            "RO166"
        ],
        "status": "Active",
        "post_code": "WR14 1AA",
        "uprn": "100121385897"
    },
    {
        "org_id": "T27F",
        "name": "RICHARD STOKES OPTOMETRISTS",
        "primary_role_id": "RO166",
        "role_ids": [
            "RO166"
        ],
        "status": "Active",
        "post_code": "AL1 1NG",
        "uprn": "100081149654"
    },
    {
        "org_id": "T27G",
        "name": "EYES RIGHT",
        "primary_role_id": "RO166",
        "role_ids": [
            "RO166"
        ],
        "status": "Active",
        "post_code": "NG16 2PB",
        "uprn": "100032101437"
    },
    {
        "org_id": "T27H",
        "name": "C R ELEY",
        "primary_role_id": "RO166",
        "role_ids": [
            "RO166"
        ],
        "status": "Active",
        "post_code": "DE22 2QN",
        "uprn": "Unknown"
    },
    {
        "org_id": "T27J",
        "name": "URI PATEL OPTOMETRIST",
        "primary_role_id": "RO166",
        "role_ids": [
            "RO166"
        ],
        "status": "Active",
        "post_code": "DE56 1PZ",
        "uprn": "100032020697"
    },
    {
        "org_id": "T27L",
        "name": "JOHN GOATMAN LIMITED",
        "primary_role_id": "RO166",
        "role_ids": [
            "RO166"
        ],
        "status": "Active",
        "post_code": "BB3 1AE",
        "uprn": "10024625891"
    },
    {
        "org_id": "T27N",
        "name": "PETER J SMITH OPTOMETRIST",
        "primary_role_id": "RO166",
        "role_ids": [
            "RO166"
        ],
        "status": "Active",
        "post_code": "WR10 1BG",
        "uprn": "100121277181"
    },
    {
        "org_id": "T2AF",
        "name": "EYE STYLE OPTICIANS",
        "primary_role_id": "RO166",
        "role_ids": [
            "RO166"
        ],
        "status": "Active",
        "post_code": "CH46 6AF",
        "uprn": "42058937"
    },
    {
        "org_id": "T2AH",
        "name": "ADRIAN BUIZER OPTOMERIST",
        "primary_role_id": "RO166",
        "role_ids": [
            "RO166"
        ],
        "status": "Active",
        "post_code": "CO15 5UW",
        "uprn": "100091465110"
    },
    {
        "org_id": "T2AJ",
        "name": "SMITH'S OPTICIANS LTD",
        "primary_role_id": "RO166",
        "role_ids": [
            "RO166"
        ],
        "status": "Active",
        "post_code": "M30 9LF",
        "uprn": "100012698623"
    },
    {
        "org_id": "T2AK",
        "name": "RICHARD HOYLAND OPTICIANS",
        "primary_role_id": "RO166",
        "role_ids": [
            "RO166"
        ],
        "status": "Active",
        "post_code": "TQ9 5ST",
        "uprn": "Unknown"
    },
    {
        "org_id": "T2AM",
        "name": "DART OPTICAL",
        "primary_role_id": "RO166",
        "role_ids": [
            "RO166"
        ],
        "status": "Active",
        "post_code": "TQ6 9AN",
        "uprn": "100041040355"
    },
    {
        "org_id": "T2AN",
        "name": "ANGUS MCPHIE OPTOMETRISTS LTD",
        "primary_role_id": "RO166",
        "role_ids": [
            "RO166"
        ],
        "status": "Active",
        "post_code": "PL19 0DA",
        "uprn": "100041039876"
    },
    {
        "org_id": "T2AR",
        "name": "EYE OPTIONS",
        "primary_role_id": "RO166",
        "role_ids": [
            "RO166"
        ],
        "status": "Active",
        "post_code": "SM4 6JS",
        "uprn": "Unknown"
    },
    {
        "org_id": "T2AT",
        "name": "DARRYL TAYLOR OPTOMETRIST",
        "primary_role_id": "RO166",
        "role_ids": [
            "RO166"
        ],
        "status": "Active",
        "post_code": "HG5 0EA",
        "uprn": "100052010619"
    },
    {
        "org_id": "T2AV",
        "name": "THE LACEY PRACTICE",
        "primary_role_id": "RO166",
        "role_ids": [
            "RO166"
        ],
        "status": "Active",
        "post_code": "BH4 9AE",
        "uprn": "100041060010"
    },
    {
        "org_id": "T2AX",
        "name": "G K GIBSON",
        "primary_role_id": "RO166",
        "role_ids": [
            "RO166"
        ],
        "status": "Active",
        "post_code": "TS25 1RW",
        "uprn": "100110785557"
    },
    {
        "org_id": "T2AY",
        "name": "SHEINMAN OPTICIANS",
        "primary_role_id": "RO166",
        "role_ids": [
            "RO166"
        ],
        "status": "Active",
        "post_code": "NN1 2BP",
        "uprn": "Unknown"
    },
    {
        "org_id": "T2C0",
        "name": "ROBIN JAMES OPTICIANS",
        "primary_role_id": "RO166",
        "role_ids": [
            "RO166"
        ],
        "status": "Active",
        "post_code": "RG4 8AU",
        "uprn": "310051105"
    },
    {
        "org_id": "T2C1",
        "name": "M E COOK OPTICIANS",
        "primary_role_id": "RO166",
        "role_ids": [
            "RO166"
        ],
        "status": "Active",
        "post_code": "WA6 6PW",
        "uprn": "Unknown"
    },
    {
        "org_id": "T2C4",
        "name": "R F SPOONER OPTICIANS LTD",
        "primary_role_id": "RO166",
        "role_ids": [
            "RO166"
        ],
        "status": "Active",
        "post_code": "BS31 1EB",
        "uprn": "Unknown"
    },
    {
        "org_id": "T2C6",
        "name": "ANDREW PINN OPTOMETRIST",
        "primary_role_id": "RO166",
        "role_ids": [
            "RO166"
        ],
        "status": "Active",
        "post_code": "BS11 0DP",
        "uprn": "28324"
    },
    {
        "org_id": "T2C7",
        "name": "CUNNINGHAMS OPTICIANS LTD",
        "primary_role_id": "RO166",
        "role_ids": [
            "RO166"
        ],
        "status": "Active",
        "post_code": "SK1 1RW",
        "uprn": "Unknown"
    },
    {
        "org_id": "T2C8",
        "name": "KEITH BROWN OPTICIAN",
        "primary_role_id": "RO166",
        "role_ids": [
            "RO166"
        ],
        "status": "Active",
        "post_code": "TN18 4AX",
        "uprn": "100061187966"
    },
    {
        "org_id": "T2C9",
        "name": "MIRACLE EYES OPTICIANS",
        "primary_role_id": "RO166",
        "role_ids": [
            "RO166"
        ],
        "status": "Active",
        "post_code": "WV10 6RT",
        "uprn": "Unknown"
    },
    {
        "org_id": "T2CC",
        "name": "EYE SOCIETY CORP LTD",
        "primary_role_id": "RO166",
        "role_ids": [
            "RO166"
        ],
        "status": "Active",
        "post_code": "B79 7HA",
        "uprn": "394031067"
    },
    {
        "org_id": "T2CE",
        "name": "STEPHEN BESWETHERICK OPTICIANS",
        "primary_role_id": "RO166",
        "role_ids": [
            "RO166"
        ],
        "status": "Active",
        "post_code": "TA20 2AL",
        "uprn": "30500257"
    },
    {
        "org_id": "T2CP",
        "name": "DR MARK HURST OPTOMETRIST LTD",
        "primary_role_id": "RO166",
        "role_ids": [
            "RO166"
        ],
        "status": "Active",
        "post_code": "HX2 8AL",
        "uprn": "100052040020"
    },
    {
        "org_id": "T2CV",
        "name": "BERRY OPTICIANS",
        "primary_role_id": "RO166",
        "role_ids": [
            "RO166"
        ],
        "status": "Active",
        "post_code": "SK11 6DP",
        "uprn": "100012772950"
    },
    {
        "org_id": "T2CW",
        "name": "C A RAISON OPTICA LTD",
        "primary_role_id": "RO166",
        "role_ids": [
            "RO166"
        ],
        "status": "Active",
        "post_code": "BB3 1AE",
        "uprn": "10024625891"
    },
    {
        "org_id": "T2D0",
        "name": "IAN VAN HOOF OPTICIANS",
        "primary_role_id": "RO166",
        "role_ids": [
            "RO166"
        ],
        "status": "Active",
        "post_code": "S26 4TT",
        "uprn": "100052091929"
    },
    {
        "org_id": "T2D2",
        "name": "EVEAL COMPANY LIMITED",
        "primary_role_id": "RO166",
        "role_ids": [
            "RO166"
        ],
        "status": "Active",
        "post_code": "WA5 2EY",
        "uprn": "Unknown"
    },
    {
        "org_id": "T2D4",
        "name": "RICHARD C ARNOLD OPTOMETRISTS",
        "primary_role_id": "RO166",
        "role_ids": [
            "RO166"
        ],
        "status": "Active",
        "post_code": "GU32 3JU",
        "uprn": "Unknown"
    },
    {
        "org_id": "T2D5",
        "name": "ROUSE OPTICIANS",
        "primary_role_id": "RO166",
        "role_ids": [
            "RO166"
        ],
        "status": "Active",
        "post_code": "HU5 2AA",
        "uprn": "21112776"
    },
    {
        "org_id": "T2D6",
        "name": "POPLE & BROAD OPTICIANS",
        "primary_role_id": "RO166",
        "role_ids": [
            "RO166"
        ],
        "status": "Active",
        "post_code": "BB3 1AE",
        "uprn": "Unknown"
    },
    {
        "org_id": "T2D7",
        "name": "ACHKEY LTD",
        "primary_role_id": "RO166",
        "role_ids": [
            "RO166"
        ],
        "status": "Active",
        "post_code": "TN9 2NB",
        "uprn": "100062594201"
    },
    {
        "org_id": "T2D9",
        "name": "CAMPBELL & MCDEARMID OPTOMETRISTS",
        "primary_role_id": "RO166",
        "role_ids": [
            "RO166"
        ],
        "status": "Active",
        "post_code": "TS10 1AG",
        "uprn": "100110775616"
    },
    {
        "org_id": "T2DA",
        "name": "EYECARE HESTON LTD",
        "primary_role_id": "RO166",
        "role_ids": [
            "RO166"
        ],
        "status": "Active",
        "post_code": "TW5 0DR",
        "uprn": "100023405397"
    },
    {
        "org_id": "T2DD",
        "name": "D C GAUDEN OPHTHALMIC OPTICIAN",
        "primary_role_id": "RO166",
        "role_ids": [
            "RO166"
        ],
        "status": "Active",
        "post_code": "NG20 8AQ",
        "uprn": "100032111083"
    },
    {
        "org_id": "T2DE",
        "name": "J W GRUNDY OPTOMETRISTS",
        "primary_role_id": "RO166",
        "role_ids": [
            "RO166"
        ],
        "status": "Active",
        "post_code": "DH6 4DF",
        "uprn": "Unknown"
    },
    {
        "org_id": "T2DF",
        "name": "B BRAYSHER OPTOMETRISTS",
        "primary_role_id": "RO166",
        "role_ids": [
            "RO166"
        ],
        "status": "Active",
        "post_code": "NE21 5BT",
        "uprn": "Unknown"
    },
    {
        "org_id": "T2DJ",
        "name": "ENDERBYS OF BOSTON",
        "primary_role_id": "RO166",
        "role_ids": [
            "RO166"
        ],
        "status": "Active",
        "post_code": "PE21 6SE",
        "uprn": "100032164883"
    },
    {
        "org_id": "T2DL",
        "name": "BBR OPTICIANS",
        "primary_role_id": "RO166",
        "role_ids": [
            "RO166"
        ],
        "status": "Active",
        "post_code": "SY11 2NN",
        "uprn": "10007019659"
    },
    {
        "org_id": "T2DP",
        "name": "GREYS OPTICIANS (COTSWOLDS) LTD",
        "primary_role_id": "RO166",
        "role_ids": [
            "RO166"
        ],
        "status": "Active",
        "post_code": "CV37 6EP",
        "uprn": "100071361601"
    },
    {
        "org_id": "T2DQ",
        "name": "SOLANKI OPTOMETRIST",
        "primary_role_id": "RO166",
        "role_ids": [
            "RO166"
        ],
        "status": "Active",
        "post_code": "PE29 3NF",
        "uprn": "100091521310"
    },
    {
        "org_id": "T2DT",
        "name": "STEPHEN HING OPTICIANS",
        "primary_role_id": "RO166",
        "role_ids": [
            "RO166"
        ],
        "status": "Active",
        "post_code": "SG17 5AE",
        "uprn": "Unknown"
    },
    {
        "org_id": "T2DV",
        "name": "MARTIN J RIVETT",
        "primary_role_id": "RO166",
        "role_ids": [
            "RO166"
        ],
        "status": "Active",
        "post_code": "NR33 0BB",
        "uprn": "Unknown"
    },
    {
        "org_id": "T2DW",
        "name": "J AND J WADE",
        "primary_role_id": "RO166",
        "role_ids": [
            "RO166"
        ],
        "status": "Active",
        "post_code": "CB7 4JU",
        "uprn": "10002584848"
    },
    {
        "org_id": "T2E1",
        "name": "W J KEPETZIS OPTOMETRISTS",
        "primary_role_id": "RO166",
        "role_ids": [
            "RO166"
        ],
        "status": "Active",
        "post_code": "HP15 7BS",
        "uprn": "100080532951"
    },
    {
        "org_id": "T2E3",
        "name": "PARKER OPTOMETRISTS",
        "primary_role_id": "RO166",
        "role_ids": [
            "RO166"
        ],
        "status": "Active",
        "post_code": "PE38 9JZ",
        "uprn": "10000022532"
    },
    {
        "org_id": "T2E5",
        "name": "SPECTRUM EYECARE LTD",
        "primary_role_id": "RO166",
        "role_ids": [
            "RO166"
        ],
        "status": "Active",
        "post_code": "BN7 2AH",
        "uprn": "Unknown"
    },
    {
        "org_id": "T2E7",
        "name": "SPECTIQUE",
        "primary_role_id": "RO166",
        "role_ids": [
            "RO166"
        ],
        "status": "Active",
        "post_code": "RH2 9AY",
        "uprn": "100062491833"
    },
    {
        "org_id": "T2EC",
        "name": "NICOLA PEAPERS LTD",
        "primary_role_id": "RO166",
        "role_ids": [
            "RO166"
        ],
        "status": "Active",
        "post_code": "LE65 1AF",
        "uprn": "100032066860"
    },
    {
        "org_id": "T2ED",
        "name": "DONNER OPTOMETRISTS",
        "primary_role_id": "RO166",
        "role_ids": [
            "RO166"
        ],
        "status": "Active",
        "post_code": "KT23 3PD",
        "uprn": "100062369864"
    },
    {
        "org_id": "T2EE",
        "name": "FANTASEYES OPTICIANS",
        "primary_role_id": "RO166",
        "role_ids": [
            "RO166"
        ],
        "status": "Active",
        "post_code": "TW8 8JA",
        "uprn": "Unknown"
    },
    {
        "org_id": "T2EF",
        "name": "SPECTACLE WAREHOUSE",
        "primary_role_id": "RO166",
        "role_ids": [
            "RO166"
        ],
        "status": "Active",
        "post_code": "DL7 8PP",
        "uprn": "100051959039"
    },
    {
        "org_id": "T2EG",
        "name": "PAUL RUTTER OPTICIANS LTD",
        "primary_role_id": "RO166",
        "role_ids": [
            "RO166"
        ],
        "status": "Active",
        "post_code": "DL8 2BJ",
        "uprn": "100051959350"
    },
    {
        "org_id": "T2EJ",
        "name": "POTTERS BAR EYE CARE CENTRE",
        "primary_role_id": "RO166",
        "role_ids": [
            "RO166"
        ],
        "status": "Active",
        "post_code": "EN6 2HW",
        "uprn": "Unknown"
    },
    {
        "org_id": "T2EL",
        "name": "LINDSAY OPTICIANS",
        "primary_role_id": "RO166",
        "role_ids": [
            "RO166"
        ],
        "status": "Active",
        "post_code": "TD15 1LF",
        "uprn": "100110773419"
    },
    {
        "org_id": "T2EM",
        "name": "EYE CONTACT LTD",
        "primary_role_id": "RO166",
        "role_ids": [
            "RO166"
        ],
        "status": "Active",
        "post_code": "HU13 0AA",
        "uprn": "Unknown"
    },
    {
        "org_id": "T2EP",
        "name": "G A WHEATCROFT & PARTNERS",
        "primary_role_id": "RO166",
        "role_ids": [
            "RO166"
        ],
        "status": "Active",
        "post_code": "HU3 1AB",
        "uprn": "21113251"
    },
    {
        "org_id": "T2ET",
        "name": "BELL & STENTON LTD",
        "primary_role_id": "RO166",
        "role_ids": [
            "RO166"
        ],
        "status": "Active",
        "post_code": "BS49 4HJ",
        "uprn": "24052461"
    },
    {
        "org_id": "T2EV",
        "name": "LEES & THOMAS OPTOMETRISTS LTD",
        "primary_role_id": "RO166",
        "role_ids": [
            "RO166"
        ],
        "status": "Active",
        "post_code": "B80 7NJ",
        "uprn": "Unknown"
    },
    {
        "org_id": "T2EY",
        "name": "JULIAN MAY OPTICIANS",
        "primary_role_id": "RO166",
        "role_ids": [
            "RO166"
        ],
        "status": "Active",
        "post_code": "BH6 3QX",
        "uprn": "100040767293"
    },
    {
        "org_id": "T2F1",
        "name": "CHRISTINE WEBSTERS OPTICIANS",
        "primary_role_id": "RO166",
        "role_ids": [
            "RO166"
        ],
        "status": "Active",
        "post_code": "BH20 4AF",
        "uprn": "Unknown"
    },
    {
        "org_id": "T2F2",
        "name": "M F & S L MANSFIELD LTD",
        "primary_role_id": "RO166",
        "role_ids": [
            "RO166"
        ],
        "status": "Active",
        "post_code": "NR19 1BX",
        "uprn": "100091551361"
    },
    {
        "org_id": "T2F5",
        "name": "MARTIN STOREY OPTICIANS",
        "primary_role_id": "RO166",
        "role_ids": [
            "RO166"
        ],
        "status": "Active",
        "post_code": "NR34 9AY",
        "uprn": "Unknown"
    },
    {
        "org_id": "T2F8",
        "name": "EARNSHAW AND DALLOW OPTICIANS",
        "primary_role_id": "RO166",
        "role_ids": [
            "RO166"
        ],
        "status": "Active",
        "post_code": "RM15 5DZ",
        "uprn": "100091536834"
    },
    {
        "org_id": "T2F9",
        "name": "DAWSONS OPTICIANS",
        "primary_role_id": "RO166",
        "role_ids": [
            "RO166"
        ],
        "status": "Active",
        "post_code": "RM6 4BE",
        "uprn": "Unknown"
    },
    {
        "org_id": "T2FA",
        "name": "HISTON OPHTHALMIC OPTICIANS",
        "primary_role_id": "RO166",
        "role_ids": [
            "RO166"
        ],
        "status": "Active",
        "post_code": "CB24 9JE",
        "uprn": "Unknown"
    },
    {
        "org_id": "T2FC",
        "name": "PEEBLES & HILTON",
        "primary_role_id": "RO166",
        "role_ids": [
            "RO166"
        ],
        "status": "Active",
        "post_code": "PE21 6PA",
        "uprn": "Unknown"
    },
    {
        "org_id": "T2FE",
        "name": "J T GREGORY OPTICIANS",
        "primary_role_id": "RO166",
        "role_ids": [
            "RO166"
        ],
        "status": "Active",
        "post_code": "CB2 9LS",
        "uprn": "200004160205"
    },
    {
        "org_id": "T2FG",
        "name": "D A SEAMAN OPTOMETRISTS",
        "primary_role_id": "RO166",
        "role_ids": [
            "RO166"
        ],
        "status": "Active",
        "post_code": "PE37 7LQ",
        "uprn": "10011961133"
    },
    {
        "org_id": "T2FH",
        "name": "INDIVIDUAL EYES",
        "primary_role_id": "RO166",
        "role_ids": [
            "RO166"
        ],
        "status": "Active",
        "post_code": "BN12 4PE",
        "uprn": "100062231530"
    },
    {
        "org_id": "T2FJ",
        "name": "PETER MARSON OPTOMETRIST",
        "primary_role_id": "RO166",
        "role_ids": [
            "RO166"
        ],
        "status": "Active",
        "post_code": "BN3 2DJ",
        "uprn": "22170928"
    },
    {
        "org_id": "T2FL",
        "name": "PARK & BROWN OPTOMETRISTS LTD",
        "primary_role_id": "RO166",
        "role_ids": [
            "RO166"
        ],
        "status": "Active",
        "post_code": "RH14 9PF",
        "uprn": "100062481005"
    },
    {
        "org_id": "T2FM",
        "name": "S DAVIDSON OPTICIANS",
        "primary_role_id": "RO166",
        "role_ids": [
            "RO166"
        ],
        "status": "Active",
        "post_code": "SG14 1BN",
        "uprn": "Unknown"
    },
    {
        "org_id": "T2FP",
        "name": "DESIGNER EYES OPTICIANS",
        "primary_role_id": "RO166",
        "role_ids": [
            "RO166"
        ],
        "status": "Active",
        "post_code": "SG14 1RE",
        "uprn": "200002765151"
    },
    {
        "org_id": "T2FQ",
        "name": "HENFIELD EYECARE",
        "primary_role_id": "RO166",
        "role_ids": [
            "RO166"
        ],
        "status": "Active",
        "post_code": "BN5 9DA",
        "uprn": "100062272582"
    },
    {
        "org_id": "T2FR",
        "name": "ROBINSON OPTICIANS",
        "primary_role_id": "RO166",
        "role_ids": [
            "RO166"
        ],
        "status": "Active",
        "post_code": "BN44 3RD",
        "uprn": "100062271679"
    },
    {
        "org_id": "T2FT",
        "name": "MENICON LIMITED",
        "primary_role_id": "RO166",
        "role_ids": [
            "RO166"
        ],
        "status": "Active",
        "post_code": "NN3 8RJ",
        "uprn": "15084825"
    },
    {
        "org_id": "T2FV",
        "name": "AVERNS & SANDALL OPTICIANS",
        "primary_role_id": "RO166",
        "role_ids": [
            "RO166"
        ],
        "status": "Active",
        "post_code": "RH20 4DH",
        "uprn": "200001614675"
    },
    {
        "org_id": "T2FW",
        "name": "JON SAMES OPTICIANS LTD",
        "primary_role_id": "RO166",
        "role_ids": [
            "RO166"
        ],
        "status": "Active",
        "post_code": "RM3 8DT",
        "uprn": "100023216994"
    },
    {
        "org_id": "T2FY",
        "name": "PRAIS OPTICIANS",
        "primary_role_id": "RO166",
        "role_ids": [
            "RO166"
        ],
        "status": "Active",
        "post_code": "M28 1FB",
        "uprn": "Unknown"
    },
    {
        "org_id": "T2G0",
        "name": "ULTRALASE LTD",
        "primary_role_id": "RO166",
        "role_ids": [
            "RO166"
        ],
        "status": "Active",
        "post_code": "LS1 4BJ",
        "uprn": "Unknown"
    },
    {
        "org_id": "T2G1",
        "name": "GENT BROTHERS OPTICIANS",
        "primary_role_id": "RO166",
        "role_ids": [
            "RO166"
        ],
        "status": "Active",
        "post_code": "M40 0JA",
        "uprn": "77038318"
    },
    {
        "org_id": "T2G2",
        "name": "OPENSHAW OPTICAL",
        "primary_role_id": "RO166",
        "role_ids": [
            "RO166"
        ],
        "status": "Active",
        "post_code": "M11 1JS",
        "uprn": "77188664"
    },
    {
        "org_id": "T2G3",
        "name": "R N SHAW LTD",
        "primary_role_id": "RO166",
        "role_ids": [
            "RO166"
        ],
        "status": "Active",
        "post_code": "OL10 1HX",
        "uprn": "23031770"
    },
    {
        "org_id": "T2G4",
        "name": "STANLEY OPTICAL CENTRE LTD",
        "primary_role_id": "RO166",
        "role_ids": [
            "RO166"
        ],
        "status": "Active",
        "post_code": "DH9 0TB",
        "uprn": "100110743568"
    },
    {
        "org_id": "T2G5",
        "name": "SALLY FRENCH-TEELING LTD",
        "primary_role_id": "RO166",
        "role_ids": [
            "RO166"
        ],
        "status": "Active",
        "post_code": "SK8 1DW",
        "uprn": "100012788141"
    },
    {
        "org_id": "T2G6",
        "name": "J N ELLIS OPTICIANS",
        "primary_role_id": "RO166",
        "role_ids": [
            "RO166"
        ],
        "status": "Active",
        "post_code": "SS17 0EX",
        "uprn": "200001063710"
    },
    {
        "org_id": "T2G7",
        "name": "HAMMOND AND DUMMER OPTICIANS",
        "primary_role_id": "RO166",
        "role_ids": [
            "RO166"
        ],
        "status": "Active",
        "post_code": "MK9 2EA",
        "uprn": "Unknown"
    },
    {
        "org_id": "T2G8",
        "name": "SCEATS OPTICIANS",
        "primary_role_id": "RO166",
        "role_ids": [
            "RO166"
        ],
        "status": "Active",
        "post_code": "MK46 5AR",
        "uprn": "Unknown"
    },
    {
        "org_id": "T2GC",
        "name": "CONTACT LENS CLINIC",
        "primary_role_id": "RO166",
        "role_ids": [
            "RO166"
        ],
        "status": "Active",
        "post_code": "MK2 2EH",
        "uprn": "Unknown"
    },
    {
        "org_id": "T2GD",
        "name": "COLE MARTIN & TREGASKIS",
        "primary_role_id": "RO166",
        "role_ids": [
            "RO166"
        ],
        "status": "Active",
        "post_code": "CM15 8AG",
        "uprn": "100091435734"
    },
    {
        "org_id": "T2GE",
        "name": "JINKINSON OPTICIANS",
        "primary_role_id": "RO166",
        "role_ids": [
            "RO166"
        ],
        "status": "Active",
        "post_code": "SK7 1AW",
        "uprn": "Unknown"
    },
    {
        "org_id": "T2GF",
        "name": "D J CASEY OPTICIANS",
        "primary_role_id": "RO166",
        "role_ids": [
            "RO166"
        ],
        "status": "Active",
        "post_code": "SR1 1QH",
        "uprn": "Unknown"
    },
    {
        "org_id": "T2GG",
        "name": "EVANS OF JESMOND",
        "primary_role_id": "RO166",
        "role_ids": [
            "RO166"
        ],
        "status": "Active",
        "post_code": "NE2 2DJ",
        "uprn": "4510110192"
    },
    {
        "org_id": "T2GH",
        "name": "G T HARVEY & PARTNERS",
        "primary_role_id": "RO166",
        "role_ids": [
            "RO166"
        ],
        "status": "Active",
        "post_code": "BB3 1AE",
        "uprn": "10024625891"
    },
    {
        "org_id": "T2GJ",
        "name": "FOX-STEVENS OPTOMETRISTS",
        "primary_role_id": "RO166",
        "role_ids": [
            "RO166"
        ],
        "status": "Active",
        "post_code": "SK9 3ES",
        "uprn": "100012790302"
    },
    {
        "org_id": "T2GP",
        "name": "MICHAEL OFFORD OPTOMETRIST LTD",
        "primary_role_id": "RO166",
        "role_ids": [
            "RO166"
        ],
        "status": "Active",
        "post_code": "NE3 2FP",
        "uprn": "10091871288"
    },
    {
        "org_id": "T2GQ",
        "name": "KING AND WOOD OPTOMETRISTS",
        "primary_role_id": "RO166",
        "role_ids": [
            "RO166"
        ],
        "status": "Active",
        "post_code": "NE3 1HA",
        "uprn": "Unknown"
    },
    {
        "org_id": "T2GR",
        "name": "LOW VISION SUPPLIES",
        "primary_role_id": "RO166",
        "role_ids": [
            "RO166"
        ],
        "status": "Active",
        "post_code": "TS23 1EY",
        "uprn": "100110795384"
    },
    {
        "org_id": "T2GV",
        "name": "STAPLES OPTICIANS LTD",
        "primary_role_id": "RO166",
        "role_ids": [
            "RO166"
        ],
        "status": "Active",
        "post_code": "BB3 1AE",
        "uprn": "Unknown"
    },
    {
        "org_id": "T2GW",
        "name": "PARKER OPTICIANS LTD",
        "primary_role_id": "RO166",
        "role_ids": [
            "RO166"
        ],
        "status": "Active",
        "post_code": "S44 6DT",
        "uprn": "100032185289"
    },
    {
        "org_id": "T2GX",
        "name": "O'BRIEN FEY OPTICIANS",
        "primary_role_id": "RO166",
        "role_ids": [
            "RO166"
        ],
        "status": "Active",
        "post_code": "S60 2LT",
        "uprn": "100052102108"
    },
    {
        "org_id": "T2GY",
        "name": "PINSTONE EYECARE",
        "primary_role_id": "RO166",
        "role_ids": [
            "RO166"
        ],
        "status": "Active",
        "post_code": "S5 6HJ",
        "uprn": "100052097874"
    },
    {
        "org_id": "T2H0",
        "name": "JET SPECS",
        "primary_role_id": "RO166",
        "role_ids": [
            "RO166"
        ],
        "status": "Active",
        "post_code": "S17 3QB",
        "uprn": "Unknown"
    },
    {
        "org_id": "T2H1",
        "name": "THE OPTICAL GALLERY",
        "primary_role_id": "RO166",
        "role_ids": [
            "RO166"
        ],
        "status": "Active",
        "post_code": "TW1 3SN",
        "uprn": "100022338755"
    },
    {
        "org_id": "T2H3",
        "name": "DONNE & BROWNING OPTICIANS & HEARING CARE",
        "primary_role_id": "RO166",
        "role_ids": [
            "RO166"
        ],
        "status": "Active",
        "post_code": "MK40 1NS",
        "uprn": "Unknown"
    },
    {
        "org_id": "T2H4",
        "name": "ROSS LOVEDAY OPTICIANS",
        "primary_role_id": "RO166",
        "role_ids": [
            "RO166"
        ],
        "status": "Active",
        "post_code": "CM23 2QR",
        "uprn": "Unknown"
    },
    {
        "org_id": "T2H5",
        "name": "A I VISION OPTICIANS",
        "primary_role_id": "RO166",
        "role_ids": [
            "RO166"
        ],
        "status": "Active",
        "post_code": "CH3 5NU",
        "uprn": "Unknown"
    },
    {
        "org_id": "T2H9",
        "name": "PILBEAM OPTICIANS LTD",
        "primary_role_id": "RO166",
        "role_ids": [
            "RO166"
        ],
        "status": "Active",
        "post_code": "LE12 7AJ",
        "uprn": "100032041788"
    },
    {
        "org_id": "T2HA",
        "name": "R STONE OPTICIANS LTD",
        "primary_role_id": "RO166",
        "role_ids": [
            "RO166"
        ],
        "status": "Active",
        "post_code": "KT12 1BY",
        "uprn": "100062358079"
    },
    {
        "org_id": "T2HC",
        "name": "RUTH PERROTT COMMUNITY OPTOMETRIST",
        "primary_role_id": "RO166",
        "role_ids": [
            "RO166"
        ],
        "status": "Active",
        "post_code": "WF10 1AG",
        "uprn": "63097895"
    },
    {
        "org_id": "T2HD",
        "name": "KEITH WALKER OPTICIANS",
        "primary_role_id": "RO166",
        "role_ids": [
            "RO166"
        ],
        "status": "Active",
        "post_code": "TS26 8DD",
        "uprn": "100110786775"
    },
    {
        "org_id": "T2HE",
        "name": "R A ORKNEY LTD",
        "primary_role_id": "RO166",
        "role_ids": [
            "RO166"
        ],
        "status": "Active",
        "post_code": "DL8 5AQ",
        "uprn": "10004781180"
    },
    {
        "org_id": "T2HF",
        "name": "EYESITE@FINLAYS",
        "primary_role_id": "RO166",
        "role_ids": [
            "RO166"
        ],
        "status": "Active",
        "post_code": "DH8 5QP",
        "uprn": "100110742528"
    },
    {
        "org_id": "T2HH",
        "name": "THOMAS & HOLLOWAY LTD",
        "primary_role_id": "RO166",
        "role_ids": [
            "RO166"
        ],
        "status": "Active",
        "post_code": "S18 2XA",
        "uprn": "100032177102"
    },
    {
        "org_id": "T2HL",
        "name": "ANSTEE & PROCTOR OPTICIANS",
        "primary_role_id": "RO166",
        "role_ids": [
            "RO166"
        ],
        "status": "Active",
        "post_code": "NN11 4AA",
        "uprn": "28009406"
    },
    {
        "org_id": "T2HR",
        "name": "ANDREW BAMFORTH OPTICIANS LTD",
        "primary_role_id": "RO166",
        "role_ids": [
            "RO166"
        ],
        "status": "Active",
        "post_code": "S9 4LP",
        "uprn": "100052120573"
    },
    {
        "org_id": "T2HT",
        "name": "KNIGHTS OPHTHALMIC OPTICIANS",
        "primary_role_id": "RO166",
        "role_ids": [
            "RO166"
        ],
        "status": "Active",
        "post_code": "B29 5QL",
        "uprn": "Unknown"
    },
    {
        "org_id": "T2HV",
        "name": "ROBERT HIGSON OPTICIANS",
        "primary_role_id": "RO166",
        "role_ids": [
            "RO166"
        ],
        "status": "Active",
        "post_code": "HU8 8SH",
        "uprn": "21112376"
    },
    {
        "org_id": "T2HX",
        "name": "OXTED EYE CLINIC LTD",
        "primary_role_id": "RO166",
        "role_ids": [
            "RO166"
        ],
        "status": "Active",
        "post_code": "RH8 0AX",
        "uprn": "100062498847"
    },
    {
        "org_id": "T2J0",
        "name": "DAVID KENYON OPTICIANS",
        "primary_role_id": "RO166",
        "role_ids": [
            "RO166"
        ],
        "status": "Active",
        "post_code": "BD16 1AJ",
        "uprn": "100052190996"
    },
    {
        "org_id": "T2J1",
        "name": "SCHOFIELD EYECARE",
        "primary_role_id": "RO166",
        "role_ids": [
            "RO166"
        ],
        "status": "Active",
        "post_code": "TR13 8QB",
        "uprn": "100041206834"
    },
    {
        "org_id": "T2J2",
        "name": "THE PILGRIM OPTICAL PRACTICE",
        "primary_role_id": "RO166",
        "role_ids": [
            "RO166"
        ],
        "status": "Active",
        "post_code": "EX16 6AH",
        "uprn": "Unknown"
    },
    {
        "org_id": "T2J3",
        "name": "EYEWEAR CREATIONS LTD",
        "primary_role_id": "RO166",
        "role_ids": [
            "RO166"
        ],
        "status": "Active",
        "post_code": "EX32 7DB",
        "uprn": "100041037355"
    },
    {
        "org_id": "T2J4",
        "name": "ANTHONY GASSON OPTICIANS",
        "primary_role_id": "RO166",
        "role_ids": [
            "RO166"
        ],
        "status": "Active",
        "post_code": "WD3 1BX",
        "uprn": "100081288647"
    },
    {
        "org_id": "T2J6",
        "name": "1892 OPTICAL & HEARING LIMITED",
        "primary_role_id": "RO166",
        "role_ids": [
            "RO166"
        ],
        "status": "Active",
        "post_code": "PO21 1RQ",
        "uprn": "100062416615"
    },
    {
        "org_id": "T2J8",
        "name": "RICHARD STENT OPTOMETRIST",
        "primary_role_id": "RO166",
        "role_ids": [
            "RO166"
        ],
        "status": "Active",
        "post_code": "TA19 0AS",
        "uprn": "Unknown"
    },
    {
        "org_id": "T2J9",
        "name": "EYE Q OPTICIANS",
        "primary_role_id": "RO166",
        "role_ids": [
            "RO166"
        ],
        "status": "Active",
        "post_code": "B1 2HL",
        "uprn": "Unknown"
    },
    {
        "org_id": "T2JE",
        "name": "W J WILKINSONS",
        "primary_role_id": "RO166",
        "role_ids": [
            "RO166"
        ],
        "status": "Active",
        "post_code": "TN9 2NB",
        "uprn": "100062594201"
    },
    {
        "org_id": "T2JF",
        "name": "ROBERT SQUIRES OPTICIANS",
        "primary_role_id": "RO166",
        "role_ids": [
            "RO166"
        ],
        "status": "Active",
        "post_code": "ME8 9PW",
        "uprn": "Unknown"
    },
    {
        "org_id": "T2JG",
        "name": "DELTA OPTICAL LTD",
        "primary_role_id": "RO166",
        "role_ids": [
            "RO166"
        ],
        "status": "Active",
        "post_code": "CT5 3PS",
        "uprn": "Unknown"
    },
    {
        "org_id": "T2JH",
        "name": "GLYN JONES OPTICIANS",
        "primary_role_id": "RO166",
        "role_ids": [
            "RO166"
        ],
        "status": "Active",
        "post_code": "ST1 5LA",
        "uprn": "3455112121"
    },
    {
        "org_id": "T2JJ",
        "name": "JOHN FLYNN",
        "primary_role_id": "RO166",
        "role_ids": [
            "RO166"
        ],
        "status": "Active",
        "post_code": "NG9 1BS",
        "uprn": "Unknown"
    },
    {
        "org_id": "T2JK",
        "name": "HAMMOND OPTICIANS LTD",
        "primary_role_id": "RO166",
        "role_ids": [
            "RO166"
        ],
        "status": "Active",
        "post_code": "EN2 6EF",
        "uprn": "207035016"
    },
    {
        "org_id": "T2JL",
        "name": "MATHESON OPTOMETRISTS LTD",
        "primary_role_id": "RO166",
        "role_ids": [
            "RO166"
        ],
        "status": "Active",
        "post_code": "BB3 1AE",
        "uprn": "10024625891"
    },
    {
        "org_id": "T2JM",
        "name": "DEBNEYS OPTICIANS",
        "primary_role_id": "RO166",
        "role_ids": [
            "RO166"
        ],
        "status": "Active",
        "post_code": "RM5 3PR",
        "uprn": "Unknown"
    },
    {
        "org_id": "T2JN",
        "name": "OPTIQUE OPTICIANS SOUTHERN LTD",
        "primary_role_id": "RO166",
        "role_ids": [
            "RO166"
        ],
        "status": "Active",
        "post_code": "SO30 4FQ",
        "uprn": "100062523831"
    },
    {
        "org_id": "T2JP",
        "name": "BELL BROTHERS OPTICIANS LTD",
        "primary_role_id": "RO166",
        "role_ids": [
            "RO166"
        ],
        "status": "Active",
        "post_code": "BB3 1AE",
        "uprn": "Unknown"
    },
    {
        "org_id": "T2JQ",
        "name": "JOHN FELL LTD",
        "primary_role_id": "RO166",
        "role_ids": [
            "RO166"
        ],
        "status": "Active",
        "post_code": "DE3 0GB",
        "uprn": "Unknown"
    },
    {
        "org_id": "T2JT",
        "name": "BRIGHTON AND SUSSEX UNIVERSITY",
        "primary_role_id": "RO166",
        "role_ids": [
            "RO166"
        ],
        "status": "Active",
        "post_code": "BN2 5BF",
        "uprn": "Unknown"
    },
    {
        "org_id": "T2JV",
        "name": "W H ASHWORTH & SON",
        "primary_role_id": "RO166",
        "role_ids": [
            "RO166"
        ],
        "status": "Active",
        "post_code": "SK8 3QA",
        "uprn": "100012788865"
    },
    {
        "org_id": "T2JW",
        "name": "SIDDALLS & ASSOCIATES LTD",
        "primary_role_id": "RO166",
        "role_ids": [
            "RO166"
        ],
        "status": "Active",
        "post_code": "CH1 1NQ",
        "uprn": "Unknown"
    },
    {
        "org_id": "T2JX",
        "name": "JOHN PREBBLE OPTICIANS LTD",
        "primary_role_id": "RO166",
        "role_ids": [
            "RO166"
        ],
        "status": "Active",
        "post_code": "CH47 5AZ",
        "uprn": "42073907"
    },
    {
        "org_id": "T2JY",
        "name": "HALSEY & CREERY OPTICIANS",
        "primary_role_id": "RO166",
        "role_ids": [
            "RO166"
        ],
        "status": "Active",
        "post_code": "CV21 2PJ",
        "uprn": "Unknown"
    },
    {
        "org_id": "T2K2",
        "name": "CLARKE OPTICIANS LTD",
        "primary_role_id": "RO166",
        "role_ids": [
            "RO166"
        ],
        "status": "Active",
        "post_code": "CV3 5HW",
        "uprn": "100070691416"
    },
    {
        "org_id": "T2K3",
        "name": "SANFORD OPTICIANS",
        "primary_role_id": "RO166",
        "role_ids": [
            "RO166"
        ],
        "status": "Active",
        "post_code": "CT6 5EJ",
        "uprn": "Unknown"
    },
    {
        "org_id": "T2K5",
        "name": "JUST EYES OPTICIANS",
        "primary_role_id": "RO166",
        "role_ids": [
            "RO166"
        ],
        "status": "Active",
        "post_code": "SL4 1PJ",
        "uprn": "Unknown"
    },
    {
        "org_id": "T2K6",
        "name": "GARLANDS OPTICIANS",
        "primary_role_id": "RO166",
        "role_ids": [
            "RO166"
        ],
        "status": "Active",
        "post_code": "SK6 3AU",
        "uprn": "100011456247"
    },
    {
        "org_id": "T2K8",
        "name": "BIGGS OPTICIANS",
        "primary_role_id": "RO166",
        "role_ids": [
            "RO166"
        ],
        "status": "Active",
        "post_code": "CT16 1DP",
        "uprn": "Unknown"
    },
    {
        "org_id": "T2K9",
        "name": "SODHA OPTOMETRISTS",
        "primary_role_id": "RO166",
        "role_ids": [
            "RO166"
        ],
        "status": "Active",
        "post_code": "B8 1ND",
        "uprn": "100071381510"
    },
    {
        "org_id": "T2KC",
        "name": "SARAH MARTIN OPTICIANS LTD",
        "primary_role_id": "RO166",
        "role_ids": [
            "RO166"
        ],
        "status": "Active",
        "post_code": "LE9 4DQ",
        "uprn": "100030394993"
    },
    {
        "org_id": "T2KE",
        "name": "SEABROOKE OPTICIANS LTD",
        "primary_role_id": "RO166",
        "role_ids": [
            "RO166"
        ],
        "status": "Active",
        "post_code": "PR8 3BH",
        "uprn": "Unknown"
    },
    {
        "org_id": "T2KF",
        "name": "GROVES OPTICIANS",
        "primary_role_id": "RO166",
        "role_ids": [
            "RO166"
        ],
        "status": "Active",
        "post_code": "YO30 4RZ",
        "uprn": "Unknown"
    },
    {
        "org_id": "T2KG",
        "name": "COWEN & MORGAN OPTICIANS",
        "primary_role_id": "RO166",
        "role_ids": [
            "RO166"
        ],
        "status": "Active",
        "post_code": "HG4 2BQ",
        "uprn": "100052010032"
    },
    {
        "org_id": "T2KH",
        "name": "LOOKS OPTICIANS LTD",
        "primary_role_id": "RO166",
        "role_ids": [
            "RO166"
        ],
        "status": "Active",
        "post_code": "B17 9PN",
        "uprn": "100071388503"
    },
    {
        "org_id": "T2KJ",
        "name": "ARKA SIGHT CARE",
        "primary_role_id": "RO166",
        "role_ids": [
            "RO166"
        ],
        "status": "Active",
        "post_code": "DE74 2EE",
        "uprn": "10002345918"
    },
    {
        "org_id": "T2KK",
        "name": "CLARE & ILLINGWORTH LTD",
        "primary_role_id": "RO166",
        "role_ids": [
            "RO166"
        ],
        "status": "Active",
        "post_code": "WA16 6EQ",
        "uprn": "100012801787"
    },
    {
        "org_id": "T2KL",
        "name": "WALKER AND NORRIS OPTICIANS",
        "primary_role_id": "RO166",
        "role_ids": [
            "RO166"
        ],
        "status": "Active",
        "post_code": "CT6 5EY",
        "uprn": "100062302597"
    },
    {
        "org_id": "T2KN",
        "name": "J C BIRD OPTICIANS",
        "primary_role_id": "RO166",
        "role_ids": [
            "RO166"
        ],
        "status": "Active",
        "post_code": "S1 2LG",
        "uprn": "Unknown"
    },
    {
        "org_id": "T2KP",
        "name": "SPECSELLERS LTD",
        "primary_role_id": "RO166",
        "role_ids": [
            "RO166"
        ],
        "status": "Active",
        "post_code": "WA11 0LG",
        "uprn": "39088586"
    },
    {
        "org_id": "T2KQ",
        "name": "MILLICAN OPTICIANS LTD",
        "primary_role_id": "RO166",
        "role_ids": [
            "RO166"
        ],
        "status": "Active",
        "post_code": "L13 5UX",
        "uprn": "Unknown"
    },
    {
        "org_id": "T2KR",
        "name": "OPTOMETRY DEPARTMENT",
        "primary_role_id": "RO166",
        "role_ids": [
            "RO166"
        ],
        "status": "Active",
        "post_code": "L12 2AF",
        "uprn": "Unknown"
    },
    {
        "org_id": "T2KT",
        "name": "BRIAN CRAIG EYECARE LTD",
        "primary_role_id": "RO166",
        "role_ids": [
            "RO166"
        ],
        "status": "Active",
        "post_code": "GU11 1HT",
        "uprn": "100062322873"
    },
    {
        "org_id": "T2KW",
        "name": "REYNOLDS & SLATER LTD",
        "primary_role_id": "RO166",
        "role_ids": [
            "RO166"
        ],
        "status": "Active",
        "post_code": "TR18 2HZ",
        "uprn": "100041028555"
    },
    {
        "org_id": "T2KY",
        "name": "A K BHARDWAJA",
        "primary_role_id": "RO166",
        "role_ids": [
            "RO166"
        ],
        "status": "Active",
        "post_code": "SS0 9UU",
        "uprn": "100091581645"
    },
    {
        "org_id": "T2L0",
        "name": "WALLER & WALLER OPTICIANS LTD",
        "primary_role_id": "RO166",
        "role_ids": [
            "RO166"
        ],
        "status": "Active",
        "post_code": "WR9 8DY",
        "uprn": "Unknown"
    },
    {
        "org_id": "T2L6",
        "name": "POWELL'S DISPENSING OPTICIANS",
        "primary_role_id": "RO166",
        "role_ids": [
            "RO166"
        ],
        "status": "Active",
        "post_code": "SN10 1JG",
        "uprn": "Unknown"
    },
    {
        "org_id": "T2L7",
        "name": "HUGH STEVENS OPTICIANS",
        "primary_role_id": "RO166",
        "role_ids": [
            "RO166"
        ],
        "status": "Active",
        "post_code": "RG14 7AB",
        "uprn": "200002099496"
    },
    {
        "org_id": "T2L9",
        "name": "MONTAGUE CANIN OPTICIANS",
        "primary_role_id": "RO166",
        "role_ids": [
            "RO166"
        ],
        "status": "Active",
        "post_code": "B4 6TB",
        "uprn": "100071384775"
    },
    {
        "org_id": "T2LA",
        "name": "HILL TOP OPTICIANS",
        "primary_role_id": "RO166",
        "role_ids": [
            "RO166"
        ],
        "status": "Active",
        "post_code": "B70 0SH",
        "uprn": "32092254"
    },
    {
        "org_id": "T2LD",
        "name": "PREMIERE OPTICIANS",
        "primary_role_id": "RO166",
        "role_ids": [
            "RO166"
        ],
        "status": "Active",
        "post_code": "CO1 1JJ",
        "uprn": "Unknown"
    },
    {
        "org_id": "T2LF",
        "name": "ALAN BOWEN OPTOMETRIST",
        "primary_role_id": "RO166",
        "role_ids": [
            "RO166"
        ],
        "status": "Active",
        "post_code": "WN8 0EN",
        "uprn": "100012820408"
    },
    {
        "org_id": "T2LH",
        "name": "JEAN HOLMES OPTOMETRISTS",
        "primary_role_id": "RO166",
        "role_ids": [
            "RO166"
        ],
        "status": "Active",
        "post_code": "S43 3UU",
        "uprn": "74031482"
    },
    {
        "org_id": "T2LL",
        "name": "S & C L WILKINSON",
        "primary_role_id": "RO166",
        "role_ids": [
            "RO166"
        ],
        "status": "Active",
        "post_code": "DL1 1PB",
        "uprn": "100110744510"
    },
    {
        "org_id": "T2LM",
        "name": "CHRISTINE PIRRIE OPTOMETRISTS",
        "primary_role_id": "RO166",
        "role_ids": [
            "RO166"
        ],
        "status": "Active",
        "post_code": "PE9 2AZ",
        "uprn": "Unknown"
    },
    {
        "org_id": "T2LP",
        "name": "REGAL OPTICAL CENTRES",
        "primary_role_id": "RO166",
        "role_ids": [
            "RO166"
        ],
        "status": "Active",
        "post_code": "PE21 8QN",
        "uprn": "Unknown"
    },
    {
        "org_id": "T2LT",
        "name": "S CHATTERJEE OPTICIANS",
        "primary_role_id": "RO166",
        "role_ids": [
            "RO166"
        ],
        "status": "Active",
        "post_code": "EX2 4TA",
        "uprn": "100040222659"
    },
    {
        "org_id": "T2LV",
        "name": "THE YOUNG CLINIC LTD",
        "primary_role_id": "RO166",
        "role_ids": [
            "RO166"
        ],
        "status": "Active",
        "post_code": "BA4 5AS",
        "uprn": "250019535"
    },
    {
        "org_id": "T2LW",
        "name": "SKB OPTICALS LTD",
        "primary_role_id": "RO166",
        "role_ids": [
            "RO166"
        ],
        "status": "Active",
        "post_code": "BS15 3DG",
        "uprn": "516035"
    },
    {
        "org_id": "T2M1",
        "name": "R & J MOORE LTD",
        "primary_role_id": "RO166",
        "role_ids": [
            "RO166"
        ],
        "status": "Active",
        "post_code": "CT11 9DZ",
        "uprn": "100062283833"
    },
    {
        "org_id": "T2M2",
        "name": "L WOODHOUSE LTD",
        "primary_role_id": "RO166",
        "role_ids": [
            "RO166"
        ],
        "status": "Active",
        "post_code": "FY4 2JF",
        "uprn": "10000868113"
    },
    {
        "org_id": "T2M3",
        "name": "PETER JONES OPTICIANS",
        "primary_role_id": "RO166",
        "role_ids": [
            "RO166"
        ],
        "status": "Active",
        "post_code": "TN12 0AX",
        "uprn": "Unknown"
    },
    {
        "org_id": "T2M4",
        "name": "BOROUGH GREEN OPTICIANS",
        "primary_role_id": "RO166",
        "role_ids": [
            "RO166"
        ],
        "status": "Active",
        "post_code": "TN15 8BT",
        "uprn": "100062550689"
    },
    {
        "org_id": "T2M5",
        "name": "COOPER AND BARR LTD",
        "primary_role_id": "RO166",
        "role_ids": [
            "RO166"
        ],
        "status": "Active",
        "post_code": "TS9 5AD",
        "uprn": "Unknown"
    },
    {
        "org_id": "T2M7",
        "name": "MAX DAVISON OPTOMETRY",
        "primary_role_id": "RO166",
        "role_ids": [
            "RO166"
        ],
        "status": "Active",
        "post_code": "TA23 0AG",
        "uprn": "Unknown"
    },
    {
        "org_id": "T2M9",
        "name": "CARLTON OPTICIANS",
        "primary_role_id": "RO166",
        "role_ids": [
            "RO166"
        ],
        "status": "Active",
        "post_code": "NG4 1GD",
        "uprn": "100032123019"
    },
    {
        "org_id": "T2MD",
        "name": "KEAST OPTICIANS",
        "primary_role_id": "RO166",
        "role_ids": [
            "RO166"
        ],
        "status": "Active",
        "post_code": "TR18 2QP",
        "uprn": "100041028240"
    },
    {
        "org_id": "T2MG",
        "name": "TERENCE MENDOZA OPTOMETRISTS",
        "primary_role_id": "RO166",
        "role_ids": [
            "RO166"
        ],
        "status": "Active",
        "post_code": "SS4 1BD",
        "uprn": "100091628385"
    },
    {
        "org_id": "T2MH",
        "name": "THE SPECTACLE FACTORY",
        "primary_role_id": "RO166",
        "role_ids": [
            "RO166"
        ],
        "status": "Active",
        "post_code": "PR5 6BB",
        "uprn": "100012843253"
    },
    {
        "org_id": "T2MJ",
        "name": "DAVID DOWLEY LTD",
        "primary_role_id": "RO166",
        "role_ids": [
            "RO166"
        ],
        "status": "Active",
        "post_code": "YO24 3BL",
        "uprn": "Unknown"
    },
    {
        "org_id": "T2MK",
        "name": "WESTFIELD OPTICIANS",
        "primary_role_id": "RO166",
        "role_ids": [
            "RO166"
        ],
        "status": "Active",
        "post_code": "S12 3GG",
        "uprn": "100052085899"
    },
    {
        "org_id": "T2ML",
        "name": "BRYSON, BELL & CLENTON",
        "primary_role_id": "RO166",
        "role_ids": [
            "RO166"
        ],
        "status": "Active",
        "post_code": "NG18 1RU",
        "uprn": "100032105841"
    },
    {
        "org_id": "T2MM",
        "name": "T M HEDLEY OPTOMETRIST",
        "primary_role_id": "RO166",
        "role_ids": [
            "RO166"
        ],
        "status": "Active",
        "post_code": "SR7 9AA",
        "uprn": "Unknown"
    },
    {
        "org_id": "T2MN",
        "name": "NEWSOME OPTICIANS",
        "primary_role_id": "RO166",
        "role_ids": [
            "RO166"
        ],
        "status": "Active",
        "post_code": "PL21 9PS",
        "uprn": "Unknown"
    },
    {
        "org_id": "T2MP",
        "name": "OPTOMLINK LTD",
        "primary_role_id": "RO166",
        "role_ids": [
            "RO166"
        ],
        "status": "Active",
        "post_code": "HA7 2LZ",
        "uprn": "100021318840"
    },
    {
        "org_id": "T2MQ",
        "name": "GOLDSMITH & HARVEY OPTICIANS",
        "primary_role_id": "RO166",
        "role_ids": [
            "RO166"
        ],
        "status": "Active",
        "post_code": "BS30 7DY",
        "uprn": "Unknown"
    },
    {
        "org_id": "T2MR",
        "name": "VERONEX LIMITED",
        "primary_role_id": "RO166",
        "role_ids": [
            "RO166"
        ],
        "status": "Active",
        "post_code": "PE8 4BA",
        "uprn": "100032173802"
    },
    {
        "org_id": "T36V",
        "name": "MELINA JOY OPTICIANS LTD",
        "primary_role_id": "RO166",
        "role_ids": [
            "RO166"
        ],
        "status": "Active",
        "post_code": "TN21 8HU",
        "uprn": "Unknown"
    },
    {
        "org_id": "T36W",
        "name": "REVOLUTION EYECARE OPTICIANS",
        "primary_role_id": "RO166",
        "role_ids": [
            "RO166"
        ],
        "status": "Active",
        "post_code": "BL4 9AJ",
        "uprn": "100012560496"
    },
    {
        "org_id": "T371",
        "name": "MEDINA EXPRESS OPTICIANS",
        "primary_role_id": "RO166",
        "role_ids": [
            "RO166"
        ],
        "status": "Active",
        "post_code": "NG7 5FU",
        "uprn": "10009161236"
    },
    {
        "org_id": "T372",
        "name": "STEPHEN ABERY OPTICIANS LTD",
        "primary_role_id": "RO166",
        "role_ids": [
            "RO166"
        ],
        "status": "Active",
        "post_code": "RG6 7HD",
        "uprn": "14022009"
    },
    {
        "org_id": "T373",
        "name": "KELLY EYECARE OPTICIANS",
        "primary_role_id": "RO166",
        "role_ids": [
            "RO166"
        ],
        "status": "Active",
        "post_code": "BH24 1AB",
        "uprn": "100062213659"
    },
    {
        "org_id": "T374",
        "name": "R T KNIGHT OPTICIANS",
        "primary_role_id": "RO166",
        "role_ids": [
            "RO166"
        ],
        "status": "Active",
        "post_code": "DY3 1SB",
        "uprn": "Unknown"
    },
    {
        "org_id": "T375",
        "name": "INSIGHT OPTICIANS",
        "primary_role_id": "RO166",
        "role_ids": [
            "RO166"
        ],
        "status": "Active",
        "post_code": "SL7 1BA",
        "uprn": "Unknown"
    },
    {
        "org_id": "T376",
        "name": "OPTIQUE 2000 LTD",
        "primary_role_id": "RO166",
        "role_ids": [
            "RO166"
        ],
        "status": "Active",
        "post_code": "BH21 1JN",
        "uprn": "Unknown"
    },
    {
        "org_id": "T377",
        "name": "VISIONCARE DIRECT OPTICIANS",
        "primary_role_id": "RO166",
        "role_ids": [
            "RO166"
        ],
        "status": "Active",
        "post_code": "LE5 6HL",
        "uprn": "Unknown"
    },
    {
        "org_id": "T378",
        "name": "BRUCE AVERY OPTOMETRIST",
        "primary_role_id": "RO166",
        "role_ids": [
            "RO166"
        ],
        "status": "Active",
        "post_code": "CA13 9RT",
        "uprn": "Unknown"
    },
    {
        "org_id": "T1XR",
        "name": "MINCHER-LOCKETT OPTICIANS",
        "primary_role_id": "RO166",
        "role_ids": [
            "RO166"
        ],
        "status": "Active",
        "post_code": "BB3 1AE",
        "uprn": "Unknown"
    },
    {
        "org_id": "T379",
        "name": "CLEAR VISION OPTICIANS LTD",
        "primary_role_id": "RO166",
        "role_ids": [
            "RO166"
        ],
        "status": "Active",
        "post_code": "NR32 2AA",
        "uprn": "100091567591"
    },
    {
        "org_id": "T37A",
        "name": "WESSEX SIGHT CARE DISTRICT HOSPITAL",
        "primary_role_id": "RO166",
        "role_ids": [
            "RO166"
        ],
        "status": "Active",
        "post_code": "SP2 8BJ",
        "uprn": "Unknown"
    },
    {
        "org_id": "T37C",
        "name": "VISUALEYES OPTICIANS",
        "primary_role_id": "RO166",
        "role_ids": [
            "RO166"
        ],
        "status": "Active",
        "post_code": "HA7 1EY",
        "uprn": "100023038383"
    },
    {
        "org_id": "T37E",
        "name": "SHIVA OPTICIANS LTD",
        "primary_role_id": "RO166",
        "role_ids": [
            "RO166"
        ],
        "status": "Active",
        "post_code": "RM8 3UH",
        "uprn": "100002141"
    },
    {
        "org_id": "T37G",
        "name": "CHILTERN OPTICIANS LTD",
        "primary_role_id": "RO166",
        "role_ids": [
            "RO166"
        ],
        "status": "Active",
        "post_code": "HP16 0AL",
        "uprn": "200003289784"
    },
    {
        "org_id": "T37H",
        "name": "JASON RICE I-CARE",
        "primary_role_id": "RO166",
        "role_ids": [
            "RO166"
        ],
        "status": "Active",
        "post_code": "CV6 1JF",
        "uprn": "Unknown"
    },
    {
        "org_id": "T37J",
        "name": "INSIGHT OPTICIANS",
        "primary_role_id": "RO166",
        "role_ids": [
            "RO166"
        ],
        "status": "Active",
        "post_code": "GU16 7HJ",
        "uprn": "100062329363"
    },
    {
        "org_id": "T37K",
        "name": "INSIGHT OPTICIANS",
        "primary_role_id": "RO166",
        "role_ids": [
            "RO166"
        ],
        "status": "Active",
        "post_code": "WD6 1AH",
        "uprn": "10034169698"
    },
    {
        "org_id": "T03Y",
        "name": "BARNABYS OPTICIANS HQ",
        "primary_role_id": "RO166",
        "role_ids": [
            "RO166"
        ],
        "status": "Active",
        "post_code": "BH1 2AF",
        "uprn": "Unknown"
    },
    {
        "org_id": "T1W2",
        "name": "NORMAN PRINCE & PARTNERS",
        "primary_role_id": "RO166",
        "role_ids": [
            "RO166"
        ],
        "status": "Active",
        "post_code": "TW15 2TX",
        "uprn": "Unknown"
    },
    {
        "org_id": "T37T",
        "name": "T COX OPTICIANS",
        "primary_role_id": "RO166",
        "role_ids": [
            "RO166"
        ],
        "status": "Active",
        "post_code": "B8 2HB",
        "uprn": "100071396750"
    },
    {
        "org_id": "T37V",
        "name": "ROSE OPTICIANS",
        "primary_role_id": "RO166",
        "role_ids": [
            "RO166"
        ],
        "status": "Active",
        "post_code": "EN8 7BY",
        "uprn": "Unknown"
    },
    {
        "org_id": "T37W",
        "name": "MICHAEL J LEMMING OPTICIANS",
        "primary_role_id": "RO166",
        "role_ids": [
            "RO166"
        ],
        "status": "Active",
        "post_code": "M20 6RD",
        "uprn": "Unknown"
    },
    {
        "org_id": "T37X",
        "name": "CARL ZEISS LTD",
        "primary_role_id": "RO166",
        "role_ids": [
            "RO166"
        ],
        "status": "Active",
        "post_code": "AL7 1LU",
        "uprn": "Unknown"
    },
    {
        "org_id": "T37Y",
        "name": "ANN MORGAN OPTICIANS",
        "primary_role_id": "RO166",
        "role_ids": [
            "RO166"
        ],
        "status": "Active",
        "post_code": "CA25 5AH",
        "uprn": "10000899868"
    },
    {
        "org_id": "T380",
        "name": "DOLORES MARSHALL OPTICIANS LTD",
        "primary_role_id": "RO166",
        "role_ids": [
            "RO166"
        ],
        "status": "Active",
        "post_code": "CA3 8RF",
        "uprn": "Unknown"
    },
    {
        "org_id": "T381",
        "name": "DEREK H REDFERN",
        "primary_role_id": "RO166",
        "role_ids": [
            "RO166"
        ],
        "status": "Active",
        "post_code": "LU7 1DN",
        "uprn": "Unknown"
    },
    {
        "org_id": "T382",
        "name": "K FRANCE OPTICIANS LTD",
        "primary_role_id": "RO166",
        "role_ids": [
            "RO166"
        ],
        "status": "Active",
        "post_code": "CA1 1BG",
        "uprn": "100110727810"
    },
    {
        "org_id": "T383",
        "name": "COTSWOLD OPTICIANS",
        "primary_role_id": "RO166",
        "role_ids": [
            "RO166"
        ],
        "status": "Active",
        "post_code": "OX28 6AG",
        "uprn": "100121320309"
    },
    {
        "org_id": "T1RL",
        "name": "SARAH GIBSON OPTOMETRIST",
        "primary_role_id": "RO166",
        "role_ids": [
            "RO166"
        ],
        "status": "Active",
        "post_code": "BA9 9LP",
        "uprn": "30003356"
    },
    {
        "org_id": "T386",
        "name": "PEEPERS OPTICIANS",
        "primary_role_id": "RO166",
        "role_ids": [
            "RO166"
        ],
        "status": "Active",
        "post_code": "OX16 5JJ",
        "uprn": "100121288607"
    },
    {
        "org_id": "T389",
        "name": "JONATHAN C HOBBS OPTICIANS",
        "primary_role_id": "RO166",
        "role_ids": [
            "RO166"
        ],
        "status": "Active",
        "post_code": "PO7 7EX",
        "uprn": "10013677421"
    },
    {
        "org_id": "T38C",
        "name": "SW & C JACKSON",
        "primary_role_id": "RO166",
        "role_ids": [
            "RO166"
        ],
        "status": "Active",
        "post_code": "CW5 5EW",
        "uprn": "Unknown"
    },
    {
        "org_id": "T38F",
        "name": "SIMON PESTELL OPTICIANS",
        "primary_role_id": "RO166",
        "role_ids": [
            "RO166"
        ],
        "status": "Active",
        "post_code": "GU18 5SA",
        "uprn": "100062330653"
    },
    {
        "org_id": "T38G",
        "name": "EYESITE OPTICIANS",
        "primary_role_id": "RO166",
        "role_ids": [
            "RO166"
        ],
        "status": "Active",
        "post_code": "HU16 5QE",
        "uprn": "100052018258"
    },
    {
        "org_id": "T38H",
        "name": "THE FACTORY OPTICIANS",
        "primary_role_id": "RO166",
        "role_ids": [
            "RO166"
        ],
        "status": "Active",
        "post_code": "DY10 3AD",
        "uprn": "Unknown"
    },
    {
        "org_id": "T38J",
        "name": "ROBINSONS OPTICIANS LTD",
        "primary_role_id": "RO166",
        "role_ids": [
            "RO166"
        ],
        "status": "Active",
        "post_code": "YO17 7JE",
        "uprn": "100052157838"
    },
    {
        "org_id": "T38K",
        "name": "J. S. LOWRY EYECARE LTD",
        "primary_role_id": "RO166",
        "role_ids": [
            "RO166"
        ],
        "status": "Active",
        "post_code": "NE32 3JA",
        "uprn": "100000504300"
    }
]