[
    {
        "org_id": "FXN29",
        "name": "HOMESTYLE POSITIVE",
        "primary_role_id": "RO94",
        "role_ids": [
            "RO94"
        ],
        "status": "Active",
        "post_code": "DA9 9JZ",
        "uprn": "Unknown"
    },
    {
        "org_id": "FXW55",
        "name": "FITTLEWORTH MEDICAL LIMITED",
        "primary_role_id": "RO94",
        "role_ids": [
            "RO94"
        ],
        "status": "Active",
        "post_code": "CT12 6PB",
        "uprn": "10022964852"
    },
    {
        "org_id": "FXW61",
        "name": "TRENT DIRECT",
        "primary_role_id": "RO94",
        "role_ids": [
            "RO94"
        ],
        "status": "Active",
        "post_code": "NG16 3BF",
        "uprn": "Unknown"
    },
    {
        "org_id": "FYL81",
        "name": "FITTLEWORTH MEDICAL LIMITED",
        "primary_role_id": "RO94",
        "role_ids": [
            "RO94"
        ],
        "status": "Active",
        "post_code": "NG18 5BU",
        "uprn": "Unknown"
    },
    {
        "org_id": "FYR20",
        "name": "SECURICARE (MEDICAL) LTD",
        "primary_role_id": "RO94",
        "role_ids": [
            "RO94"
        ],
        "status": "Active",
        "post_code": "HP10 9QY",
        "uprn": "Unknown"
    },
    {
        "org_id": "FJV34",
        "name": "NUCARE",
        "primary_role_id": "RO94",
        "role_ids": [
            "RO94"
        ],
        "status": "Active",
        "post_code": "TF1 7ES",
        "uprn": "Unknown"
    },
    {
        "org_id": "FLD64",
        "name": "FITTLEWORTH MEDICAL LTD",
        "primary_role_id": "RO94",
        "role_ids": [
            "RO94"
        ],
        "status": "Active",
        "post_code": "GU10 2DZ",
        "uprn": "Unknown"
    },
    {
        "org_id": "FJ469",
        "name": "FITTLEWORTH MEDICAL LIMITED",
        "primary_role_id": "RO94",
        "role_ids": [
            "RO94"
        ],
        "status": "Active",
        "post_code": "BN13 3QZ",
        "uprn": "Unknown"
    },
    {
        "org_id": "FD135",
        "name": "FITTLEWORTH MEDICAL LTD",
        "primary_role_id": "RO94",
        "role_ids": [
            "RO94"
        ],
        "status": "Active",
        "post_code": "SS1 2BB",
        "uprn": "Unknown"
    },
    {
        "org_id": "FDC49",
        "name": "ATOS MEDICAL",
        "primary_role_id": "RO94",
        "role_ids": [
            "RO94"
        ],
        "status": "Active",
        "post_code": "S71 3GN",
        "uprn": "Unknown"
    },
    {
        "org_id": "FE807",
        "name": "ATOS CARE",
        "primary_role_id": "RO94",
        "role_ids": [
            "RO94"
        ],
        "status": "Active",
        "post_code": "DE21 7SR",
        "uprn": "Unknown"
    },
    {
        "org_id": "FLE95",
        "name": "ATOS CARE",
        "primary_role_id": "RO94",
        "role_ids": [
            "RO94"
        ],
        "status": "Active",
        "post_code": "NG2 1RT",
        "uprn": "Unknown"
    },
    {
        "org_id": "FA696",
        "name": "CHARLES S BULLEN STOMACARE LTD",
        "primary_role_id": "RO94",
        "role_ids": [
            "RO94"
        ],
        "status": "Active",
        "post_code": "BS32 4JT",
        "uprn": "Unknown"
    },
    {
        "org_id": "FAA96",
        "name": "FITTLEWORTH MEDICAL",
        "primary_role_id": "RO94",
        "role_ids": [
            "RO94"
        ],
        "status": "Active",
        "post_code": "SR1 2NX",
        "uprn": "Unknown"
    },
    {
        "org_id": "FAH84",
        "name": "OAKMED LTD",
        "primary_role_id": "RO94",
        "role_ids": [
            "RO94"
        ],
        "status": "Active",
        "post_code": "NN5 7UW",
        "uprn": "Unknown"
    },
    {
        "org_id": "FAV47",
        "name": "FITTLEWORTH MEDICAL",
        "primary_role_id": "RO94",
        "role_ids": [
            "RO94"
        ],
        "status": "Active",
        "post_code": "SP1 2LP",
        "uprn": "Unknown"
    },
    {
        "org_id": "FC714",
        "name": "SALTS MEDILINK",
        "primary_role_id": "RO94",
        "role_ids": [
            "RO94"
        ],
        "status": "Active",
        "post_code": "B90 3ES",
        "uprn": "100071364636"
    },
    {
        "org_id": "FC850",
        "name": "APEX APPLIANCES",
        "primary_role_id": "RO94",
        "role_ids": [
            "RO94"
        ],
        "status": "Active",
        "post_code": "EC1V 9NP",
        "uprn": "Unknown"
    },
    {
        "org_id": "FCE87",
        "name": "FITTLEWORTH MEDICAL",
        "primary_role_id": "RO94",
        "role_ids": [
            "RO94"
        ],
        "status": "Active",
        "post_code": "RM10 8PS",
        "uprn": "Unknown"
    },
    {
        "org_id": "FCH11",
        "name": "MOORLAND SURGICAL SUPPLIES",
        "primary_role_id": "RO94",
        "role_ids": [
            "RO94"
        ],
        "status": "Active",
        "post_code": "M34 3AG",
        "uprn": "200002851642"
    },
    {
        "org_id": "FCY62",
        "name": "FITTLEWORTH MEDICAL LTD",
        "primary_role_id": "RO94",
        "role_ids": [
            "RO94"
        ],
        "status": "Active",
        "post_code": "BH9 2RE",
        "uprn": "Unknown"
    },
    {
        "org_id": "FDA28",
        "name": "RESPOND HEALTHCARE",
        "primary_role_id": "RO94",
        "role_ids": [
            "RO94"
        ],
        "status": "Active",
        "post_code": "NW9 5XY",
        "uprn": "200155594"
    },
    {
        "org_id": "FDR75",
        "name": "FITTLEWORTH MEDICAL",
        "primary_role_id": "RO94",
        "role_ids": [
            "RO94"
        ],
        "status": "Active",
        "post_code": "EN8 0AW",
        "uprn": "148009815"
    },
    {
        "org_id": "FE401",
        "name": "B BRAUN MEDICAL LTD",
        "primary_role_id": "RO94",
        "role_ids": [
            "RO94"
        ],
        "status": "Active",
        "post_code": "SR2 7RR",
        "uprn": "Unknown"
    },
    {
        "org_id": "FEC67",
        "name": "BULLENS HEALTHCARE",
        "primary_role_id": "RO94",
        "role_ids": [
            "RO94"
        ],
        "status": "Active",
        "post_code": "DY9 8RG",
        "uprn": "Unknown"
    },
    {
        "org_id": "FEW49",
        "name": "CHARLES S BULLEN STOMACARE LIMITED",
        "primary_role_id": "RO94",
        "role_ids": [
            "RO94"
        ],
        "status": "Active",
        "post_code": "LE6 0LE",
        "uprn": "Unknown"
    },
    {
        "org_id": "FF468",
        "name": "ATOS CARE",
        "primary_role_id": "RO94",
        "role_ids": [
            "RO94"
        ],
        "status": "Active",
        "post_code": "NG24 2TN",
        "uprn": "Unknown"
    },
    {
        "org_id": "FFF14",
        "name": "AMCARE LTD",
        "primary_role_id": "RO94",
        "role_ids": [
            "RO94"
        ],
        "status": "Active",
        "post_code": "LN6 3QN",
        "uprn": "Unknown"
    },
    {
        "org_id": "FFY66",
        "name": "SALTS MEDILINK",
        "primary_role_id": "RO94",
        "role_ids": [
            "RO94"
        ],
        "status": "Active",
        "post_code": "OX7 3EW",
        "uprn": "Unknown"
    },
    {
        "org_id": "FFY68",
        "name": "AMCARE LIMITED",
        "primary_role_id": "RO94",
        "role_ids": [
            "RO94"
        ],
        "status": "Active",
        "post_code": "RG21 4HG",
        "uprn": "Unknown"
    },
    {
        "org_id": "FG020",
        "name": "FITTLEWORTH MEDICAL LIMITED",
        "primary_role_id": "RO94",
        "role_ids": [
            "RO94"
        ],
        "status": "Active",
        "post_code": "N7 9NT",
        "uprn": "Unknown"
    },
    {
        "org_id": "FGD92",
        "name": "DONALD WARDLE & SON",
        "primary_role_id": "RO94",
        "role_ids": [
            "RO94"
        ],
        "status": "Active",
        "post_code": "ST3 7UN",
        "uprn": "Unknown"
    },
    {
        "org_id": "FGR26",
        "name": "RAPIDCARE",
        "primary_role_id": "RO94",
        "role_ids": [
            "RO94"
        ],
        "status": "Active",
        "post_code": "RH10 9RA",
        "uprn": "Unknown"
    },
    {
        "org_id": "FGW36",
        "name": "CHARLES S BULLEN STOMACARE LIMITED",
        "primary_role_id": "RO94",
        "role_ids": [
            "RO94"
        ],
        "status": "Active",
        "post_code": "ST1 1HL",
        "uprn": "Unknown"
    },
    {
        "org_id": "FH261",
        "name": "SOUTH YORKSHIRE OSTOMY SUPPLIES LTD",
        "primary_role_id": "RO94",
        "role_ids": [
            "RO94"
        ],
        "status": "Active",
        "post_code": "S61 1EE",
        "uprn": "Unknown"
    },
    {
        "org_id": "FH272",
        "name": "FITTLEWORTH MEDICAL LIMITED",
        "primary_role_id": "RO94",
        "role_ids": [
            "RO94"
        ],
        "status": "Active",
        "post_code": "CH1 6LT",
        "uprn": "Unknown"
    },
    {
        "org_id": "FH421",
        "name": "CHARLES S BULLEN STOMACARE LIMITED",
        "primary_role_id": "RO94",
        "role_ids": [
            "RO94"
        ],
        "status": "Active",
        "post_code": "NG8 3JG",
        "uprn": "Unknown"
    },
    {
        "org_id": "FH804",
        "name": "FITTLEWORTH MEDICAL",
        "primary_role_id": "RO94",
        "role_ids": [
            "RO94"
        ],
        "status": "Active",
        "post_code": "CV3 2NT",
        "uprn": "Unknown"
    },
    {
        "org_id": "FHC99",
        "name": "CHARLES S BULLEN STOMACARE LIMITED",
        "primary_role_id": "RO94",
        "role_ids": [
            "RO94"
        ],
        "status": "Active",
        "post_code": "WF5 9AD",
        "uprn": "Unknown"
    },
    {
        "org_id": "FHE90",
        "name": "FITTLEWORTH MEDICAL LIMITED",
        "primary_role_id": "RO94",
        "role_ids": [
            "RO94"
        ],
        "status": "Active",
        "post_code": "HG1 1DW",
        "uprn": "Unknown"
    },
    {
        "org_id": "FHT00",
        "name": "FITTLEWORTH MEDICAL LTD",
        "primary_role_id": "RO94",
        "role_ids": [
            "RO94"
        ],
        "status": "Active",
        "post_code": "RG10 9TU",
        "uprn": "Unknown"
    },
    {
        "org_id": "FHY81",
        "name": "FITTLEWORTH MEDICAL",
        "primary_role_id": "RO94",
        "role_ids": [
            "RO94"
        ],
        "status": "Active",
        "post_code": "WA14 5EL",
        "uprn": "10070405924"
    },
    {
        "org_id": "FJ708",
        "name": "DAYLONG",
        "primary_role_id": "RO94",
        "role_ids": [
            "RO94"
        ],
        "status": "Active",
        "post_code": "DE7 5UD",
        "uprn": "Unknown"
    },
    {
        "org_id": "FJE85",
        "name": "SALTS MEDILINK",
        "primary_role_id": "RO94",
        "role_ids": [
            "RO94"
        ],
        "status": "Active",
        "post_code": "M20 6HQ",
        "uprn": "77124886"
    },
    {
        "org_id": "FJF97",
        "name": "FITTLEWORTH MEDICAL LTD",
        "primary_role_id": "RO94",
        "role_ids": [
            "RO94"
        ],
        "status": "Active",
        "post_code": "CB25 9FX",
        "uprn": "Unknown"
    },
    {
        "org_id": "FJH75",
        "name": "AINSWORTH SURGICAL SUPPLIES",
        "primary_role_id": "RO94",
        "role_ids": [
            "RO94"
        ],
        "status": "Active",
        "post_code": "OL11 2NU",
        "uprn": "23102749"
    },
    {
        "org_id": "FJM24",
        "name": "AMCARE LTD",
        "primary_role_id": "RO94",
        "role_ids": [
            "RO94"
        ],
        "status": "Active",
        "post_code": "SR4 6SN",
        "uprn": "Unknown"
    },
    {
        "org_id": "FJM43",
        "name": "CHARLES S BULLEN STOMACARE",
        "primary_role_id": "RO94",
        "role_ids": [
            "RO94"
        ],
        "status": "Active",
        "post_code": "SW1P 4ER",
        "uprn": "Unknown"
    },
    {
        "org_id": "FJM85",
        "name": "SPEED SERVICE APPLIANCE CONTRACTORS",
        "primary_role_id": "RO94",
        "role_ids": [
            "RO94"
        ],
        "status": "Active",
        "post_code": "CM23 3AL",
        "uprn": "Unknown"
    },
    {
        "org_id": "FJN80",
        "name": "INDEPENDENCE PRODUCTS LTD",
        "primary_role_id": "RO94",
        "role_ids": [
            "RO94"
        ],
        "status": "Active",
        "post_code": "CM24 1SJ",
        "uprn": "10094833638"
    },
    {
        "org_id": "FJT66",
        "name": "SALTS HEALTHCARE LIMITED",
        "primary_role_id": "RO94",
        "role_ids": [
            "RO94"
        ],
        "status": "Active",
        "post_code": "PL7 1RF",
        "uprn": "100041064934"
    },
    {
        "org_id": "FK593",
        "name": "FITTLEWORTH MEDICAL LTD",
        "primary_role_id": "RO94",
        "role_ids": [
            "RO94"
        ],
        "status": "Active",
        "post_code": "DN4 5JT",
        "uprn": "Unknown"
    },
    {
        "org_id": "FKM09",
        "name": "SALTS MEDILINK",
        "primary_role_id": "RO94",
        "role_ids": [
            "RO94"
        ],
        "status": "Active",
        "post_code": "NW10 7JB",
        "uprn": "Unknown"
    },
    {
        "org_id": "FKV20",
        "name": "FITTLEWORTH MEDICAL LIMITED",
        "primary_role_id": "RO94",
        "role_ids": [
            "RO94"
        ],
        "status": "Active",
        "post_code": "DE1 2RJ",
        "uprn": "Unknown"
    },
    {
        "org_id": "FLD15",
        "name": "SALTS MEDILINK",
        "primary_role_id": "RO94",
        "role_ids": [
            "RO94"
        ],
        "status": "Active",
        "post_code": "WR12 7DT",
        "uprn": "10013942784"
    },
    {
        "org_id": "FLE21",
        "name": "CHARLES S BULLEN STOMACARE LIMITED",
        "primary_role_id": "RO94",
        "role_ids": [
            "RO94"
        ],
        "status": "Active",
        "post_code": "YO26 6QY",
        "uprn": "10034765812"
    },
    {
        "org_id": "FLJ41",
        "name": "SALTS MEDILINK",
        "primary_role_id": "RO94",
        "role_ids": [
            "RO94"
        ],
        "status": "Active",
        "post_code": "NE1 4PG",
        "uprn": "Unknown"
    },
    {
        "org_id": "FLV51",
        "name": "CHARTER HEALTHCARE",
        "primary_role_id": "RO94",
        "role_ids": [
            "RO94"
        ],
        "status": "Active",
        "post_code": "PE7 3FU",
        "uprn": "Unknown"
    },
    {
        "org_id": "FM982",
        "name": "BULLENS",
        "primary_role_id": "RO94",
        "role_ids": [
            "RO94"
        ],
        "status": "Active",
        "post_code": "L1 5FE",
        "uprn": "Unknown"
    },
    {
        "org_id": "FMD74",
        "name": "CHARLES S BULLEN STOMACARE",
        "primary_role_id": "RO94",
        "role_ids": [
            "RO94"
        ],
        "status": "Active",
        "post_code": "GU9 7UP",
        "uprn": "Unknown"
    },
    {
        "org_id": "FMG28",
        "name": "JADE-EURO-MED",
        "primary_role_id": "RO94",
        "role_ids": [
            "RO94"
        ],
        "status": "Active",
        "post_code": "CM3 8AB",
        "uprn": "Unknown"
    },
    {
        "org_id": "FMK11",
        "name": "RESPOND HEALTHCARE LTD",
        "primary_role_id": "RO94",
        "role_ids": [
            "RO94"
        ],
        "status": "Active",
        "post_code": "BH22 9NG",
        "uprn": "100041050697"
    },
    {
        "org_id": "FMV40",
        "name": "FITTLEWORTH MEDICAL LIMITED",
        "primary_role_id": "RO94",
        "role_ids": [
            "RO94"
        ],
        "status": "Active",
        "post_code": "RG2 8LW",
        "uprn": "Unknown"
    },
    {
        "org_id": "FMV84",
        "name": "FITTLEWORTH MEDICAL LIMITED",
        "primary_role_id": "RO94",
        "role_ids": [
            "RO94"
        ],
        "status": "Active",
        "post_code": "BD16 2AN",
        "uprn": "Unknown"
    },
    {
        "org_id": "FMY99",
        "name": "MOODY BELLS",
        "primary_role_id": "RO94",
        "role_ids": [
            "RO94"
        ],
        "status": "Active",
        "post_code": "GL52 8RP",
        "uprn": "Unknown"
    },
    {
        "org_id": "FND22",
        "name": "SALTS MEDILINK",
        "primary_role_id": "RO94",
        "role_ids": [
            "RO94"
        ],
        "status": "Active",
        "post_code": "HU1 3TE",
        "uprn": "21136501"
    },
    {
        "org_id": "FNE35",
        "name": "CHARLES S BULLEN STOMACARE LIMITED",
        "primary_role_id": "RO94",
        "role_ids": [
            "RO94"
        ],
        "status": "Active",
        "post_code": "SS3 9DT",
        "uprn": "100091595805"
    },
    {
        "org_id": "FNE89",
        "name": "WALTON SURGICAL APPLIANCES",
        "primary_role_id": "RO94",
        "role_ids": [
            "RO94"
        ],
        "status": "Active",
        "post_code": "PO4 0JW",
        "uprn": "Unknown"
    },
    {
        "org_id": "FNJ81",
        "name": "FITTLEWORTH MEDICAL LTD",
        "primary_role_id": "RO94",
        "role_ids": [
            "RO94"
        ],
        "status": "Active",
        "post_code": "IP4 1AQ",
        "uprn": "100091505696"
    },
    {
        "org_id": "FPE43",
        "name": "SALTS MEDILINK",
        "primary_role_id": "RO94",
        "role_ids": [
            "RO94"
        ],
        "status": "Active",
        "post_code": "B7 4AA",
        "uprn": "Unknown"
    },
    {
        "org_id": "FPM97",
        "name": "RESPOND HEALTHCARE LIMITED",
        "primary_role_id": "RO94",
        "role_ids": [
            "RO94"
        ],
        "status": "Active",
        "post_code": "PE7 8GX",
        "uprn": "Unknown"
    },
    {
        "org_id": "FPP28",
        "name": "FITTLEWORTH MEDICAL LIMITED",
        "primary_role_id": "RO94",
        "role_ids": [
            "RO94"
        ],
        "status": "Active",
        "post_code": "EX2 8WA",
        "uprn": "Unknown"
    },
    {
        "org_id": "FPP56",
        "name": "FITTLEWORTH MEDICAL LIMITED",
        "primary_role_id": "RO94",
        "role_ids": [
            "RO94"
        ],
        "status": "Active",
        "post_code": "LA5 9EX",
        "uprn": "100012627845"
    },
    {
        "org_id": "FPW87",
        "name": "CHARLES S BULLEN STOMACARE LIMITED",
        "primary_role_id": "RO94",
        "role_ids": [
            "RO94"
        ],
        "status": "Active",
        "post_code": "IP2 0EH",
        "uprn": "Unknown"
    },
    {
        "org_id": "FQ588",
        "name": "BULLENS",
        "primary_role_id": "RO94",
        "role_ids": [
            "RO94"
        ],
        "status": "Active",
        "post_code": "L3 4BH",
        "uprn": "38207543"
    },
    {
        "org_id": "FQ608",
        "name": "WELLSPECT LIMITED",
        "primary_role_id": "RO94",
        "role_ids": [
            "RO94"
        ],
        "status": "Active",
        "post_code": "GL10 3GB",
        "uprn": "100121373835"
    },
    {
        "org_id": "FQT79",
        "name": "SALTS MEDILINK",
        "primary_role_id": "RO94",
        "role_ids": [
            "RO94"
        ],
        "status": "Active",
        "post_code": "BN42 4FQ",
        "uprn": "60026204"
    },
    {
        "org_id": "FR040",
        "name": "RESPOND HEALTHCARE LIMITED",
        "primary_role_id": "RO94",
        "role_ids": [
            "RO94"
        ],
        "status": "Active",
        "post_code": "M9 6HB",
        "uprn": "Unknown"
    },
    {
        "org_id": "FR158",
        "name": "RESPOND HEALTHCARE LIMITED",
        "primary_role_id": "RO94",
        "role_ids": [
            "RO94"
        ],
        "status": "Active",
        "post_code": "NG2 4NU",
        "uprn": "Unknown"
    },
    {
        "org_id": "FR739",
        "name": "FITTLEWORTH",
        "primary_role_id": "RO94",
        "role_ids": [
            "RO94"
        ],
        "status": "Active",
        "post_code": "BN17 7GA",
        "uprn": "Unknown"
    },
    {
        "org_id": "FRF82",
        "name": "ATOS CARE",
        "primary_role_id": "RO94",
        "role_ids": [
            "RO94"
        ],
        "status": "Active",
        "post_code": "NG2 5FT",
        "uprn": "Unknown"
    },
    {
        "org_id": "FRQ51",
        "name": "OSTOMED HEALTHCARE",
        "primary_role_id": "RO94",
        "role_ids": [
            "RO94"
        ],
        "status": "Active",
        "post_code": "PR3 1GD",
        "uprn": "10003510916"
    },
    {
        "org_id": "FRX15",
        "name": "FITTLEWORTH MEDICAL LIMITED",
        "primary_role_id": "RO94",
        "role_ids": [
            "RO94"
        ],
        "status": "Active",
        "post_code": "PL6 7PY",
        "uprn": "10070768327"
    },
    {
        "org_id": "FT468",
        "name": "AMCARE LIMITED",
        "primary_role_id": "RO94",
        "role_ids": [
            "RO94"
        ],
        "status": "Active",
        "post_code": "NE33 1LE",
        "uprn": "Unknown"
    },
    {
        "org_id": "FT553",
        "name": "CLINIDIRECT",
        "primary_role_id": "RO94",
        "role_ids": [
            "RO94"
        ],
        "status": "Active",
        "post_code": "E10 7QP",
        "uprn": "10093562948"
    },
    {
        "org_id": "FTD28",
        "name": "NORTH WEST OSTOMY SUPPLIES",
        "primary_role_id": "RO94",
        "role_ids": [
            "RO94"
        ],
        "status": "Active",
        "post_code": "M28 3PT",
        "uprn": "Unknown"
    },
    {
        "org_id": "FTL51",
        "name": "FITTLEWORTH MEDICAL LIMITED",
        "primary_role_id": "RO94",
        "role_ids": [
            "RO94"
        ],
        "status": "Active",
        "post_code": "YO30 4XF",
        "uprn": "10007240366"
    },
    {
        "org_id": "FTM68",
        "name": "BRUNLEA SURGICAL SUPPLIES LTD",
        "primary_role_id": "RO94",
        "role_ids": [
            "RO94"
        ],
        "status": "Active",
        "post_code": "BB10 2TA",
        "uprn": "200002826815"
    },
    {
        "org_id": "FTQ92",
        "name": "ATOS CARE",
        "primary_role_id": "RO94",
        "role_ids": [
            "RO94"
        ],
        "status": "Active",
        "post_code": "ME2 4BH",
        "uprn": "Unknown"
    },
    {
        "org_id": "FV104",
        "name": "SALTS MEDILINK",
        "primary_role_id": "RO94",
        "role_ids": [
            "RO94"
        ],
        "status": "Active",
        "post_code": "EX4 6RY",
        "uprn": "100040233616"
    },
    {
        "org_id": "FV224",
        "name": "FITTLEWORTH MEDICAL LIMITED",
        "primary_role_id": "RO94",
        "role_ids": [
            "RO94"
        ],
        "status": "Active",
        "post_code": "KT1 3GZ",
        "uprn": "Unknown"
    },
    {
        "org_id": "FVQ58",
        "name": "SCRIPT EASY",
        "primary_role_id": "RO94",
        "role_ids": [
            "RO94"
        ],
        "status": "Active",
        "post_code": "BN14 8ND",
        "uprn": "Unknown"
    },
    {
        "org_id": "FVT91",
        "name": "SALTS HEALTHCARE LIMITED",
        "primary_role_id": "RO94",
        "role_ids": [
            "RO94"
        ],
        "status": "Active",
        "post_code": "S41 7SH",
        "uprn": "74005587"
    },
    {
        "org_id": "FVW18",
        "name": "FITTLEWORTH MEDICAL LIMITED",
        "primary_role_id": "RO94",
        "role_ids": [
            "RO94"
        ],
        "status": "Active",
        "post_code": "SM6 7DJ",
        "uprn": "Unknown"
    },
    {
        "org_id": "FW285",
        "name": "FITTLEWORTH MEDICAL LIMITED",
        "primary_role_id": "RO94",
        "role_ids": [
            "RO94"
        ],
        "status": "Active",
        "post_code": "PR2 9WT",
        "uprn": "Unknown"
    },
    {
        "org_id": "FWC51",
        "name": "FITTLEWORTH MEDICAL LTD",
        "primary_role_id": "RO94",
        "role_ids": [
            "RO94"
        ],
        "status": "Active",
        "post_code": "CO1 2ZF",
        "uprn": "Unknown"
    },
    {
        "org_id": "FWE39",
        "name": "FITTLEWORTH MEDICAL LIMITED",
        "primary_role_id": "RO94",
        "role_ids": [
            "RO94"
        ],
        "status": "Active",
        "post_code": "NN1 2BG",
        "uprn": "15050261"
    },
    {
        "org_id": "FWN89",
        "name": "PATIENT CHOICE LTD",
        "primary_role_id": "RO94",
        "role_ids": [
            "RO94"
        ],
        "status": "Active",
        "post_code": "SS5 4QS",
        "uprn": "Unknown"
    },
    {
        "org_id": "FWP06",
        "name": "SALTS MEDILINK",
        "primary_role_id": "RO94",
        "role_ids": [
            "RO94"
        ],
        "status": "Active",
        "post_code": "BH1 1HF",
        "uprn": "Unknown"
    },
    {
        "org_id": "FWP87",
        "name": "FITTLEWORTH MEDICAL LTD",
        "primary_role_id": "RO94",
        "role_ids": [
            "RO94"
        ],
        "status": "Active",
        "post_code": "NR8 6QW",
        "uprn": "10009921789"
    },
    {
        "org_id": "FXF12",
        "name": "BULLENS",
        "primary_role_id": "RO94",
        "role_ids": [
            "RO94"
        ],
        "status": "Active",
        "post_code": "L3 4BH",
        "uprn": "Unknown"
    },
    {
        "org_id": "FXF13",
        "name": "SALTS MEDILINK",
        "primary_role_id": "RO94",
        "role_ids": [
            "RO94"
        ],
        "status": "Active",
        "post_code": "B7 4AA",
        "uprn": "Unknown"
    },
    {
        "org_id": "FXG29",
        "name": "FITTLEWORTH MEDICAL LTD",
        "primary_role_id": "RO94",
        "role_ids": [
            "RO94"
        ],
        "status": "Active",
        "post_code": "S63 0JF",
        "uprn": "2007009372"
    },
    {
        "org_id": "FC879",
        "name": "FITTLEWORTH MEDICAL LIMITED",
        "primary_role_id": "RO94",
        "role_ids": [
            "RO94"
        ],
        "status": "Active",
        "post_code": "NG8 6AS",
        "uprn": "Unknown"
    },
    {
        "org_id": "FPC27",
        "name": "CHARLES S BULLEN STOMACARE LTD",
        "primary_role_id": "RO94",
        "role_ids": [
            "RO94"
        ],
        "status": "Active",
        "post_code": "M34 3JY",
        "uprn": "Unknown"
    },
    {
        "org_id": "FWL22",
        "name": "CHARLES S BULLEN STOMACARE LTD",
        "primary_role_id": "RO94",
        "role_ids": [
            "RO94"
        ],
        "status": "Active",
        "post_code": "SK1 3BP",
        "uprn": "Unknown"
    },
    {
        "org_id": "FH767",
        "name": "NIGHTINGALE HOME DELIVERY SERVICE",
        "primary_role_id": "RO94",
        "role_ids": [
            "RO94"
        ],
        "status": "Active",
        "post_code": "TA6 4DL",
        "uprn": "Unknown"
    },
    {
        "org_id": "FTR18",
        "name": "MANFRED SAUER CARE",
        "primary_role_id": "RO94",
        "role_ids": [
            "RO94"
        ],
        "status": "Active",
        "post_code": "NN5 7UW",
        "uprn": "Unknown"
    },
    {
        "org_id": "FWN04",
        "name": "CHARLES S BULLEN STOMACARE LIMITED",
        "primary_role_id": "RO94",
        "role_ids": [
            "RO94"
        ],
        "status": "Active",
        "post_code": "SO32 1QD",
        "uprn": "10034497905"
    },
    {
        "org_id": "FL755",
        "name": "VYNE",
        "primary_role_id": "RO94",
        "role_ids": [
            "RO94"
        ],
        "status": "Active",
        "post_code": "N7 8EG",
        "uprn": "10090267168"
    },
    {
        "org_id": "FWM67",
        "name": "SALTS HEALTHCARE LTD",
        "primary_role_id": "RO94",
        "role_ids": [
            "RO94"
        ],
        "status": "Active",
        "post_code": "CF64 2AJ",
        "uprn": "100100918278"
    },
    {
        "org_id": "FWN44",
        "name": "FITTLEWORTH MEDICAL LTD",
        "primary_role_id": "RO94",
        "role_ids": [
            "RO94"
        ],
        "status": "Active",
        "post_code": "CF24 5JQ",
        "uprn": "Unknown"
    },
    {
        "org_id": "FWN51",
        "name": "RESPOND HEALTHCARE LTD",
        "primary_role_id": "RO94",
        "role_ids": [
            "RO94"
        ],
        "status": "Active",
        "post_code": "CF14 5WF",
        "uprn": "10092987321"
    },
    {
        "org_id": "FWN67",
        "name": "NIGHTINGALE",
        "primary_role_id": "RO94",
        "role_ids": [
            "RO94"
        ],
        "status": "Active",
        "post_code": "CF14 5GG",
        "uprn": "Unknown"
    },
    {
        "org_id": "FQ449",
        "name": "ROCIALLE DIRECT",
        "primary_role_id": "RO94",
        "role_ids": [
            "RO94"
        ],
        "status": "Active",
        "post_code": "SS8 7AJ",
        "uprn": "100091601605"
    },
    {
        "org_id": "FGJ75",
        "name": "NIGHTINGALE HOMECARE SERVICES LIMITED",
        "primary_role_id": "RO94",
        "role_ids": [
            "RO94"
        ],
        "status": "Active",
        "post_code": "CF14 5GG",
        "uprn": "10002523564"
    }
]