[
    {
        "org_id": "YDDAA",
        "name": "SOLUTIONS FOR PUBLIC HEALTH",
        "primary_role_id": "RO161",
        "role_ids": [
            "RO161"
        ],
        "status": "Active",
        "post_code": "OX4 2GX",
        "uprn": "Unknown"
    },
    {
        "org_id": "YDDDR",
        "name": "SCPCT ALLIANCE CES ANALYTICS SHARED SERVICE",
        "primary_role_id": "RO161",
        "role_ids": [
            "RO161"
        ],
        "status": "Active",
        "post_code": "OX4 2LH",
        "uprn": "Unknown"
    },
    {
        "org_id": "YDD06",
        "name": "CARE SUPPORT SERVICES CHESHIRE",
        "primary_role_id": "RO161",
        "role_ids": [
            "RO161"
        ],
        "status": "Active",
        "post_code": "CH2 1DU",
        "uprn": "Unknown"
    },
    {
        "org_id": "YDD11",
        "name": "EAST LANCASHIRE FINANCIAL SHARED SERVICES",
        "primary_role_id": "RO161",
        "role_ids": [
            "RO161"
        ],
        "status": "Active",
        "post_code": "BB2 3HH",
        "uprn": "Unknown"
    },
    {
        "org_id": "YDD13",
        "name": "EAST RIDING & NORTH LINCOLNSHIRE PRIMARY CARE AGENCY",
        "primary_role_id": "RO161",
        "role_ids": [
            "RO161"
        ],
        "status": "Active",
        "post_code": "HU10 6DT",
        "uprn": "Unknown"
    },
    {
        "org_id": "YDD15",
        "name": "GLOUCESTERSHIRE SHARED SERVICES AGENCY",
        "primary_role_id": "RO161",
        "role_ids": [
            "RO161"
        ],
        "status": "Active",
        "post_code": "GL1 2EL",
        "uprn": "Unknown"
    },
    {
        "org_id": "YDD16",
        "name": "HAMPSHIRE SHARED SERVICES",
        "primary_role_id": "RO161",
        "role_ids": [
            "RO161"
        ],
        "status": "Active",
        "post_code": "SO52 9AB",
        "uprn": "Unknown"
    },
    {
        "org_id": "YDD19",
        "name": "LINCOLN SHARED SERVICES",
        "primary_role_id": "RO161",
        "role_ids": [
            "RO161"
        ],
        "status": "Active",
        "post_code": "LN1 1EJ",
        "uprn": "Unknown"
    },
    {
        "org_id": "YDD23",
        "name": "EASTERN SUPPORT SERVICES",
        "primary_role_id": "RO161",
        "role_ids": [
            "RO161"
        ],
        "status": "Active",
        "post_code": "NR7 0HT",
        "uprn": "Unknown"
    },
    {
        "org_id": "YDD28",
        "name": "NORTHAMPTONSHIRE HEALTH SUPPORT SERVICES",
        "primary_role_id": "RO161",
        "role_ids": [
            "RO161"
        ],
        "status": "Active",
        "post_code": "NN1 5DN",
        "uprn": "Unknown"
    },
    {
        "org_id": "YDD31",
        "name": "ROYAL DEVON & EXETER FINANCIAL SHARED SERVICES",
        "primary_role_id": "RO161",
        "role_ids": [
            "RO161"
        ],
        "status": "Active",
        "post_code": "EX2 5DW",
        "uprn": "Unknown"
    },
    {
        "org_id": "YDD32",
        "name": "RUSHCLIFFE PCT SHARED SERVICES",
        "primary_role_id": "RO161",
        "role_ids": [
            "RO161"
        ],
        "status": "Active",
        "post_code": "NG1 6GN",
        "uprn": "Unknown"
    },
    {
        "org_id": "YDD34",
        "name": "SHEFFIELD FINANCIAL SHARED SERVICES",
        "primary_role_id": "RO161",
        "role_ids": [
            "RO161"
        ],
        "status": "Active",
        "post_code": "S10 3TG",
        "uprn": "Unknown"
    },
    {
        "org_id": "YDD35",
        "name": "SOUTH & WEST DEVON SHARED SERVICES AGENCY",
        "primary_role_id": "RO161",
        "role_ids": [
            "RO161"
        ],
        "status": "Active",
        "post_code": "PL6 5XZ",
        "uprn": "Unknown"
    },
    {
        "org_id": "YDD39",
        "name": "SUFFOLK SUPPORT SERVICES",
        "primary_role_id": "RO161",
        "role_ids": [
            "RO161"
        ],
        "status": "Active",
        "post_code": "IP3 8LS",
        "uprn": "Unknown"
    },
    {
        "org_id": "YDD43",
        "name": "WEST YORKSHIRE SHARED SERVICE CENTRE",
        "primary_role_id": "RO161",
        "role_ids": [
            "RO161"
        ],
        "status": "Active",
        "post_code": "WF3 1SP",
        "uprn": "Unknown"
    },
    {
        "org_id": "YDD52",
        "name": "NORTH YORKSHIRE HEALTH INFORMATICS SERVICE",
        "primary_role_id": "RO161",
        "role_ids": [
            "RO161"
        ],
        "status": "Active",
        "post_code": "YO1 9PE",
        "uprn": "Unknown"
    },
    {
        "org_id": "YDD56",
        "name": "BIRMINGHAM PRIMARY CARE SHARED SERVICES AGENCY",
        "primary_role_id": "RO161",
        "role_ids": [
            "RO161"
        ],
        "status": "Active",
        "post_code": "B16 9RG",
        "uprn": "Unknown"
    },
    {
        "org_id": "YDD58",
        "name": "COUNTY DURHAM & DARLINGTON SHARED SERVICES",
        "primary_role_id": "RO161",
        "role_ids": [
            "RO161"
        ],
        "status": "Active",
        "post_code": "DH1 5XZ",
        "uprn": "Unknown"
    },
    {
        "org_id": "YDD59",
        "name": "AVON IM&T CONSORTIUM",
        "primary_role_id": "RO161",
        "role_ids": [
            "RO161"
        ],
        "status": "Active",
        "post_code": "BS2 8EE",
        "uprn": "Unknown"
    },
    {
        "org_id": "YDD63",
        "name": "PATIENT & PRACTITIONER SERVICES AGENCY (DEVON)",
        "primary_role_id": "RO161",
        "role_ids": [
            "RO161"
        ],
        "status": "Active",
        "post_code": "EX1 1RB",
        "uprn": "Unknown"
    },
    {
        "org_id": "YDDC2",
        "name": "EAST OF ENGLAND SPECIALISED COMMISSIONING GROUP",
        "primary_role_id": "RO161",
        "role_ids": [
            "RO67",
            "RO161"
        ],
        "status": "Active",
        "post_code": "CM24 1SJ",
        "uprn": "Unknown"
    },
    {
        "org_id": "YDDE3",
        "name": "NORTH EAST PRIMARY CARE SERVICES AGENCY (RAPIER HOUSE)",
        "primary_role_id": "RO161",
        "role_ids": [
            "RO161"
        ],
        "status": "Active",
        "post_code": "SR5 3XB",
        "uprn": "Unknown"
    },
    {
        "org_id": "YDD69",
        "name": "WAKEFIELD HEALTH INFORMATICS SERVICE",
        "primary_role_id": "RO161",
        "role_ids": [
            "RO161"
        ],
        "status": "Active",
        "post_code": "WF1 1LT",
        "uprn": "Unknown"
    },
    {
        "org_id": "YDD20",
        "name": "MANCHESTER SHARED SERVICES",
        "primary_role_id": "RO161",
        "role_ids": [
            "RO161"
        ],
        "status": "Active",
        "post_code": "M21 7RL",
        "uprn": "Unknown"
    },
    {
        "org_id": "YDDDF",
        "name": "NHS GREATER MANCHESTER",
        "primary_role_id": "RO161",
        "role_ids": [
            "RO161"
        ],
        "status": "Active",
        "post_code": "M6 6FP",
        "uprn": "Unknown"
    },
    {
        "org_id": "YDDDG",
        "name": "CHESHIRE ICT SERVICE",
        "primary_role_id": "RO161",
        "role_ids": [
            "RO161"
        ],
        "status": "Active",
        "post_code": "SK10 2LU",
        "uprn": "Unknown"
    },
    {
        "org_id": "YDD60",
        "name": "SOUTH ESSEX PCT IM&T SERVICE",
        "primary_role_id": "RO161",
        "role_ids": [
            "RO161"
        ],
        "status": "Active",
        "post_code": "CM13 3BE",
        "uprn": "Unknown"
    },
    {
        "org_id": "YDD73",
        "name": "WEST MIDLANDS SOUTH LOCAL SPECIALISED COMMISSIONING CONSORTIA",
        "primary_role_id": "RO161",
        "role_ids": [
            "RO161"
        ],
        "status": "Active",
        "post_code": "HR2 9RP",
        "uprn": "Unknown"
    },
    {
        "org_id": "YDD74",
        "name": "NORTH YORKSHIRE ALLIANCE RESEARCH & DEVELOPMENT UNIT",
        "primary_role_id": "RO161",
        "role_ids": [
            "RO30",
            "RO161"
        ],
        "status": "Active",
        "post_code": "YO30 7BY",
        "uprn": "Unknown"
    },
    {
        "org_id": "YDD36",
        "name": "SOUTH EAST LONDON SHARED SERVICE PARTNERSHIP",
        "primary_role_id": "RO161",
        "role_ids": [
            "RO161"
        ],
        "status": "Active",
        "post_code": "SE1 7NT",
        "uprn": "100023225356"
    },
    {
        "org_id": "YDDE8",
        "name": "SUFFOLK COUNTY WORKFORCE GROUP",
        "primary_role_id": "RO161",
        "role_ids": [
            "RO161"
        ],
        "status": "Active",
        "post_code": "IP8 4DW",
        "uprn": "Unknown"
    },
    {
        "org_id": "YDDE6",
        "name": "LANCASHIRE INFORMATION SERVICE",
        "primary_role_id": "RO161",
        "role_ids": [
            "RO161"
        ],
        "status": "Active",
        "post_code": "LA1 1QD",
        "uprn": "Unknown"
    },
    {
        "org_id": "YDD50",
        "name": "ANGLIA SUPPORT PARTNERSHIP",
        "primary_role_id": "RO161",
        "role_ids": [
            "RO161"
        ],
        "status": "Active",
        "post_code": "PE3 6JG",
        "uprn": "Unknown"
    },
    {
        "org_id": "YDD01",
        "name": "BARNET, ENFIELD, HARINGEY SHARED FINANCIAL SERVICES",
        "primary_role_id": "RO161",
        "role_ids": [
            "RO161"
        ],
        "status": "Active",
        "post_code": "EN1 1NJ",
        "uprn": "Unknown"
    },
    {
        "org_id": "YDD04",
        "name": "BUCKINGHAMSHIRE SHARED SERVICES",
        "primary_role_id": "RO161",
        "role_ids": [
            "RO161"
        ],
        "status": "Active",
        "post_code": "HP19 8ET",
        "uprn": "Unknown"
    },
    {
        "org_id": "YDD07",
        "name": "CORNWALL SHARED FINANCIAL SERVICES",
        "primary_role_id": "RO161",
        "role_ids": [
            "RO161"
        ],
        "status": "Active",
        "post_code": "PL26 6AD",
        "uprn": "Unknown"
    },
    {
        "org_id": "YDD09",
        "name": "DONCASTER SHARED SERVICES AGENCY",
        "primary_role_id": "RO161",
        "role_ids": [
            "RO161"
        ],
        "status": "Active",
        "post_code": "DN4 8QN",
        "uprn": "Unknown"
    },
    {
        "org_id": "YDD10",
        "name": "EAST KENT FINANCE CONSORTIUM",
        "primary_role_id": "RO161",
        "role_ids": [
            "RO161"
        ],
        "status": "Active",
        "post_code": "CT1 3NG",
        "uprn": "Unknown"
    },
    {
        "org_id": "YDD22",
        "name": "NORTH SURREY SHARED FINANCIAL SERVICES",
        "primary_role_id": "RO161",
        "role_ids": [
            "RO161"
        ],
        "status": "Active",
        "post_code": "KT16 0QA",
        "uprn": "Unknown"
    },
    {
        "org_id": "YDD24",
        "name": "NORTH DERBYSHIRE SHARED FINANCIAL SERVICES",
        "primary_role_id": "RO161",
        "role_ids": [
            "RO161"
        ],
        "status": "Active",
        "post_code": "S41 7PF",
        "uprn": "Unknown"
    },
    {
        "org_id": "YDD25",
        "name": "NORTH EAST LONDON MENTAL HEALTH TRUST SHARED SERVICES",
        "primary_role_id": "RO161",
        "role_ids": [
            "RO161"
        ],
        "status": "Active",
        "post_code": "IG3 8XJ",
        "uprn": "Unknown"
    },
    {
        "org_id": "YDD26",
        "name": "NORTH NOTTINGHAMSHIRE FINANCIAL SHARED SERVICES AGENCY",
        "primary_role_id": "RO161",
        "role_ids": [
            "RO161"
        ],
        "status": "Active",
        "post_code": "NG21 0ER",
        "uprn": "Unknown"
    },
    {
        "org_id": "YDD29",
        "name": "NORTH WEST LONDON SHARED SERVICES",
        "primary_role_id": "RO161",
        "role_ids": [
            "RO161"
        ],
        "status": "Active",
        "post_code": "HA1 3UJ",
        "uprn": "Unknown"
    },
    {
        "org_id": "YDD30",
        "name": "OXFORDSHIRE HEALTHCARE SUPPORT SERVICES",
        "primary_role_id": "RO161",
        "role_ids": [
            "RO161"
        ],
        "status": "Active",
        "post_code": "OX28 4GJ",
        "uprn": "Unknown"
    },
    {
        "org_id": "YDD33",
        "name": "SOUTH ESSEX SHARED SERVICES",
        "primary_role_id": "RO161",
        "role_ids": [
            "RO161"
        ],
        "status": "Active",
        "post_code": "RM16 2PX",
        "uprn": "Unknown"
    },
    {
        "org_id": "YDD38",
        "name": "ST HELENS SHARED SERVICES",
        "primary_role_id": "RO161",
        "role_ids": [
            "RO161"
        ],
        "status": "Active",
        "post_code": "WA10 2AP",
        "uprn": "Unknown"
    },
    {
        "org_id": "YDD53",
        "name": "PARTNERSHIP HEALTH INFORMATICS - SOUTH WEST LONDON",
        "primary_role_id": "RO161",
        "role_ids": [
            "RO161"
        ],
        "status": "Active",
        "post_code": "CR4 4TP",
        "uprn": "Unknown"
    },
    {
        "org_id": "YDD47",
        "name": "YORK HEALTH SERVICES NHS TRUST SHARED SERVICES",
        "primary_role_id": "RO161",
        "role_ids": [
            "RO161"
        ],
        "status": "Active",
        "post_code": "YO31 8ZZ",
        "uprn": "Unknown"
    },
    {
        "org_id": "YDD64",
        "name": "CORNWALL IT SERVICES",
        "primary_role_id": "RO161",
        "role_ids": [
            "RO161"
        ],
        "status": "Active",
        "post_code": "TR1 3LJ",
        "uprn": "Unknown"
    },
    {
        "org_id": "YDD40",
        "name": "WEST DORSET SUPPORT SERVICES CONSORTIUM",
        "primary_role_id": "RO161",
        "role_ids": [
            "RO161"
        ],
        "status": "Active",
        "post_code": "DT2 9TB",
        "uprn": "Unknown"
    },
    {
        "org_id": "YDD41",
        "name": "WEST KENT SHARED SERVICES AGENCY",
        "primary_role_id": "RO161",
        "role_ids": [
            "RO161"
        ],
        "status": "Active",
        "post_code": "ME19 4JA",
        "uprn": "Unknown"
    },
    {
        "org_id": "YDD46",
        "name": "WORCESTER SHARED SERVICES AGENCY",
        "primary_role_id": "RO161",
        "role_ids": [
            "RO161"
        ],
        "status": "Active",
        "post_code": "WR4 9RW",
        "uprn": "Unknown"
    },
    {
        "org_id": "YDD44",
        "name": "WHIPPS CROSS HEALTHCARE SHARED SERVICES",
        "primary_role_id": "RO161",
        "role_ids": [
            "RO161"
        ],
        "status": "Active",
        "post_code": "IG10 4LF",
        "uprn": "Unknown"
    },
    {
        "org_id": "YDD05",
        "name": "CHELSEA & WESTMINSTER NHS TRUST SHARED SERVICES",
        "primary_role_id": "RO161",
        "role_ids": [
            "RO161"
        ],
        "status": "Active",
        "post_code": "SW10 9NH",
        "uprn": "Unknown"
    },
    {
        "org_id": "YDD12",
        "name": "EAST LONDON & CITY FINANCIAL SERVICES CONSORTIUM",
        "primary_role_id": "RO161",
        "role_ids": [
            "RO161"
        ],
        "status": "Active",
        "post_code": "E1 1RD",
        "uprn": "Unknown"
    },
    {
        "org_id": "YDDAF",
        "name": "STAFFORDSHIRE & SHROPSHIRE HIS (MELLOR HOUSE)",
        "primary_role_id": "RO161",
        "role_ids": [
            "RO161"
        ],
        "status": "Active",
        "post_code": "ST16 3SR",
        "uprn": "Unknown"
    },
    {
        "org_id": "YDDDV",
        "name": "SOUTH WEST LONDON ACUTE COMMISSIONING UNIT",
        "primary_role_id": "RO161",
        "role_ids": [
            "RO67",
            "RO161"
        ],
        "status": "Active",
        "post_code": "SW19 3RU",
        "uprn": "Unknown"
    },
    {
        "org_id": "YDD21",
        "name": "MERSEY FINANCIAL SHARED SERVICES AGENCY",
        "primary_role_id": "RO161",
        "role_ids": [
            "RO161"
        ],
        "status": "Active",
        "post_code": "L13 4AW",
        "uprn": "Unknown"
    },
    {
        "org_id": "YDD68",
        "name": "CAMDEN AND ISLINGTON ICT SHARED SERVICE",
        "primary_role_id": "RO161",
        "role_ids": [
            "RO161"
        ],
        "status": "Active",
        "post_code": "NW1 2LS",
        "uprn": "Unknown"
    },
    {
        "org_id": "YDDD7",
        "name": "NHS NORTH OF TYNE SHARED SERVICE",
        "primary_role_id": "RO161",
        "role_ids": [
            "RO161"
        ],
        "status": "Active",
        "post_code": "NE13 9AA",
        "uprn": "Unknown"
    },
    {
        "org_id": "YDDAX",
        "name": "KENT AND MEDWAY SPECIALIST COMMISSIONING TEAM",
        "primary_role_id": "RO161",
        "role_ids": [
            "RO161"
        ],
        "status": "Active",
        "post_code": "ME20 7NJ",
        "uprn": "Unknown"
    },
    {
        "org_id": "YDDAY",
        "name": "HAVERING & BARKING PROVIDER HEALTH INFORMATICS SERVICE",
        "primary_role_id": "RO161",
        "role_ids": [
            "RO161"
        ],
        "status": "Active",
        "post_code": "RM12 6RS",
        "uprn": "Unknown"
    },
    {
        "org_id": "YDDA1",
        "name": "CHESHIRE INFORMATICS SERVICE",
        "primary_role_id": "RO161",
        "role_ids": [
            "RO161"
        ],
        "status": "Active",
        "post_code": "CH2 1HJ",
        "uprn": "Unknown"
    },
    {
        "org_id": "YDDD6",
        "name": "NORTH EAST LONDON FAMILY HEALTH SERVICES CONSORTIUM",
        "primary_role_id": "RO161",
        "role_ids": [
            "RO161"
        ],
        "status": "Active",
        "post_code": "E1 1RD",
        "uprn": "Unknown"
    },
    {
        "org_id": "YDDAL",
        "name": "TEES SHARED SERVICES",
        "primary_role_id": "RO161",
        "role_ids": [
            "RO161"
        ],
        "status": "Active",
        "post_code": "TS7 0NJ",
        "uprn": "Unknown"
    },
    {
        "org_id": "YDDAM",
        "name": "EAST LONDON & THE CITY ALLIANCE - HEALTH INTELLIGENCE UNIT",
        "primary_role_id": "RO161",
        "role_ids": [
            "RO161"
        ],
        "status": "Active",
        "post_code": "E1 1RD",
        "uprn": "Unknown"
    },
    {
        "org_id": "YDD89",
        "name": "COMMISSIONING BUSINESS SERVICE",
        "primary_role_id": "RO161",
        "role_ids": [
            "RO161"
        ],
        "status": "Active",
        "post_code": "M6 5FW",
        "uprn": "Unknown"
    },
    {
        "org_id": "YDDC1",
        "name": "NORTH LANCASHIRE HEALTH",
        "primary_role_id": "RO161",
        "role_ids": [
            "RO161"
        ],
        "status": "Active",
        "post_code": "PR4 3AL",
        "uprn": "Unknown"
    },
    {
        "org_id": "YDDDX",
        "name": "NHS SHARED BUSINESS SERVICES (SALFORD)",
        "primary_role_id": "RO161",
        "role_ids": [
            "RO161"
        ],
        "status": "Active",
        "post_code": "M50 2UW",
        "uprn": "Unknown"
    },
    {
        "org_id": "YDDAE",
        "name": "SOUTH THAMES SPINAL CORD INJURY CONSORTIUM",
        "primary_role_id": "RO161",
        "role_ids": [
            "RO161"
        ],
        "status": "Active",
        "post_code": "BN12 6BT",
        "uprn": "Unknown"
    },
    {
        "org_id": "YDDAG",
        "name": "WEST YORKSHIRE PCTS CARDIAC COMMISSIONING CONSORTIUM",
        "primary_role_id": "RO161",
        "role_ids": [
            "RO161"
        ],
        "status": "Active",
        "post_code": "LS8 3LG",
        "uprn": "Unknown"
    },
    {
        "org_id": "YDDAH",
        "name": "ORTHOPAEDIC PROFESSIONAL SERVICES",
        "primary_role_id": "RO161",
        "role_ids": [
            "RO161"
        ],
        "status": "Active",
        "post_code": "B91 1NB",
        "uprn": "100070979055"
    },
    {
        "org_id": "YDD17",
        "name": "HERTFORDSHIRE, BEDFORDSHIRE AND LUTON ICT SHARED SERVICES",
        "primary_role_id": "RO161",
        "role_ids": [
            "RO161"
        ],
        "status": "Active",
        "post_code": "AL8 6JL",
        "uprn": "100081157584"
    },
    {
        "org_id": "YDD86",
        "name": "NORTH AND MID HAMPSHIRE HEALTH INFORMATICS SERVICE",
        "primary_role_id": "RO161",
        "role_ids": [
            "RO161"
        ],
        "status": "Active",
        "post_code": "RG24 9RH",
        "uprn": "Unknown"
    },
    {
        "org_id": "YDD49",
        "name": "HULL & EAST RIDING HEALTH INFORMATICS SERVICE",
        "primary_role_id": "RO161",
        "role_ids": [
            "RO161"
        ],
        "status": "Active",
        "post_code": "HU10 6DT",
        "uprn": "Unknown"
    },
    {
        "org_id": "YDDAP",
        "name": "LINCOLNSHIRE NHS SHARED SERVICES",
        "primary_role_id": "RO161",
        "role_ids": [
            "RO161"
        ],
        "status": "Active",
        "post_code": "LN4 2HN",
        "uprn": "Unknown"
    },
    {
        "org_id": "YDDC5",
        "name": "PLYMOUTH INFORMATION, COMMUNICATIONS AND TECHNOLOGY SERVICE",
        "primary_role_id": "RO161",
        "role_ids": [
            "RO161"
        ],
        "status": "Active",
        "post_code": "PL6 5YE",
        "uprn": "Unknown"
    },
    {
        "org_id": "YDDA2",
        "name": "LEICESTER CITY PCT (LNR SPECIALISED SERVICES GROUP-HOSTED)",
        "primary_role_id": "RO161",
        "role_ids": [
            "RO161"
        ],
        "status": "Active",
        "post_code": "LE1 6NB",
        "uprn": "Unknown"
    },
    {
        "org_id": "YDD96",
        "name": "SOMERSET HEALTH INFORMATICS SERVICE",
        "primary_role_id": "RO161",
        "role_ids": [
            "RO161"
        ],
        "status": "Active",
        "post_code": "TA1 3EN",
        "uprn": "Unknown"
    },
    {
        "org_id": "YDDC7",
        "name": "KENT PRIMARY CARE AGENCY",
        "primary_role_id": "RO161",
        "role_ids": [
            "RO161"
        ],
        "status": "Active",
        "post_code": "ME14 1QH",
        "uprn": "Unknown"
    },
    {
        "org_id": "YDDA6",
        "name": "WEST LONDON HEALTH ESTATES & FACILITIES MANAGEMENT",
        "primary_role_id": "RO161",
        "role_ids": [
            "RO161"
        ],
        "status": "Active",
        "post_code": "W13 9DJ",
        "uprn": "Unknown"
    },
    {
        "org_id": "YDD66",
        "name": "CAMBRIDGESHIRE AND PETERBOROUGH PUBLIC HEALTH NETWORK",
        "primary_role_id": "RO161",
        "role_ids": [
            "RO161"
        ],
        "status": "Active",
        "post_code": "PE29 1BL",
        "uprn": "Unknown"
    },
    {
        "org_id": "YDDAW",
        "name": "NHS NORTH OF TYNE INFORMATION SERVICE",
        "primary_role_id": "RO161",
        "role_ids": [
            "RO161"
        ],
        "status": "Active",
        "post_code": "NE27 0QJ",
        "uprn": "Unknown"
    },
    {
        "org_id": "YDDDK",
        "name": "LAMBETH, SOUTHWARK & LEWISHAM ALLIANCE",
        "primary_role_id": "RO161",
        "role_ids": [
            "RO67",
            "RO161"
        ],
        "status": "Active",
        "post_code": "SE1 7NT",
        "uprn": "Unknown"
    },
    {
        "org_id": "YDDDH",
        "name": "NORTH EAST FAMILY HEALTH SERVICES AGENCY (SOUTH)",
        "primary_role_id": "RO161",
        "role_ids": [
            "RO161"
        ],
        "status": "Active",
        "post_code": "DL3 7DT",
        "uprn": "Unknown"
    },
    {
        "org_id": "YDD02",
        "name": "BEDFORDSHIRE SHARED SERVICES",
        "primary_role_id": "RO161",
        "role_ids": [
            "RO161"
        ],
        "status": "Active",
        "post_code": "LU1 2PJ",
        "uprn": "Unknown"
    },
    {
        "org_id": "YDDDY",
        "name": "WAKEFIELD AND CALDERDALE SHARED SERVICE",
        "primary_role_id": "RO161",
        "role_ids": [
            "RO161"
        ],
        "status": "Active",
        "post_code": "WF1 1LT",
        "uprn": "Unknown"
    },
    {
        "org_id": "YDD72",
        "name": "LEICESTERSHIRE HEALTH INFORMATICS SERVICE",
        "primary_role_id": "RO161",
        "role_ids": [
            "RO161"
        ],
        "status": "Active",
        "post_code": "LE5 4QF",
        "uprn": "Unknown"
    },
    {
        "org_id": "YDDDD",
        "name": "NCL ACUTE COMMISSIONING AGENCY",
        "primary_role_id": "RO161",
        "role_ids": [
            "RO161"
        ],
        "status": "Active",
        "post_code": "NW1 0PE",
        "uprn": "Unknown"
    },
    {
        "org_id": "YDDDE",
        "name": "EAST OF ENGLAND AIV PROGRAMME",
        "primary_role_id": "RO161",
        "role_ids": [
            "RO161"
        ],
        "status": "Active",
        "post_code": "CB2 8FH",
        "uprn": "Unknown"
    },
    {
        "org_id": "YDD70",
        "name": "ST HELENS AND KNOWSLEY HEALTH INFORMATICS SERVICE",
        "primary_role_id": "RO161",
        "role_ids": [
            "RO161"
        ],
        "status": "Active",
        "post_code": "L35 5DR",
        "uprn": "Unknown"
    },
    {
        "org_id": "YDD76",
        "name": "NOTTINGHAMSHIRE HEALTH INFORMATICS SERVICE",
        "primary_role_id": "RO161",
        "role_ids": [
            "RO161"
        ],
        "status": "Active",
        "post_code": "NG17 4JL",
        "uprn": "Unknown"
    },
    {
        "org_id": "YDD77",
        "name": "NEWCASTLE AND NORTH TYNESIDE PCTS SHARED IM&T SERVICE",
        "primary_role_id": "RO161",
        "role_ids": [
            "RO161"
        ],
        "status": "Active",
        "post_code": "NE27 0QJ",
        "uprn": "Unknown"
    },
    {
        "org_id": "YDD98",
        "name": "WEST MIDLANDS SPECIALISED COMMISSIONING GROUP",
        "primary_role_id": "RO161",
        "role_ids": [
            "RO67",
            "RO161"
        ],
        "status": "Active",
        "post_code": "B16 9RG",
        "uprn": "Unknown"
    },
    {
        "org_id": "YDDDQ",
        "name": "DEVON SHARED COMMISSIONING SERVICE",
        "primary_role_id": "RO161",
        "role_ids": [
            "RO161"
        ],
        "status": "Active",
        "post_code": "PL6 5QZ",
        "uprn": "Unknown"
    },
    {
        "org_id": "YDD67",
        "name": "HAMPSHIRE IT SOLUTIONS",
        "primary_role_id": "RO161",
        "role_ids": [
            "RO161"
        ],
        "status": "Active",
        "post_code": "SO40 2RX",
        "uprn": "Unknown"
    },
    {
        "org_id": "YDDE5",
        "name": "NHS SHARED BUSINESS SERVICES (DEVON)",
        "primary_role_id": "RO161",
        "role_ids": [
            "RO161"
        ],
        "status": "Active",
        "post_code": "EX1 3QF",
        "uprn": "Unknown"
    },
    {
        "org_id": "YDDAK",
        "name": "SOUTH WEST SPECIALISED COMMISSIONING GROUP",
        "primary_role_id": "RO161",
        "role_ids": [
            "RO67",
            "RO161"
        ],
        "status": "Active",
        "post_code": "BS6 6AU",
        "uprn": "Unknown"
    },
    {
        "org_id": "YDD82",
        "name": "NATIONAL COMMISSIONING GROUP",
        "primary_role_id": "RO161",
        "role_ids": [
            "RO67",
            "RO161"
        ],
        "status": "Active",
        "post_code": "SW1E 6QT",
        "uprn": "Unknown"
    },
    {
        "org_id": "YDDCA",
        "name": "NORTH EAST OFFENDER HEALTH COMMISSIONING UNIT",
        "primary_role_id": "RO161",
        "role_ids": [
            "RO67",
            "RO161"
        ],
        "status": "Active",
        "post_code": "DH1 3YG",
        "uprn": "Unknown"
    },
    {
        "org_id": "YDDDC",
        "name": "CUMBRIA & LANCASHIRE COMMISSIONING BUSINESS SERVICE",
        "primary_role_id": "RO161",
        "role_ids": [
            "RO161"
        ],
        "status": "Active",
        "post_code": "PR4 3AL",
        "uprn": "Unknown"
    },
    {
        "org_id": "YDDD8",
        "name": "HERTFORDSHIRE NHS PROCUREMENT",
        "primary_role_id": "RO161",
        "role_ids": [
            "RO161"
        ],
        "status": "Active",
        "post_code": "AL8 6NS",
        "uprn": "200003857921"
    },
    {
        "org_id": "YDDDN",
        "name": "OUTER NORTH EAST LONDON ACUTE COMMISSIONING UNIT",
        "primary_role_id": "RO161",
        "role_ids": [
            "RO161"
        ],
        "status": "Active",
        "post_code": "IG1 2QX",
        "uprn": "Unknown"
    },
    {
        "org_id": "YDDA4",
        "name": "WORCESTERSHIRE HEALTH ICT SERVICES",
        "primary_role_id": "RO161",
        "role_ids": [
            "RO161"
        ],
        "status": "Active",
        "post_code": "WR5 1DD",
        "uprn": "Unknown"
    },
    {
        "org_id": "YDDE1",
        "name": "SOUTH EAST LONDON CARDIAC & STROKE NETWORK",
        "primary_role_id": "RO161",
        "role_ids": [
            "RO161"
        ],
        "status": "Active",
        "post_code": "SE11 6NL",
        "uprn": "200000524669"
    },
    {
        "org_id": "YDD81",
        "name": "SUSSEX HEALTH INFORMATICS SERVICE",
        "primary_role_id": "RO161",
        "role_ids": [
            "RO161"
        ],
        "status": "Active",
        "post_code": "BN12 6BY",
        "uprn": "Unknown"
    },
    {
        "org_id": "YDDDW",
        "name": "H3 PLUS COMMISSIONING GROUP",
        "primary_role_id": "RO161",
        "role_ids": [
            "RO67",
            "RO161"
        ],
        "status": "Active",
        "post_code": "LS20 9HE",
        "uprn": "72293153"
    },
    {
        "org_id": "YDDDJ",
        "name": "NHS COMMERCIAL SOLUTIONS",
        "primary_role_id": "RO161",
        "role_ids": [
            "RO161"
        ],
        "status": "Active",
        "post_code": "RH4 1XA",
        "uprn": "Unknown"
    },
    {
        "org_id": "YDDA9",
        "name": "TIAA",
        "primary_role_id": "RO161",
        "role_ids": [
            "RO161"
        ],
        "status": "Active",
        "post_code": "PO14 1AH",
        "uprn": "10012138920"
    },
    {
        "org_id": "YDD37",
        "name": "NHS SHARED BUSINESS SERVICES LTD (BRISTOL)",
        "primary_role_id": "RO161",
        "role_ids": [
            "RO161"
        ],
        "status": "Active",
        "post_code": "BS1 5UE",
        "uprn": "364872"
    },
    {
        "org_id": "YDDD9",
        "name": "NHS SHARED BUSINESS SERVICES LTD (FHS)",
        "primary_role_id": "RO161",
        "role_ids": [
            "RO161"
        ],
        "status": "Active",
        "post_code": "E15 2SY",
        "uprn": "Unknown"
    },
    {
        "org_id": "YDD92",
        "name": "NHS SHARED BUSINESS SERVICES LTD (SOUTHAMPTON)",
        "primary_role_id": "RO161",
        "role_ids": [
            "RO161"
        ],
        "status": "Active",
        "post_code": "SO14 2AQ",
        "uprn": "100062501452"
    },
    {
        "org_id": "YDDA3",
        "name": "HCS (HEALTHCARE COMMISSIONING SERVICES)",
        "primary_role_id": "RO161",
        "role_ids": [
            "RO161"
        ],
        "status": "Active",
        "post_code": "DY2 8PG",
        "uprn": "Unknown"
    },
    {
        "org_id": "YDDD5",
        "name": "NHS LONDON HEALTH PROGRAMMES",
        "primary_role_id": "RO161",
        "role_ids": [
            "RO161"
        ],
        "status": "Active",
        "post_code": "NW1 2PL",
        "uprn": "Unknown"
    },
    {
        "org_id": "YDDDL",
        "name": "NHS SHARED BUSINESS SERVICES (VALENTINES HOUSE)",
        "primary_role_id": "RO161",
        "role_ids": [
            "RO161"
        ],
        "status": "Active",
        "post_code": "IG1 2DG",
        "uprn": "Unknown"
    },
    {
        "org_id": "YDD14",
        "name": "ESSEX SHARED SERVICES AGENCY",
        "primary_role_id": "RO161",
        "role_ids": [
            "RO161"
        ],
        "status": "Active",
        "post_code": "CM8 2TT",
        "uprn": "Unknown"
    },
    {
        "org_id": "YDD90",
        "name": "NHS SHARED BUSINESS SERVICES LTD (WAKEFIELD)",
        "primary_role_id": "RO161",
        "role_ids": [
            "RO161"
        ],
        "status": "Active",
        "post_code": "LS11 0EA",
        "uprn": "72805268"
    },
    {
        "org_id": "YDD91",
        "name": "NHS SHARED BUSINESS SERVICES LTD (PORTSMOUTH)",
        "primary_role_id": "RO161",
        "role_ids": [
            "RO161"
        ],
        "status": "Active",
        "post_code": "PO4 8LD",
        "uprn": "Unknown"
    },
    {
        "org_id": "YDD88",
        "name": "SUSSEX ACUTE COMMISSIONING SERVICES",
        "primary_role_id": "RO161",
        "role_ids": [
            "RO161"
        ],
        "status": "Active",
        "post_code": "BN12 6BT",
        "uprn": "Unknown"
    },
    {
        "org_id": "YDDA7",
        "name": "INFORMATION, KNOWLEDGE MANAGEMENT AND CONTRACT MANAGEMENT SHARED SERVICE UNIT",
        "primary_role_id": "RO161",
        "role_ids": [
            "RO161"
        ],
        "status": "Active",
        "post_code": "WA4 6HL",
        "uprn": "Unknown"
    },
    {
        "org_id": "YDDC6",
        "name": "HEALTHCARE PURCHASING CONSORTIUM",
        "primary_role_id": "RO161",
        "role_ids": [
            "RO161"
        ],
        "status": "Active",
        "post_code": "B16 8TG",
        "uprn": "Unknown"
    },
    {
        "org_id": "YDDD3",
        "name": "EAST MIDLANDS SPECIALISED COMMISSIONING GROUP",
        "primary_role_id": "RO161",
        "role_ids": [
            "RO67",
            "RO161"
        ],
        "status": "Active",
        "post_code": "LE1 6NB",
        "uprn": "Unknown"
    },
    {
        "org_id": "YDD95",
        "name": "THAMES VALLEY & SWINDON LOCAL SPECIALISED COMMISSIONING GROUP",
        "primary_role_id": "RO161",
        "role_ids": [
            "RO67",
            "RO161"
        ],
        "status": "Active",
        "post_code": "HP19 8ET",
        "uprn": "Unknown"
    },
    {
        "org_id": "YDDC9",
        "name": "SOUTH CENTRAL SPECIALISED COMMISSIONING GROUP",
        "primary_role_id": "RO161",
        "role_ids": [
            "RO67",
            "RO161"
        ],
        "status": "Active",
        "post_code": "SO16 4GX",
        "uprn": "Unknown"
    },
    {
        "org_id": "YDDD1",
        "name": "SOUTH EAST COAST SPECIALISED COMMISSIONING GROUP",
        "primary_role_id": "RO161",
        "role_ids": [
            "RO67",
            "RO161"
        ],
        "status": "Active",
        "post_code": "BN12 6BT",
        "uprn": "Unknown"
    },
    {
        "org_id": "YDDD2",
        "name": "YORKSHIRE AND THE HUMBER SPECIALISED COMMISSIONING GROUP",
        "primary_role_id": "RO161",
        "role_ids": [
            "RO67",
            "RO161"
        ],
        "status": "Active",
        "post_code": "S75 2PY",
        "uprn": "Unknown"
    },
    {
        "org_id": "YDD99",
        "name": "NORTH EAST SPECIALISED COMMISSIONING GROUP",
        "primary_role_id": "RO161",
        "role_ids": [
            "RO67",
            "RO161"
        ],
        "status": "Active",
        "post_code": "NE27 0QJ",
        "uprn": "Unknown"
    },
    {
        "org_id": "YDDA8",
        "name": "NORTH WEST SPECIALISED COMMISSIONING GROUP",
        "primary_role_id": "RO161",
        "role_ids": [
            "RO67",
            "RO161"
        ],
        "status": "Active",
        "post_code": "WA4 6HL",
        "uprn": "Unknown"
    },
    {
        "org_id": "YDDAR",
        "name": "HERTFORDSHIRE HEALTH INFORMATICS SERVICE",
        "primary_role_id": "RO161",
        "role_ids": [
            "RO161"
        ],
        "status": "Active",
        "post_code": "AL8 6JL",
        "uprn": "100081157584"
    },
    {
        "org_id": "YDDAQ",
        "name": "NOTTINGHAM HEALTH INFORMATICS SERVICE",
        "primary_role_id": "RO161",
        "role_ids": [
            "RO161"
        ],
        "status": "Active",
        "post_code": "NG1 6GN",
        "uprn": "Unknown"
    },
    {
        "org_id": "YDDAT",
        "name": "BARKING & HAVERING COMMISSIONING HEALTH INFORMATION SERVICE",
        "primary_role_id": "RO161",
        "role_ids": [
            "RO161"
        ],
        "status": "Active",
        "post_code": "IG11 8EY",
        "uprn": "Unknown"
    },
    {
        "org_id": "YDD45",
        "name": "WILTSHIRE SHARED SERVICES",
        "primary_role_id": "RO161",
        "role_ids": [
            "RO161"
        ],
        "status": "Active",
        "post_code": "SN10 5EQ",
        "uprn": "Unknown"
    },
    {
        "org_id": "YDDE7",
        "name": "NHS SOUTH CSU SHARED SERVICE",
        "primary_role_id": "RO161",
        "role_ids": [
            "RO161"
        ],
        "status": "Active",
        "post_code": "SO16 4GX",
        "uprn": "Unknown"
    },
    {
        "org_id": "YDDE2",
        "name": "NHS SHARED BUSINESS SERVICES (EXETER)",
        "primary_role_id": "RO161",
        "role_ids": [
            "RO161"
        ],
        "status": "Active",
        "post_code": "EX5 1BA",
        "uprn": "Unknown"
    },
    {
        "org_id": "YDD08",
        "name": "DERBYSHIRE HEALTH INFORMATICS SERVICE",
        "primary_role_id": "RO161",
        "role_ids": [
            "RO161"
        ],
        "status": "Active",
        "post_code": "DE1 1LJ",
        "uprn": "Unknown"
    },
    {
        "org_id": "YDD27",
        "name": "STAFFORDSHIRE SHARED BUSINESS SERVICES",
        "primary_role_id": "RO161",
        "role_ids": [
            "RO161"
        ],
        "status": "Active",
        "post_code": "ST4 4LX",
        "uprn": "Unknown"
    },
    {
        "org_id": "YDDAJ",
        "name": "SALFORD ROYAL HOSPITALS LOCAL ICATS",
        "primary_role_id": "RO161",
        "role_ids": [
            "RO161"
        ],
        "status": "Active",
        "post_code": "M6 8HD",
        "uprn": "Unknown"
    },
    {
        "org_id": "YDDAV",
        "name": "PENNINE MUSCULOSKELETAL PARTNERSHIP (ICATS)",
        "primary_role_id": "RO161",
        "role_ids": [
            "RO161"
        ],
        "status": "Active",
        "post_code": "OL4 1JN",
        "uprn": "Unknown"
    },
    {
        "org_id": "YDD75",
        "name": "NORTH DERBYSHIRE HEALTH INFORMATICS SERVICE",
        "primary_role_id": "RO161",
        "role_ids": [
            "RO161"
        ],
        "status": "Active",
        "post_code": "S41 7PL",
        "uprn": "Unknown"
    },
    {
        "org_id": "YDDF1",
        "name": "ELFS SHARED SERVICES",
        "primary_role_id": "RO161",
        "role_ids": [
            "RO161"
        ],
        "status": "Active",
        "post_code": "BB3 0FG",
        "uprn": "Unknown"
    },
    {
        "org_id": "YDDF2",
        "name": "AUDIT NORTH WEST",
        "primary_role_id": "RO161",
        "role_ids": [
            "RO161"
        ],
        "status": "Active",
        "post_code": "BB2 3HH",
        "uprn": "Unknown"
    },
    {
        "org_id": "YDDD4",
        "name": "LONDON SPECIALISED COMMISSIONING GROUP",
        "primary_role_id": "RO161",
        "role_ids": [
            "RO67",
            "RO161"
        ],
        "status": "Active",
        "post_code": "SE1 7NT",
        "uprn": "100023225356"
    },
    {
        "org_id": "YDD83",
        "name": "THAMES VALLEY PRIMARY CARE AGENCY",
        "primary_role_id": "RO161",
        "role_ids": [
            "RO161"
        ],
        "status": "Active",
        "post_code": "RG1 8NQ",
        "uprn": "Unknown"
    },
    {
        "org_id": "YDD85",
        "name": "PRIMARY CARE SUPPORT SERVICE",
        "primary_role_id": "RO161",
        "role_ids": [
            "RO161"
        ],
        "status": "Active",
        "post_code": "BN15 8AF",
        "uprn": "Unknown"
    },
    {
        "org_id": "YDD57",
        "name": "SOUTH DEVON HEALTH INFORMATICS SERVICE",
        "primary_role_id": "RO161",
        "role_ids": [
            "RO161"
        ],
        "status": "Active",
        "post_code": "TQ2 7AN",
        "uprn": "Unknown"
    },
    {
        "org_id": "YDDF3",
        "name": "NHS IMAS",
        "primary_role_id": "RO161",
        "role_ids": [
            "RO30",
            "RO161"
        ],
        "status": "Active",
        "post_code": "LS2 7UE",
        "uprn": "Unknown"
    },
    {
        "org_id": "YDDF4",
        "name": "CHOICES",
        "primary_role_id": "RO161",
        "role_ids": [
            "RO161"
        ],
        "status": "Active",
        "post_code": "LS2 7UE",
        "uprn": "Unknown"
    },
    {
        "org_id": "YDDF5",
        "name": "NHS SHARED BUSINESS SERVICES (DORSET)",
        "primary_role_id": "RO161",
        "role_ids": [
            "RO161"
        ],
        "status": "Active",
        "post_code": "BH22 9AU",
        "uprn": "Unknown"
    },
    {
        "org_id": "YDDF6",
        "name": "NM&E COMMUNICATIONS",
        "primary_role_id": "RO161",
        "role_ids": [
            "RO161"
        ],
        "status": "Active",
        "post_code": "BD5 7JR",
        "uprn": "Unknown"
    },
    {
        "org_id": "YDDG5",
        "name": "NIHR BIORESOURCE",
        "primary_role_id": "RO161",
        "role_ids": [
            "RO30",
            "RO161"
        ],
        "status": "Active",
        "post_code": "CB2 0QQ",
        "uprn": "Unknown"
    },
    {
        "org_id": "YDDG6",
        "name": "NHS BENCHMARKING NETWORK",
        "primary_role_id": "RO161",
        "role_ids": [
            "RO161"
        ],
        "status": "Active",
        "post_code": "M22 5TG",
        "uprn": "10090665250"
    },
    {
        "org_id": "YDDF7",
        "name": "REGIONAL LEGACY MANAGEMENT TEAM HUB SOUTH",
        "primary_role_id": "RO161",
        "role_ids": [
            "RO161"
        ],
        "status": "Active",
        "post_code": "RG14 2PZ",
        "uprn": "Unknown"
    },
    {
        "org_id": "YDDF8",
        "name": "LEGACY CLOSEDOWN TEAM",
        "primary_role_id": "RO161",
        "role_ids": [
            "RO161"
        ],
        "status": "Active",
        "post_code": "SW1E 5RS",
        "uprn": "Unknown"
    },
    {
        "org_id": "YDDF9",
        "name": "REGIONAL LEGACY MANAGEMENT TEAM HUB NORTH",
        "primary_role_id": "RO161",
        "role_ids": [
            "RO161"
        ],
        "status": "Active",
        "post_code": "HG2 8RE",
        "uprn": "Unknown"
    },
    {
        "org_id": "YDDG0",
        "name": "REGIONAL LEGACY MANAGEMENT TEAM HUB MIDLANDS AND EAST",
        "primary_role_id": "RO161",
        "role_ids": [
            "RO161"
        ],
        "status": "Active",
        "post_code": "B16 9RG",
        "uprn": "Unknown"
    },
    {
        "org_id": "YDDDM",
        "name": "BROMLEY, BEXLEY & GREENWICH CONTRACTING PARTNERSHIP (BBG CP)",
        "primary_role_id": "RO161",
        "role_ids": [
            "RO161"
        ],
        "status": "Active",
        "post_code": "BR6 7UA",
        "uprn": "Unknown"
    },
    {
        "org_id": "YDDG2",
        "name": "CONNECTING CARE",
        "primary_role_id": "RO161",
        "role_ids": [
            "RO161"
        ],
        "status": "Active",
        "post_code": "BS1 3NX",
        "uprn": "Unknown"
    },
    {
        "org_id": "YDDG3",
        "name": "INFORMATICS MERSEYSIDE HQ",
        "primary_role_id": "RO161",
        "role_ids": [
            "RO161"
        ],
        "status": "Active",
        "post_code": "L30 7PT",
        "uprn": "Unknown"
    },
    {
        "org_id": "YDDG1",
        "name": "NEWCASTLE GATESHEAD ALLIANCE",
        "primary_role_id": "RO161",
        "role_ids": [
            "RO161"
        ],
        "status": "Active",
        "post_code": "NE13 9BA",
        "uprn": "Unknown"
    },
    {
        "org_id": "YDDG4",
        "name": "NHS SOUTH CHESHIRE CCG & NHS VALE ROYAL CCG",
        "primary_role_id": "RO161",
        "role_ids": [
            "RO161"
        ],
        "status": "Active",
        "post_code": "CW5 5QU",
        "uprn": "Unknown"
    },
    {
        "org_id": "YDDG8",
        "name": "PARTNERSHIP COMMISSIONING UNIT",
        "primary_role_id": "RO161",
        "role_ids": [
            "RO67",
            "RO161"
        ],
        "status": "Active",
        "post_code": "YO30 4GQ",
        "uprn": "Unknown"
    },
    {
        "org_id": "YDDH1",
        "name": "NHS SHARED BUSINESS SERVICES LTD (LONDON)",
        "primary_role_id": "RO161",
        "role_ids": [
            "RO161"
        ],
        "status": "Active",
        "post_code": "E16 4SA",
        "uprn": "Unknown"
    },
    {
        "org_id": "YDDH2",
        "name": "NHS SHARED BUSINESS SERVICES (DERBY)",
        "primary_role_id": "RO161",
        "role_ids": [
            "RO161"
        ],
        "status": "Active",
        "post_code": "DE1 3QT",
        "uprn": "Unknown"
    },
    {
        "org_id": "YDDH4",
        "name": "NHS SBS SHEFFIELD",
        "primary_role_id": "RO161",
        "role_ids": [
            "RO161"
        ],
        "status": "Active",
        "post_code": "S8 0SE",
        "uprn": "Unknown"
    },
    {
        "org_id": "YDDH5",
        "name": "OUR HEALTH PARTNERSHIP",
        "primary_role_id": "RO161",
        "role_ids": [
            "RO161"
        ],
        "status": "Active",
        "post_code": "B17 9DB",
        "uprn": "Unknown"
    },
    {
        "org_id": "YDDTR",
        "name": "NHS GREATER MANCHESTER SHARED SERVICES",
        "primary_role_id": "RO161",
        "role_ids": [
            "RO161"
        ],
        "status": "Active",
        "post_code": "OL9 6EE",
        "uprn": "Unknown"
    },
    {
        "org_id": "YDDTT",
        "name": "HERTFORDSHIRE, BEDFORDSHIRE AND LUTON ICT SHARED SERVICES (HOSTED BY ENHCCG)",
        "primary_role_id": "RO161",
        "role_ids": [
            "RO161"
        ],
        "status": "Active",
        "post_code": "GU14 0LX",
        "uprn": "Unknown"
    },
    {
        "org_id": "YDD4L",
        "name": "MANCHESTER HEALTH AND CARE COMMISSIONING",
        "primary_role_id": "RO161",
        "role_ids": [
            "RO67",
            "RO161"
        ],
        "status": "Active",
        "post_code": "M14 7LU",
        "uprn": "Unknown"
    },
    {
        "org_id": "YDDTV",
        "name": "NORTH WEST CONGENITAL HEART DISEASE NETWORK (OXFORD ROAD)",
        "primary_role_id": "RO161",
        "role_ids": [
            "RO161"
        ],
        "status": "Active",
        "post_code": "M13 9WL",
        "uprn": "Unknown"
    },
    {
        "org_id": "YDDHJ",
        "name": "NHS SHARED BUSINESS SERVICES LTD (EAST ANGLIA)",
        "primary_role_id": "RO161",
        "role_ids": [
            "RO161"
        ],
        "status": "Active",
        "post_code": "PE29 6FH",
        "uprn": "Unknown"
    },
    {
        "org_id": "YDDDT",
        "name": "NORTH OF ENGLAND COMMERCIAL PROCUREMENT COLLABORATIVE",
        "primary_role_id": "RO161",
        "role_ids": [
            "RO161"
        ],
        "status": "Active",
        "post_code": "S4 7UQ",
        "uprn": "Unknown"
    },
    {
        "org_id": "YDDTW",
        "name": "NORTHWEST SHARED INFRASTRUCTURE SERVICE",
        "primary_role_id": "RO161",
        "role_ids": [
            "RO161"
        ],
        "status": "Active",
        "post_code": "PR2 8DY",
        "uprn": "Unknown"
    },
    {
        "org_id": "A0V4D",
        "name": "NHS ELECT",
        "primary_role_id": "RO161",
        "role_ids": [
            "RO161"
        ],
        "status": "Active",
        "post_code": "WC1V 6PX",
        "uprn": "5192578"
    },
    {
        "org_id": "A1L7A",
        "name": "MIAA",
        "primary_role_id": "RO161",
        "role_ids": [
            "RO161"
        ],
        "status": "Active",
        "post_code": "L3 4BL",
        "uprn": "Unknown"
    },
    {
        "org_id": "Q3J8L",
        "name": "ASW ASSURANCE",
        "primary_role_id": "RO161",
        "role_ids": [
            "RO161"
        ],
        "status": "Active",
        "post_code": "EX2 7JQ",
        "uprn": "Unknown"
    },
    {
        "org_id": "G1V0N",
        "name": "NHS CLINICAL LEADERS NETWORK",
        "primary_role_id": "RO161",
        "role_ids": [
            "RO30",
            "RO161"
        ],
        "status": "Active",
        "post_code": "M6 8HD",
        "uprn": "Unknown"
    },
    {
        "org_id": "S3C5O",
        "name": "NHS LONDON PROCUREMENT PARTNERSHIP",
        "primary_role_id": "RO161",
        "role_ids": [
            "RO161"
        ],
        "status": "Active",
        "post_code": "SE1 2ND",
        "uprn": "Unknown"
    },
    {
        "org_id": "H6A5H",
        "name": "EAST OF ENGLAND NHS COLLABORATIVE PROCUREMENT HUB",
        "primary_role_id": "RO161",
        "role_ids": [
            "RO161"
        ],
        "status": "Active",
        "post_code": "CB21 5XB",
        "uprn": "Unknown"
    },
    {
        "org_id": "J2Z7E",
        "name": "ARMSTRONG WATSON LLP",
        "primary_role_id": "RO161",
        "role_ids": [
            "RO161"
        ],
        "status": "Active",
        "post_code": "CA1 2UU",
        "uprn": "10008680916"
    },
    {
        "org_id": "B3G3I",
        "name": "SOUTH WEST PROVIDER COLLABORATIVE",
        "primary_role_id": "RO161",
        "role_ids": [
            "RO161"
        ],
        "status": "Active",
        "post_code": "EX2 5AF",
        "uprn": "100041044624"
    },
    {
        "org_id": "X0P3Y",
        "name": "ONE LSC",
        "primary_role_id": "RO161",
        "role_ids": [
            "RO161"
        ],
        "status": "Active",
        "post_code": "BB2 3HH",
        "uprn": "100012540739"
    },
    {
        "org_id": "Y4Z9E",
        "name": "CLINICAL DIGITAL RESOURCE COLLABORATIVE (CDRC)",
        "primary_role_id": "RO161",
        "role_ids": [
            "RO161"
        ],
        "status": "Active",
        "post_code": "NE1 4WH",
        "uprn": "Unknown"
    }
]