[
    {
        "org_id": "G7810620",
        "name": "DR M GUILD",
        "primary_role_id": "RO88",
        "role_ids": [
            "RO59",
            "RO88"
        ],
        "status": "Active",
        "post_code": "IM5 1HP",
        "uprn": "Unknown"
    },
    {
        "org_id": "G7800757",
        "name": "WILSON & PARTNERS (POOLED LIST)",
        "primary_role_id": "RO88",
        "role_ids": [
            "RO59",
            "RO88"
        ],
        "status": "Active",
        "post_code": "IM8 3EY",
        "uprn": "Unknown"
    },
    {
        "org_id": "G7809062",
        "name": "STONE AND PARTNERS",
        "primary_role_id": "RO88",
        "role_ids": [
            "RO59",
            "RO88"
        ],
        "status": "Active",
        "post_code": "IM4 7BF",
        "uprn": "Unknown"
    },
    {
        "org_id": "G7812471",
        "name": "DR JF LONGAN",
        "primary_role_id": "RO88",
        "role_ids": [
            "RO59",
            "RO88"
        ],
        "status": "Active",
        "post_code": "IM9 2RQ",
        "uprn": "Unknown"
    },
    {
        "org_id": "G7809763",
        "name": "BLACKWELL AND PARTNERS",
        "primary_role_id": "RO88",
        "role_ids": [
            "RO59",
            "RO88"
        ],
        "status": "Active",
        "post_code": "IM9 6BD",
        "uprn": "Unknown"
    },
    {
        "org_id": "G7811779",
        "name": "DR D SELVARAJAH",
        "primary_role_id": "RO88",
        "role_ids": [
            "RO59",
            "RO88"
        ],
        "status": "Active",
        "post_code": "IM9 6BD",
        "uprn": "Unknown"
    },
    {
        "org_id": "G7810967",
        "name": "DR K SHARPE",
        "primary_role_id": "RO88",
        "role_ids": [
            "RO59",
            "RO88"
        ],
        "status": "Active",
        "post_code": "IM9 6BD",
        "uprn": "Unknown"
    },
    {
        "org_id": "G7800087",
        "name": "JAMES & PARTNERS",
        "primary_role_id": "RO88",
        "role_ids": [
            "RO59",
            "RO88"
        ],
        "status": "Active",
        "post_code": "IM2 7EA",
        "uprn": "Unknown"
    },
    {
        "org_id": "G7815711",
        "name": "DR J NEEDHAM",
        "primary_role_id": "RO88",
        "role_ids": [
            "RO59",
            "RO88"
        ],
        "status": "Active",
        "post_code": "IM2 3TD",
        "uprn": "Unknown"
    },
    {
        "org_id": "G7818604",
        "name": "DR L DREW",
        "primary_role_id": "RO88",
        "role_ids": [
            "RO59",
            "RO88"
        ],
        "status": "Active",
        "post_code": "IM2 2BZ",
        "uprn": "Unknown"
    },
    {
        "org_id": "G7818831",
        "name": "DR D CHALMERS",
        "primary_role_id": "RO88",
        "role_ids": [
            "RO59",
            "RO88"
        ],
        "status": "Active",
        "post_code": "IM2 2BZ",
        "uprn": "Unknown"
    },
    {
        "org_id": "G7821178",
        "name": "BULL AND PARTNERS ABEYANCE LIST",
        "primary_role_id": "RO88",
        "role_ids": [
            "RO59",
            "RO88"
        ],
        "status": "Active",
        "post_code": "IM1 4QA",
        "uprn": "Unknown"
    },
    {
        "org_id": "G7821219",
        "name": "STONE AND PARTNERS ABEYANCE LIST",
        "primary_role_id": "RO88",
        "role_ids": [
            "RO59",
            "RO88"
        ],
        "status": "Active",
        "post_code": "IM3 4EA",
        "uprn": "Unknown"
    },
    {
        "org_id": "G7821460",
        "name": "LAXEY AND VILLAGE WALK ABEYANCE LIST",
        "primary_role_id": "RO88",
        "role_ids": [
            "RO59",
            "RO88"
        ],
        "status": "Active",
        "post_code": "IM3 4EA",
        "uprn": "Unknown"
    },
    {
        "org_id": "G7822399",
        "name": "KENSINGTON GROUP PRACTICE ABEYANCE LIST",
        "primary_role_id": "RO88",
        "role_ids": [
            "RO59",
            "RO88"
        ],
        "status": "Active",
        "post_code": "IM1 4QA",
        "uprn": "Unknown"
    },
    {
        "org_id": "G7822533",
        "name": "RAMSEY GROUP PRACTICE ABEYANCE LIST",
        "primary_role_id": "RO88",
        "role_ids": [
            "RO59",
            "RO88"
        ],
        "status": "Active",
        "post_code": "IM8 3EY",
        "uprn": "Unknown"
    },
    {
        "org_id": "G7822681",
        "name": "RAMSEY GROUP PRACTICE ABEYANCE LIST",
        "primary_role_id": "RO88",
        "role_ids": [
            "RO59",
            "RO88"
        ],
        "status": "Active",
        "post_code": "IM8 3EY",
        "uprn": "Unknown"
    },
    {
        "org_id": "G7822863",
        "name": "PALATINE ABEYANCE CODE",
        "primary_role_id": "RO88",
        "role_ids": [
            "RO59",
            "RO88"
        ],
        "status": "Active",
        "post_code": "IM2 3TD",
        "uprn": "Unknown"
    },
    {
        "org_id": "G7822870",
        "name": "HAILWOOD OBEYANCE CODE",
        "primary_role_id": "RO88",
        "role_ids": [
            "RO59",
            "RO88"
        ],
        "status": "Active",
        "post_code": "IM2 7EA",
        "uprn": "Unknown"
    },
    {
        "org_id": "G7822980",
        "name": "HAILWOOD2",
        "primary_role_id": "RO88",
        "role_ids": [
            "RO59",
            "RO88"
        ],
        "status": "Active",
        "post_code": "IM2 7EA",
        "uprn": "115019106"
    },
    {
        "org_id": "G7822531",
        "name": "SOUTHERN GROUP PRACTICE",
        "primary_role_id": "RO88",
        "role_ids": [
            "RO59",
            "RO88"
        ],
        "status": "Active",
        "post_code": "IM9 6BD",
        "uprn": "115040524"
    },
    {
        "org_id": "G7883752",
        "name": "SOUTHERN GROUP PRACTICE ABEYANCE LIST",
        "primary_role_id": "RO88",
        "role_ids": [
            "RO59",
            "RO88"
        ],
        "status": "Active",
        "post_code": "IM9 6BD",
        "uprn": "115040524"
    },
    {
        "org_id": "G7849453",
        "name": "RAMSEY ABEYANCE CODE N",
        "primary_role_id": "RO88",
        "role_ids": [
            "RO59",
            "RO88"
        ],
        "status": "Active",
        "post_code": "IM8 3EY",
        "uprn": "115023604"
    },
    {
        "org_id": "G7823053",
        "name": "RAMSEY GROUP PRACTICE ABEYANCE",
        "primary_role_id": "RO88",
        "role_ids": [
            "RO59",
            "RO88"
        ],
        "status": "Active",
        "post_code": "IM8 3EY",
        "uprn": "115023604"
    },
    {
        "org_id": "G7867736",
        "name": "PEEL ABEYANCE LIST",
        "primary_role_id": "RO88",
        "role_ids": [
            "RO59",
            "RO88"
        ],
        "status": "Active",
        "post_code": "IM5 1HU",
        "uprn": "115063799"
    },
    {
        "org_id": "G7844257",
        "name": "RAMSEY GP LIST 3",
        "primary_role_id": "RO88",
        "role_ids": [
            "RO59",
            "RO88"
        ],
        "status": "Active",
        "post_code": "IM8 3EY",
        "uprn": "115023604"
    },
    {
        "org_id": "G7823676",
        "name": "DOCTOR BALLASALLA",
        "primary_role_id": "RO88",
        "role_ids": [
            "RO59",
            "RO88"
        ],
        "status": "Active",
        "post_code": "IM9 2RQ",
        "uprn": "Unknown"
    },
    {
        "org_id": "G7885743",
        "name": "RAMSEY DOCTOR",
        "primary_role_id": "RO88",
        "role_ids": [
            "RO59",
            "RO88"
        ],
        "status": "Active",
        "post_code": "IM8 3EY",
        "uprn": "115023604"
    },
    {
        "org_id": "G7895071",
        "name": "RAMSEY ABEYANCE 2",
        "primary_role_id": "RO88",
        "role_ids": [
            "RO59",
            "RO88"
        ],
        "status": "Active",
        "post_code": "IM8 3EY",
        "uprn": "115023604"
    },
    {
        "org_id": "G7871734",
        "name": "RAMSEY GROUP PRACTICE",
        "primary_role_id": "RO88",
        "role_ids": [
            "RO59",
            "RO88"
        ],
        "status": "Active",
        "post_code": "IM8 3EY",
        "uprn": "Unknown"
    },
    {
        "org_id": "G7895585",
        "name": "RAMSEY GROUP PRACTICE",
        "primary_role_id": "RO88",
        "role_ids": [
            "RO60",
            "RO88"
        ],
        "status": "Active",
        "post_code": "IM8 3EY",
        "uprn": "115023604"
    },
    {
        "org_id": "G7818771",
        "name": "DEWEY PRACTICE (DR CHRISTOPHER) PL",
        "primary_role_id": "RO88",
        "role_ids": [
            "RO60",
            "RO88"
        ],
        "status": "Active",
        "post_code": "RM10 7YU",
        "uprn": "100022954"
    },
    {
        "org_id": "G7884297",
        "name": "BRUNSTON & LYDBROOK PRACTICE",
        "primary_role_id": "RO88",
        "role_ids": [
            "RO59",
            "RO88"
        ],
        "status": "Active",
        "post_code": "GL16 8HJ",
        "uprn": "100121368779"
    }
]