[
    {
        "org_id": "T146C",
        "name": "LEEDS CENTRE (NHS BLOOD & TRANSPLANT)",
        "primary_role_id": "RO191",
        "role_ids": [
            "RO191"
        ],
        "status": "Active",
        "post_code": "LS15 7TW",
        "uprn": "Unknown"
    },
    {
        "org_id": "T146G",
        "name": "COLINDALE CENTRE (NHS BLOOD & TRANSPLANT)",
        "primary_role_id": "RO191",
        "role_ids": [
            "RO191"
        ],
        "status": "Active",
        "post_code": "NW9 5EQ",
        "uprn": "Unknown"
    },
    {
        "org_id": "T146E",
        "name": "CAMBRIDGE CENTRE (NHS BLOOD & TRANSPLANT)",
        "primary_role_id": "RO191",
        "role_ids": [
            "RO191"
        ],
        "status": "Active",
        "post_code": "CB2 0PT",
        "uprn": "Unknown"
    },
    {
        "org_id": "T146D",
        "name": "SHEFFIELD CENTRE (NHS BLOOD & TRANSPLANT)",
        "primary_role_id": "RO191",
        "role_ids": [
            "RO191"
        ],
        "status": "Active",
        "post_code": "S5 7JN",
        "uprn": "Unknown"
    },
    {
        "org_id": "T146H",
        "name": "NEWCASTLE CENTRE (NHS BLOOD & TRANSPLANT)",
        "primary_role_id": "RO191",
        "role_ids": [
            "RO191"
        ],
        "status": "Active",
        "post_code": "NE2 4NQ",
        "uprn": "Unknown"
    },
    {
        "org_id": "T146J",
        "name": "BIO PRODUCTS LABORATORY (NHS BLOOD & TRANSPLANT)",
        "primary_role_id": "RO191",
        "role_ids": [
            "RO191"
        ],
        "status": "Active",
        "post_code": "WD6 3BX",
        "uprn": "Unknown"
    },
    {
        "org_id": "T146K",
        "name": "TOOTING CENTRE (NHS BLOOD & TRANSPLANT)",
        "primary_role_id": "RO191",
        "role_ids": [
            "RO191"
        ],
        "status": "Active",
        "post_code": "SW17 0RB",
        "uprn": "100023321193"
    },
    {
        "org_id": "T146L",
        "name": "SOUTHAMPTON CENTRE (NHS BLOOD & TRANSPLANT)",
        "primary_role_id": "RO191",
        "role_ids": [
            "RO191"
        ],
        "status": "Active",
        "post_code": "SO16 5AF",
        "uprn": "Unknown"
    },
    {
        "org_id": "T146M",
        "name": "BRISTOL CENTRE (NHS BLOOD & TRANSPLANT)",
        "primary_role_id": "RO191",
        "role_ids": [
            "RO191"
        ],
        "status": "Active",
        "post_code": "BS34 8RR",
        "uprn": "Unknown"
    },
    {
        "org_id": "T146N",
        "name": "INTERNATIONAL BLOOD GROUP REFERENCE LABORATORY",
        "primary_role_id": "RO191",
        "role_ids": [
            "RO191"
        ],
        "status": "Active",
        "post_code": "BS34 7QG",
        "uprn": "Unknown"
    },
    {
        "org_id": "T146P",
        "name": "BIRMINGHAM VINCENT DRIVE (NHS BLOOD & TRANSPLANT)",
        "primary_role_id": "RO191",
        "role_ids": [
            "RO191"
        ],
        "status": "Active",
        "post_code": "B15 2SG",
        "uprn": "Unknown"
    },
    {
        "org_id": "T146R",
        "name": "MANCHESTER CENTRE (NHS BLOOD & TRANSPLANT)",
        "primary_role_id": "RO191",
        "role_ids": [
            "RO191"
        ],
        "status": "Active",
        "post_code": "M13 9LL",
        "uprn": "Unknown"
    },
    {
        "org_id": "T146V",
        "name": "BRENTWOOD CENTRE (NHS BLOOD & TRANSPLANT)",
        "primary_role_id": "RO191",
        "role_ids": [
            "RO191"
        ],
        "status": "Active",
        "post_code": "CM15 8DP",
        "uprn": "Unknown"
    },
    {
        "org_id": "T146W",
        "name": "PLYMOUTH CENTRE (NHS BLOOD & TRANSPLANT)",
        "primary_role_id": "RO191",
        "role_ids": [
            "RO191"
        ],
        "status": "Active",
        "post_code": "PL6 8DH",
        "uprn": "100041168060"
    },
    {
        "org_id": "T146Y",
        "name": "NHS BLOOD AND TRANSPLANT HEADQUARTERS",
        "primary_role_id": "RO191",
        "role_ids": [
            "RO191"
        ],
        "status": "Active",
        "post_code": "WD24 4QN",
        "uprn": "Unknown"
    },
    {
        "org_id": "T1437",
        "name": "THE IC LISBON HOUSE",
        "primary_role_id": "RO191",
        "role_ids": [
            "RO191"
        ],
        "status": "Active",
        "post_code": "LS1 4LT",
        "uprn": "72503568"
    },
    {
        "org_id": "T1431",
        "name": "THE IC HQ TREVELYAN SQUARE",
        "primary_role_id": "RO191",
        "role_ids": [
            "RO191"
        ],
        "status": "Active",
        "post_code": "LS1 6AE",
        "uprn": "72666252"
    },
    {
        "org_id": "T1438",
        "name": "THE IC HARMSWORTH HOUSE",
        "primary_role_id": "RO191",
        "role_ids": [
            "RO191"
        ],
        "status": "Active",
        "post_code": "EC4Y 8DP",
        "uprn": "Unknown"
    },
    {
        "org_id": "T1461",
        "name": "NHSBT CAPITOL PARK",
        "primary_role_id": "RO191",
        "role_ids": [
            "RO191"
        ],
        "status": "Active",
        "post_code": "WF3 1EL",
        "uprn": "72508317"
    },
    {
        "org_id": "T115A",
        "name": "FAMILY HEALTH SERVICES APPEALS AUTHORITY",
        "primary_role_id": "RO191",
        "role_ids": [
            "RO191"
        ],
        "status": "Active",
        "post_code": "HG1 5PR",
        "uprn": "100052005704"
    },
    {
        "org_id": "T115C",
        "name": "NHS RESOLUTION (LONDON)",
        "primary_role_id": "RO191",
        "role_ids": [
            "RO191"
        ],
        "status": "Active",
        "post_code": "SW1W 9SZ",
        "uprn": "Unknown"
    }
]