[
    {
        "org_id": "0AEAA",
        "name": "SANGER HOUSE",
        "primary_role_id": "RO214",
        "role_ids": [
            "RO214"
        ],
        "status": "Active",
        "post_code": "GL3 4FE",
        "uprn": "Unknown"
    },
    {
        "org_id": "0AEAC",
        "name": "PROSPECT HOSPITAL",
        "primary_role_id": "RO214",
        "role_ids": [
            "RO214"
        ],
        "status": "Active",
        "post_code": "RG30 2BA",
        "uprn": "Unknown"
    },
    {
        "org_id": "0AEAD",
        "name": "KING EDWARD VII HOSPITAL",
        "primary_role_id": "RO214",
        "role_ids": [
            "RO214"
        ],
        "status": "Active",
        "post_code": "SL4 3DP",
        "uprn": "100081270006"
    },
    {
        "org_id": "0AEAE",
        "name": "NHS B&NES TRUST HQ",
        "primary_role_id": "RO214",
        "role_ids": [
            "RO214"
        ],
        "status": "Active",
        "post_code": "BA2 5RP",
        "uprn": "Unknown"
    },
    {
        "org_id": "0AEAF",
        "name": "SOUTHGATE HOUSE",
        "primary_role_id": "RO214",
        "role_ids": [
            "RO214"
        ],
        "status": "Active",
        "post_code": "SN10 5EQ",
        "uprn": "100121322382"
    },
    {
        "org_id": "0AEAG",
        "name": "JUBILEE HOUSE",
        "primary_role_id": "RO214",
        "role_ids": [
            "RO214"
        ],
        "status": "Active",
        "post_code": "OX4 2LH",
        "uprn": "200004675793"
    },
    {
        "org_id": "0AEAH",
        "name": "FLOOR 3, DAVID MURRAY JOHN BUILDING",
        "primary_role_id": "RO214",
        "role_ids": [
            "RO214"
        ],
        "status": "Active",
        "post_code": "SN1 1LH",
        "uprn": "Unknown"
    },
    {
        "org_id": "0AEAJ",
        "name": "RAPID HOUSE",
        "primary_role_id": "RO214",
        "role_ids": [
            "RO214"
        ],
        "status": "Active",
        "post_code": "HP11 2EE",
        "uprn": "Unknown"
    },
    {
        "org_id": "0AEAK",
        "name": "WEST SWINDON HEALTH CENTRE",
        "primary_role_id": "RO214",
        "role_ids": [
            "RO214"
        ],
        "status": "Active",
        "post_code": "SN5 7JB",
        "uprn": "Unknown"
    },
    {
        "org_id": "0AEAL",
        "name": "SOUTH EAST QUALITY OBSERVATORY",
        "primary_role_id": "RO214",
        "role_ids": [
            "RO214"
        ],
        "status": "Active",
        "post_code": "RH6 7DE",
        "uprn": "Unknown"
    },
    {
        "org_id": "0AR01",
        "name": "RIVERSIDE HOUSE",
        "primary_role_id": "RO214",
        "role_ids": [
            "RO214"
        ],
        "status": "Active",
        "post_code": "NE15 8NY",
        "uprn": "Unknown"
    },
    {
        "org_id": "0AR03",
        "name": "RIDLEY HOUSE",
        "primary_role_id": "RO214",
        "role_ids": [
            "RO214"
        ],
        "status": "Active",
        "post_code": "NE3 1DQ",
        "uprn": "4510117332"
    },
    {
        "org_id": "0AR04",
        "name": "TEAM VIEW",
        "primary_role_id": "RO214",
        "role_ids": [
            "RO214"
        ],
        "status": "Active",
        "post_code": "NE11 0NB",
        "uprn": "Unknown"
    },
    {
        "org_id": "0AR05",
        "name": "JOHN SNOW HOUSE",
        "primary_role_id": "RO214",
        "role_ids": [
            "RO214"
        ],
        "status": "Active",
        "post_code": "DH1 3YG",
        "uprn": "Unknown"
    },
    {
        "org_id": "0AR06",
        "name": "APPLETON HOUSE",
        "primary_role_id": "RO214",
        "role_ids": [
            "RO214"
        ],
        "status": "Active",
        "post_code": "DH1 5XZ",
        "uprn": "200003219698"
    },
    {
        "org_id": "0AR07",
        "name": "RIVERSIDE HOUSE (HF ROAD)",
        "primary_role_id": "RO214",
        "role_ids": [
            "RO214"
        ],
        "status": "Active",
        "post_code": "TS2 1RH",
        "uprn": "Unknown"
    },
    {
        "org_id": "0AR08",
        "name": "INFORMATION TECHNOLOGY SUITE",
        "primary_role_id": "RO214",
        "role_ids": [
            "RO214"
        ],
        "status": "Active",
        "post_code": "TS2 1RH",
        "uprn": "Unknown"
    },
    {
        "org_id": "0AR09",
        "name": "TEESDALE HOUSE",
        "primary_role_id": "RO214",
        "role_ids": [
            "RO214"
        ],
        "status": "Active",
        "post_code": "TS17 6BL",
        "uprn": "100110779432"
    },
    {
        "org_id": "0AR11",
        "name": "ROSEHILL",
        "primary_role_id": "RO214",
        "role_ids": [
            "RO214"
        ],
        "status": "Active",
        "post_code": "CA1 2SE",
        "uprn": "10008675486"
    },
    {
        "org_id": "0AR10",
        "name": "ADELAIDE HOUSE",
        "primary_role_id": "RO214",
        "role_ids": [
            "RO214"
        ],
        "status": "Active",
        "post_code": "DH1 1TW",
        "uprn": "Unknown"
    },
    {
        "org_id": "0AR12",
        "name": "NHS QUAYSIDE",
        "primary_role_id": "RO214",
        "role_ids": [
            "RO214"
        ],
        "status": "Active",
        "post_code": "WA4 6HL",
        "uprn": "Unknown"
    },
    {
        "org_id": "0AR13",
        "name": "NECS @ 722",
        "primary_role_id": "RO214",
        "role_ids": [
            "RO214"
        ],
        "status": "Active",
        "post_code": "S9 4EU",
        "uprn": "Unknown"
    },
    {
        "org_id": "0AR14",
        "name": "1829 BUILDING",
        "primary_role_id": "RO214",
        "role_ids": [
            "RO214"
        ],
        "status": "Active",
        "post_code": "CH2 1BQ",
        "uprn": "10012220485"
    },
    {
        "org_id": "0DEAA",
        "name": "FRANCIS CRICK HOUSE",
        "primary_role_id": "RO214",
        "role_ids": [
            "RO214"
        ],
        "status": "Active",
        "post_code": "NN3 6BF",
        "uprn": "Unknown"
    },
    {
        "org_id": "0DEAC",
        "name": "CARDINAL SQUARE",
        "primary_role_id": "RO214",
        "role_ids": [
            "RO214"
        ],
        "status": "Active",
        "post_code": "DE1 3QT",
        "uprn": "Unknown"
    },
    {
        "org_id": "0DEAD",
        "name": "BIRCH HOUSE",
        "primary_role_id": "RO214",
        "role_ids": [
            "RO214"
        ],
        "status": "Active",
        "post_code": "NG21 0HJ",
        "uprn": "10012819260"
    },
    {
        "org_id": "0DEAE",
        "name": "ALBERT HOUSE",
        "primary_role_id": "RO214",
        "role_ids": [
            "RO214"
        ],
        "status": "Active",
        "post_code": "HP11 1AG",
        "uprn": "10092750709"
    },
    {
        "org_id": "0DEAF",
        "name": "CROSS O'CLIFF",
        "primary_role_id": "RO214",
        "role_ids": [
            "RO214"
        ],
        "status": "Active",
        "post_code": "LN4 2HN",
        "uprn": "Unknown"
    },
    {
        "org_id": "0DEAG",
        "name": "PARKSIDE HOUSE",
        "primary_role_id": "RO214",
        "role_ids": [
            "RO214"
        ],
        "status": "Active",
        "post_code": "CV1 2NJ",
        "uprn": "Unknown"
    },
    {
        "org_id": "0DEAH",
        "name": "PHOENIX HOUSE",
        "primary_role_id": "RO214",
        "role_ids": [
            "RO214"
        ],
        "status": "Active",
        "post_code": "SS14 3HG",
        "uprn": "Unknown"
    },
    {
        "org_id": "0DEAJ",
        "name": "SCARSDALE",
        "primary_role_id": "RO214",
        "role_ids": [
            "RO214"
        ],
        "status": "Active",
        "post_code": "S41 7PF",
        "uprn": "Unknown"
    },
    {
        "org_id": "0DEAK",
        "name": "SHERWOOD PLACE",
        "primary_role_id": "RO214",
        "role_ids": [
            "RO214"
        ],
        "status": "Active",
        "post_code": "MK3 6RT",
        "uprn": "Unknown"
    },
    {
        "org_id": "0DEAL",
        "name": "ST JOHN'S HOUSE",
        "primary_role_id": "RO214",
        "role_ids": [
            "RO214"
        ],
        "status": "Active",
        "post_code": "LE1 6NB",
        "uprn": "Unknown"
    },
    {
        "org_id": "0DEAM",
        "name": "TOLL BAR HOUSE",
        "primary_role_id": "RO214",
        "role_ids": [
            "RO214"
        ],
        "status": "Active",
        "post_code": "DE7 5FH",
        "uprn": "100032241062"
    },
    {
        "org_id": "0DEAN",
        "name": "WESTGATE HOUSE",
        "primary_role_id": "RO214",
        "role_ids": [
            "RO214"
        ],
        "status": "Active",
        "post_code": "CV34 4DE",
        "uprn": "Unknown"
    },
    {
        "org_id": "0DEAP",
        "name": "WILDWOOD",
        "primary_role_id": "RO214",
        "role_ids": [
            "RO214"
        ],
        "status": "Active",
        "post_code": "WR5 2LG",
        "uprn": "Unknown"
    },
    {
        "org_id": "0DEAQ",
        "name": "WOOTTON EDGE BARNS",
        "primary_role_id": "RO214",
        "role_ids": [
            "RO214"
        ],
        "status": "Active",
        "post_code": "OX20 1AE",
        "uprn": "10024175937"
    },
    {
        "org_id": "0AR15",
        "name": "LEECHMERE SOCIAL SERVICES",
        "primary_role_id": "RO214",
        "role_ids": [
            "RO214"
        ],
        "status": "Active",
        "post_code": "SR2 9TS",
        "uprn": "Unknown"
    },
    {
        "org_id": "0DF0W",
        "name": "HINKLEY POINT C",
        "primary_role_id": "RO214",
        "role_ids": [
            "RO214"
        ],
        "status": "Active",
        "post_code": "TA5 1UF",
        "uprn": "Unknown"
    },
    {
        "org_id": "0DGAA",
        "name": "OPTUM KENT CSS",
        "primary_role_id": "RO214",
        "role_ids": [
            "RO214"
        ],
        "status": "Active",
        "post_code": "TN23 1PP",
        "uprn": "Unknown"
    },
    {
        "org_id": "0CX01",
        "name": "MIDLANDS AND LANCASHIRE C S U - I.T. DEPARTMENT",
        "primary_role_id": "RO214",
        "role_ids": [
            "RO214"
        ],
        "status": "Active",
        "post_code": "SK10 2LU",
        "uprn": "Unknown"
    },
    {
        "org_id": "0DF01",
        "name": "PAXTON HOUSE",
        "primary_role_id": "RO214",
        "role_ids": [
            "RO214"
        ],
        "status": "Active",
        "post_code": "RG30 2BA",
        "uprn": "Unknown"
    },
    {
        "org_id": "0DF03",
        "name": "BUILDING 003",
        "primary_role_id": "RO214",
        "role_ids": [
            "RO214"
        ],
        "status": "Active",
        "post_code": "PO17 6AR",
        "uprn": "Unknown"
    },
    {
        "org_id": "0DF05",
        "name": "ALDERSHOT CENTRE FOR HEALTH",
        "primary_role_id": "RO214",
        "role_ids": [
            "RO214"
        ],
        "status": "Active",
        "post_code": "GU11 1AY",
        "uprn": "Unknown"
    },
    {
        "org_id": "0DF06",
        "name": "THE GATEWAY",
        "primary_role_id": "RO214",
        "role_ids": [
            "RO214"
        ],
        "status": "Active",
        "post_code": "HP19 8FF",
        "uprn": "Unknown"
    },
    {
        "org_id": "0DF07",
        "name": "1ST FLOOR CIVIC ANNEX",
        "primary_role_id": "RO214",
        "role_ids": [
            "RO214"
        ],
        "status": "Active",
        "post_code": "SN1 2JH",
        "uprn": "Unknown"
    },
    {
        "org_id": "0DF08",
        "name": "CRAWLEY HOSPITAL",
        "primary_role_id": "RO214",
        "role_ids": [
            "RO214"
        ],
        "status": "Active",
        "post_code": "RH11 7DH",
        "uprn": "Unknown"
    },
    {
        "org_id": "0DF09",
        "name": "APEX HOUSE",
        "primary_role_id": "RO214",
        "role_ids": [
            "RO214"
        ],
        "status": "Active",
        "post_code": "PO30 5XW",
        "uprn": "Unknown"
    },
    {
        "org_id": "0DF0A",
        "name": "DURRINGTON",
        "primary_role_id": "RO214",
        "role_ids": [
            "RO214"
        ],
        "status": "Active",
        "post_code": "BN12 6BT",
        "uprn": "Unknown"
    },
    {
        "org_id": "0DF0C",
        "name": "JUBILEE HOUSE",
        "primary_role_id": "RO214",
        "role_ids": [
            "RO214"
        ],
        "status": "Active",
        "post_code": "OX4 2LH",
        "uprn": "Unknown"
    },
    {
        "org_id": "0DF0D",
        "name": "KING EDWARD VII HOSPITAL",
        "primary_role_id": "RO214",
        "role_ids": [
            "RO214"
        ],
        "status": "Active",
        "post_code": "SL4 3DP",
        "uprn": "Unknown"
    },
    {
        "org_id": "0DF0E",
        "name": "NEST@MALLARD",
        "primary_role_id": "RO214",
        "role_ids": [
            "RO214"
        ],
        "status": "Active",
        "post_code": "TA6 4RN",
        "uprn": "Unknown"
    },
    {
        "org_id": "0DF0F",
        "name": "NHS COMMISSIONING HQ",
        "primary_role_id": "RO214",
        "role_ids": [
            "RO214"
        ],
        "status": "Active",
        "post_code": "SO16 4GX",
        "uprn": "Unknown"
    },
    {
        "org_id": "0DF0H",
        "name": "THE PIERRE SIMONET BUILDING",
        "primary_role_id": "RO214",
        "role_ids": [
            "RO214"
        ],
        "status": "Active",
        "post_code": "SN25 4DL",
        "uprn": "Unknown"
    },
    {
        "org_id": "0DF0J",
        "name": "POMONA HOUSE",
        "primary_role_id": "RO214",
        "role_ids": [
            "RO214"
        ],
        "status": "Active",
        "post_code": "TQ2 7FF",
        "uprn": "Unknown"
    },
    {
        "org_id": "0DF0K",
        "name": "360 BRISTOL",
        "primary_role_id": "RO214",
        "role_ids": [
            "RO214"
        ],
        "status": "Active",
        "post_code": "BS1 3NX",
        "uprn": "Unknown"
    },
    {
        "org_id": "0DF0L",
        "name": "SOUTHGATE HOUSE",
        "primary_role_id": "RO214",
        "role_ids": [
            "RO214"
        ],
        "status": "Active",
        "post_code": "SN10 5EQ",
        "uprn": "Unknown"
    },
    {
        "org_id": "0DF0M",
        "name": "ST. MARTIN'S HOSPITAL",
        "primary_role_id": "RO214",
        "role_ids": [
            "RO214"
        ],
        "status": "Active",
        "post_code": "BA2 5RP",
        "uprn": "Unknown"
    },
    {
        "org_id": "0DF0N",
        "name": "WEST SWINDON HEALTH CENTRE",
        "primary_role_id": "RO214",
        "role_ids": [
            "RO214"
        ],
        "status": "Active",
        "post_code": "SN5 7DL",
        "uprn": "Unknown"
    },
    {
        "org_id": "0DF0P",
        "name": "WYNFORD HOUSE",
        "primary_role_id": "RO214",
        "role_ids": [
            "RO214"
        ],
        "status": "Active",
        "post_code": "BA22 8HR",
        "uprn": "Unknown"
    },
    {
        "org_id": "0DF0Q",
        "name": "CASTLEWOOD",
        "primary_role_id": "RO214",
        "role_ids": [
            "RO214"
        ],
        "status": "Active",
        "post_code": "BS21 6FW",
        "uprn": "Unknown"
    },
    {
        "org_id": "0DF0R",
        "name": "HOVE TOWN HALL",
        "primary_role_id": "RO214",
        "role_ids": [
            "RO214"
        ],
        "status": "Active",
        "post_code": "BN3 3BQ",
        "uprn": "Unknown"
    },
    {
        "org_id": "0DF0T",
        "name": "KINGFISHER COURT",
        "primary_role_id": "RO214",
        "role_ids": [
            "RO214"
        ],
        "status": "Active",
        "post_code": "RG14 5SJ",
        "uprn": "Unknown"
    },
    {
        "org_id": "0DF0V",
        "name": "SANGER HOUSE",
        "primary_role_id": "RO214",
        "role_ids": [
            "RO214"
        ],
        "status": "Active",
        "post_code": "GL3 4FE",
        "uprn": "Unknown"
    },
    {
        "org_id": "0DEAR",
        "name": "P2",
        "primary_role_id": "RO214",
        "role_ids": [
            "RO214"
        ],
        "status": "Active",
        "post_code": "SN13 9GB",
        "uprn": "Unknown"
    },
    {
        "org_id": "0DEAT",
        "name": "BECCLES HOUSE",
        "primary_role_id": "RO214",
        "role_ids": [
            "RO214"
        ],
        "status": "Active",
        "post_code": "NR34 9BN",
        "uprn": "Unknown"
    },
    {
        "org_id": "0DEAV",
        "name": "KINGSTON HOUSE",
        "primary_role_id": "RO214",
        "role_ids": [
            "RO214"
        ],
        "status": "Active",
        "post_code": "B70 9LD",
        "uprn": "Unknown"
    },
    {
        "org_id": "0DEAW",
        "name": "1829 BUILDING",
        "primary_role_id": "RO214",
        "role_ids": [
            "RO214"
        ],
        "status": "Active",
        "post_code": "CH2 1BQ",
        "uprn": "Unknown"
    },
    {
        "org_id": "0DEAX",
        "name": "KING'S COURT",
        "primary_role_id": "RO214",
        "role_ids": [
            "RO214"
        ],
        "status": "Active",
        "post_code": "PE30 1EL",
        "uprn": "Unknown"
    },
    {
        "org_id": "0DEAY",
        "name": "LAKESIDE 400",
        "primary_role_id": "RO214",
        "role_ids": [
            "RO214"
        ],
        "status": "Active",
        "post_code": "NR7 0WG",
        "uprn": "Unknown"
    },
    {
        "org_id": "0DGAC",
        "name": "OPTUM DATA CENTER TC2",
        "primary_role_id": "RO214",
        "role_ids": [
            "RO214"
        ],
        "status": "Active",
        "post_code": "E14 9YY",
        "uprn": "Unknown"
    },
    {
        "org_id": "0DGAD",
        "name": "OPTUM DATA CENTER LTC",
        "primary_role_id": "RO214",
        "role_ids": [
            "RO214"
        ],
        "status": "Active",
        "post_code": "TW4 6ER",
        "uprn": "Unknown"
    },
    {
        "org_id": "0AR17",
        "name": "PULSANT DATA CENTRE",
        "primary_role_id": "RO214",
        "role_ids": [
            "RO214"
        ],
        "status": "Active",
        "post_code": "NE27 0QF",
        "uprn": "Unknown"
    },
    {
        "org_id": "0AR18",
        "name": "ITPS DATA CENTRE",
        "primary_role_id": "RO214",
        "role_ids": [
            "RO214"
        ],
        "status": "Active",
        "post_code": "DH2 1AQ",
        "uprn": "Unknown"
    },
    {
        "org_id": "0DF0X",
        "name": "BURLINGTON HOUSE",
        "primary_role_id": "RO214",
        "role_ids": [
            "RO214"
        ],
        "status": "Active",
        "post_code": "L22 0PJ",
        "uprn": "Unknown"
    },
    {
        "org_id": "0CX02",
        "name": "MIDLANDS AND LANCASHIRE C S U - MERTON HOUSE",
        "primary_role_id": "RO214",
        "role_ids": [
            "RO214"
        ],
        "status": "Active",
        "post_code": "L20 3DL",
        "uprn": "Unknown"
    },
    {
        "org_id": "0CX03",
        "name": "MIDLANDS AND LANCASHIRE C S U - LIVERPOOL INNOVATION PARK",
        "primary_role_id": "RO214",
        "role_ids": [
            "RO214"
        ],
        "status": "Active",
        "post_code": "L7 9NJ",
        "uprn": "Unknown"
    },
    {
        "org_id": "M8D9J",
        "name": "REGATTA PLACE",
        "primary_role_id": "RO214",
        "role_ids": [
            "RO214"
        ],
        "status": "Active",
        "post_code": "L3 4BL",
        "uprn": "Unknown"
    },
    {
        "org_id": "H8O2G",
        "name": "SCW DATA CENTRE - BRISTOL",
        "primary_role_id": "RO214",
        "role_ids": [
            "RO214"
        ],
        "status": "Active",
        "post_code": "BS2 8EJ",
        "uprn": "301186"
    },
    {
        "org_id": "N2N9I",
        "name": "COVID19 VACCINE RESOLUTION SERVICEDESK",
        "primary_role_id": "RO214",
        "role_ids": [
            "RO214"
        ],
        "status": "Active",
        "post_code": "SO50 5PB",
        "uprn": "100062534427"
    },
    {
        "org_id": "U2Z7P",
        "name": "ILKESTON DATA CENTRE",
        "primary_role_id": "RO214",
        "role_ids": [
            "RO214"
        ],
        "status": "Active",
        "post_code": "DE7 8LN",
        "uprn": "100032241134"
    },
    {
        "org_id": "Y0W1A",
        "name": "MIDLANDS AND LANCASHIRE CSU - CROSSGATE HOUSE",
        "primary_role_id": "RO214",
        "role_ids": [
            "RO214"
        ],
        "status": "Active",
        "post_code": "M33 7FT",
        "uprn": "10070460261"
    },
    {
        "org_id": "V3F8P",
        "name": "THE ARK",
        "primary_role_id": "RO214",
        "role_ids": [
            "RO214"
        ],
        "status": "Active",
        "post_code": "SN13 9GB",
        "uprn": "Unknown"
    },
    {
        "org_id": "T6O5Y",
        "name": "MIDLANDS AND LANCASHIRE CSU - STRAWBERRY MEADOWS",
        "primary_role_id": "RO214",
        "role_ids": [
            "RO214"
        ],
        "status": "Active",
        "post_code": "PR7 6FL",
        "uprn": "Unknown"
    },
    {
        "org_id": "B6B9G",
        "name": "BENNETT HOUSE",
        "primary_role_id": "RO214",
        "role_ids": [
            "RO214"
        ],
        "status": "Active",
        "post_code": "ST1 2QB",
        "uprn": "Unknown"
    },
    {
        "org_id": "U9T9A",
        "name": "BEACON HOUSE",
        "primary_role_id": "RO214",
        "role_ids": [
            "RO214"
        ],
        "status": "Active",
        "post_code": "SN10 2EY",
        "uprn": "Unknown"
    },
    {
        "org_id": "O6P2W",
        "name": "JENNER HOUSE",
        "primary_role_id": "RO214",
        "role_ids": [
            "RO214"
        ],
        "status": "Active",
        "post_code": "SN15 1GG",
        "uprn": "Unknown"
    },
    {
        "org_id": "K7K4Q",
        "name": "KENT HOUSE",
        "primary_role_id": "RO214",
        "role_ids": [
            "RO214"
        ],
        "status": "Active",
        "post_code": "TN23 1PP",
        "uprn": "Unknown"
    },
    {
        "org_id": "B0N1N",
        "name": "EAGLE BRIDGE HEALTH WELLBEING CENTRE",
        "primary_role_id": "RO214",
        "role_ids": [
            "RO214"
        ],
        "status": "Active",
        "post_code": "CW1 3AW",
        "uprn": "Unknown"
    },
    {
        "org_id": "F1I0E",
        "name": "ONS, TITCHFIELD",
        "primary_role_id": "RO214",
        "role_ids": [
            "RO214"
        ],
        "status": "Active",
        "post_code": "PO15 5RR",
        "uprn": "Unknown"
    },
    {
        "org_id": "Z1I5F",
        "name": "SACKVILLE HOUSE",
        "primary_role_id": "RO214",
        "role_ids": [
            "RO214"
        ],
        "status": "Active",
        "post_code": "BN7 2FZ",
        "uprn": "Unknown"
    },
    {
        "org_id": "W3A9J",
        "name": "SHIRE HALL",
        "primary_role_id": "RO214",
        "role_ids": [
            "RO214"
        ],
        "status": "Active",
        "post_code": "GL1 2TG",
        "uprn": "Unknown"
    },
    {
        "org_id": "Z0W1E",
        "name": "UNIPART HOUSE",
        "primary_role_id": "RO214",
        "role_ids": [
            "RO214"
        ],
        "status": "Active",
        "post_code": "OX4 2PG",
        "uprn": "Unknown"
    },
    {
        "org_id": "I2X0A",
        "name": "WAT TYLER HOUSE",
        "primary_role_id": "RO214",
        "role_ids": [
            "RO214"
        ],
        "status": "Active",
        "post_code": "SN1 2JG",
        "uprn": "Unknown"
    },
    {
        "org_id": "L8I5N",
        "name": "WICKER HOUSE",
        "primary_role_id": "RO214",
        "role_ids": [
            "RO214"
        ],
        "status": "Active",
        "post_code": "BN11 1DJ",
        "uprn": "Unknown"
    },
    {
        "org_id": "K7H4Y",
        "name": "YORK HOUSE",
        "primary_role_id": "RO214",
        "role_ids": [
            "RO214"
        ],
        "status": "Active",
        "post_code": "RH6 7DE",
        "uprn": "Unknown"
    },
    {
        "org_id": "U5Y8E",
        "name": "BUILDING 008 FORT SOUTHWICK",
        "primary_role_id": "RO214",
        "role_ids": [
            "RO214"
        ],
        "status": "Active",
        "post_code": "PO17 6AR",
        "uprn": "10091882265"
    }
]