[
    {
        "org_id": "69130",
        "name": "CRAWLEY HOSPITAL LABORATORY",
        "primary_role_id": "RO173",
        "role_ids": [
            "RO173"
        ],
        "status": "Active",
        "post_code": "RH11 7DH",
        "uprn": "100062475082"
    },
    {
        "org_id": "690W0",
        "name": "CHASE FARM HOSPITALS (ENFIELD ACUTE) LABORATORY",
        "primary_role_id": "RO173",
        "role_ids": [
            "RO173"
        ],
        "status": "Active",
        "post_code": "EN2 8JL",
        "uprn": "207183897"
    },
    {
        "org_id": "69Z03",
        "name": "BARNET GENERAL HOSPITAL LABORATORY",
        "primary_role_id": "RO173",
        "role_ids": [
            "RO173"
        ],
        "status": "Active",
        "post_code": "EN5 3DJ",
        "uprn": "200134904"
    },
    {
        "org_id": "692D0",
        "name": "KENT & CANTERBURY HOSPITAL LABORATORY",
        "primary_role_id": "RO173",
        "role_ids": [
            "RO173"
        ],
        "status": "Active",
        "post_code": "CT1 3NG",
        "uprn": "Unknown"
    },
    {
        "org_id": "692K0",
        "name": "KINGSTON HOSPITAL LABORATORY",
        "primary_role_id": "RO173",
        "role_ids": [
            "RO173"
        ],
        "status": "Active",
        "post_code": "KT2 7QB",
        "uprn": "100023059215"
    },
    {
        "org_id": "696J0",
        "name": "DIANA, PRINCESS OF WALES HOSPITAL LABORATORY",
        "primary_role_id": "RO173",
        "role_ids": [
            "RO173"
        ],
        "status": "Active",
        "post_code": "DN33 2BA",
        "uprn": "11081882"
    },
    {
        "org_id": "694M0",
        "name": "SCUNTHORPE GENERAL HOSPITAL LABORATORY",
        "primary_role_id": "RO173",
        "role_ids": [
            "RO173"
        ],
        "status": "Active",
        "post_code": "DN15 7BH",
        "uprn": "Unknown"
    },
    {
        "org_id": "69060",
        "name": "BARNSLEY DISTRICT GENERAL HOSPITAL LABORATORY",
        "primary_role_id": "RO173",
        "role_ids": [
            "RO173"
        ],
        "status": "Active",
        "post_code": "S75 2EP",
        "uprn": "100052201981"
    },
    {
        "org_id": "692G0",
        "name": "KIDDERMINSTER GENERAL HOSPITAL LABORATORY",
        "primary_role_id": "RO173",
        "role_ids": [
            "RO173"
        ],
        "status": "Active",
        "post_code": "DY11 6RJ",
        "uprn": "100120752267"
    },
    {
        "org_id": "69070",
        "name": "BASILDON HOSPITAL LABORATORY",
        "primary_role_id": "RO173",
        "role_ids": [
            "RO173"
        ],
        "status": "Active",
        "post_code": "SS16 5NL",
        "uprn": "Unknown"
    },
    {
        "org_id": "690L0",
        "name": "BURNLEY GENERAL HOSPITAL LABORATORY",
        "primary_role_id": "RO173",
        "role_ids": [
            "RO173"
        ],
        "status": "Active",
        "post_code": "BB10 2PQ",
        "uprn": "10023762685"
    },
    {
        "org_id": "694Q0",
        "name": "SOUTH BUCKINGHAMSHIRE LABORATORY",
        "primary_role_id": "RO173",
        "role_ids": [
            "RO173"
        ],
        "status": "Active",
        "post_code": "HP11 2TT",
        "uprn": "100081168605"
    },
    {
        "org_id": "69580",
        "name": "STOKE MANDEVILLE HOSPITAL LABORATORY",
        "primary_role_id": "RO173",
        "role_ids": [
            "RO173"
        ],
        "status": "Active",
        "post_code": "HP21 8AL",
        "uprn": "Unknown"
    },
    {
        "org_id": "690Z0",
        "name": "WANSBECK HOSPITAL LABORATORY",
        "primary_role_id": "RO173",
        "role_ids": [
            "RO173"
        ],
        "status": "Active",
        "post_code": "NE63 9JJ",
        "uprn": "100110768303"
    },
    {
        "org_id": "693B0",
        "name": "NORTH TYNESIDE GENERAL HOSP LABORATORY",
        "primary_role_id": "RO173",
        "role_ids": [
            "RO173"
        ],
        "status": "Active",
        "post_code": "NE29 8NH",
        "uprn": "47074492"
    },
    {
        "org_id": "69050",
        "name": "ASHFORD & ST PETER'S HOSPITAL LABORATORY",
        "primary_role_id": "RO173",
        "role_ids": [
            "RO173"
        ],
        "status": "Active",
        "post_code": "KT16 0PP",
        "uprn": "Unknown"
    },
    {
        "org_id": "69560",
        "name": "ST PETER'S HOSPITAL LABORATORY",
        "primary_role_id": "RO173",
        "role_ids": [
            "RO173"
        ],
        "status": "Active",
        "post_code": "KT16 0PZ",
        "uprn": "Unknown"
    },
    {
        "org_id": "693P0",
        "name": "PILGRIM HOSPITAL LABORATORY",
        "primary_role_id": "RO173",
        "role_ids": [
            "RO173"
        ],
        "status": "Active",
        "post_code": "PE21 9QS",
        "uprn": "100032296280"
    },
    {
        "org_id": "694B0",
        "name": "ROYAL SURREY COUNTY HOSPITAL LABORATORY",
        "primary_role_id": "RO173",
        "role_ids": [
            "RO173"
        ],
        "status": "Active",
        "post_code": "GU2 7XX",
        "uprn": "100062331026"
    },
    {
        "org_id": "694R0",
        "name": "TORBAY HOSPITAL LABORATORY",
        "primary_role_id": "RO173",
        "role_ids": [
            "RO173"
        ],
        "status": "Active",
        "post_code": "TQ2 7AA",
        "uprn": "Unknown"
    },
    {
        "org_id": "69180",
        "name": "DONCASTER ROYAL INFIRMARY LABORATORY",
        "primary_role_id": "RO173",
        "role_ids": [
            "RO173"
        ],
        "status": "Active",
        "post_code": "DN2 5LT",
        "uprn": "10006580750"
    },
    {
        "org_id": "694Y0",
        "name": "SOUTHEND HOSPITAL LABORATORY",
        "primary_role_id": "RO173",
        "role_ids": [
            "RO173"
        ],
        "status": "Active",
        "post_code": "SS0 0RY",
        "uprn": "Unknown"
    },
    {
        "org_id": "69360",
        "name": "LISTER HOSPITAL LABORATORY",
        "primary_role_id": "RO173",
        "role_ids": [
            "RO173"
        ],
        "status": "Active",
        "post_code": "SG1 4AB",
        "uprn": "Unknown"
    },
    {
        "org_id": "695W0",
        "name": "DORSET COUNTY HOSPITAL LABORATORY",
        "primary_role_id": "RO173",
        "role_ids": [
            "RO173"
        ],
        "status": "Active",
        "post_code": "DT1 2JY",
        "uprn": "200000755531"
    },
    {
        "org_id": "69530",
        "name": "WHISTON HOSPITAL LABORATORY",
        "primary_role_id": "RO173",
        "role_ids": [
            "RO173"
        ],
        "status": "Active",
        "post_code": "L35 5DR",
        "uprn": "40012845"
    },
    {
        "org_id": "693D0",
        "name": "NORTHERN DEVON DISTRICT HOSPITAL LABORATORY",
        "primary_role_id": "RO173",
        "role_ids": [
            "RO173"
        ],
        "status": "Active",
        "post_code": "EX31 4JB",
        "uprn": "10012091472"
    },
    {
        "org_id": "691A0",
        "name": "EALING HOSPITAL LABORATORY",
        "primary_role_id": "RO173",
        "role_ids": [
            "RO173"
        ],
        "status": "Active",
        "post_code": "UB1 3HW",
        "uprn": "12001075"
    },
    {
        "org_id": "691D0",
        "name": "QUEEN ELIZABETH II HOSPITAL LABORATORY",
        "primary_role_id": "RO173",
        "role_ids": [
            "RO173"
        ],
        "status": "Active",
        "post_code": "AL7 4HQ",
        "uprn": "Unknown"
    },
    {
        "org_id": "694L0",
        "name": "SCARBOROUGH GENERAL HOSPITAL LABORATORY",
        "primary_role_id": "RO173",
        "role_ids": [
            "RO173"
        ],
        "status": "Active",
        "post_code": "YO12 6QL",
        "uprn": "100052211189"
    },
    {
        "org_id": "691Z0",
        "name": "HARROGATE DISTRICT HOSPITAL LABORATORY",
        "primary_role_id": "RO173",
        "role_ids": [
            "RO173"
        ],
        "status": "Active",
        "post_code": "HG2 7SX",
        "uprn": "10003597440"
    },
    {
        "org_id": "692J0",
        "name": "QUEEN ELIZABETH HOSP, NORFOLK LABORATORY",
        "primary_role_id": "RO173",
        "role_ids": [
            "RO173"
        ],
        "status": "Active",
        "post_code": "PE30 4ET",
        "uprn": "Unknown"
    },
    {
        "org_id": "693S0",
        "name": "POOLE GENERAL HOSPITAL LABORATORY",
        "primary_role_id": "RO173",
        "role_ids": [
            "RO173"
        ],
        "status": "Active",
        "post_code": "BH15 2JB",
        "uprn": "100041056131"
    },
    {
        "org_id": "691B0",
        "name": "MACCLESFIELD DISTRICT GENERAL HOSPITAL LABORATORY",
        "primary_role_id": "RO173",
        "role_ids": [
            "RO173"
        ],
        "status": "Active",
        "post_code": "SK10 3BL",
        "uprn": "Unknown"
    },
    {
        "org_id": "695A0",
        "name": "TAMESIDE GENERAL HOSPITAL LABORATORY",
        "primary_role_id": "RO173",
        "role_ids": [
            "RO173"
        ],
        "status": "Active",
        "post_code": "OL6 9RW",
        "uprn": "100012485136"
    },
    {
        "org_id": "69570",
        "name": "STEPPING HILL HOSPITAL LABORATORY",
        "primary_role_id": "RO173",
        "role_ids": [
            "RO173"
        ],
        "status": "Active",
        "post_code": "SK2 7JE",
        "uprn": "100012482999"
    },
    {
        "org_id": "69640",
        "name": "WINCHESTER & EASTLEIGH HEALTHCARE LABORATORY",
        "primary_role_id": "RO173",
        "role_ids": [
            "RO173"
        ],
        "status": "Active",
        "post_code": "SO22 5DG",
        "uprn": "100062519769"
    },
    {
        "org_id": "69190",
        "name": "DEPT OF PATHOLOGY (RUSSELLS HALL HOSP)",
        "primary_role_id": "RO173",
        "role_ids": [
            "RO173"
        ],
        "status": "Active",
        "post_code": "DY1 2HQ",
        "uprn": "90158581"
    },
    {
        "org_id": "690Y0",
        "name": "CHESTERFIELD & NORTH DERBYSHIRE ROYAL HOSPITAL LABORATORY",
        "primary_role_id": "RO173",
        "role_ids": [
            "RO173"
        ],
        "status": "Active",
        "post_code": "S44 5BL",
        "uprn": "Unknown"
    },
    {
        "org_id": "692F0",
        "name": "KETTERING GENERAL HOSPITAL LABORATORY",
        "primary_role_id": "RO173",
        "role_ids": [
            "RO173"
        ],
        "status": "Active",
        "post_code": "NN16 8UZ",
        "uprn": "100032144449"
    },
    {
        "org_id": "695C0",
        "name": "THANET DISTRICT GENERAL HOSPITAL LABORATORY",
        "primary_role_id": "RO173",
        "role_ids": [
            "RO173"
        ],
        "status": "Active",
        "post_code": "CT9 4AN",
        "uprn": "Unknown"
    },
    {
        "org_id": "690H0",
        "name": "BRADFORD ROYAL INFIRMARY LABORATORY",
        "primary_role_id": "RO173",
        "role_ids": [
            "RO173"
        ],
        "status": "Active",
        "post_code": "BD9 6RJ",
        "uprn": "100051155784"
    },
    {
        "org_id": "69020",
        "name": "FAZAKERLEY HOSPITAL LABORATORY",
        "primary_role_id": "RO173",
        "role_ids": [
            "RO173"
        ],
        "status": "Active",
        "post_code": "L9 7AL",
        "uprn": "Unknown"
    },
    {
        "org_id": "690A0",
        "name": "HEARTLANDS HOSPITAL LABORATORY",
        "primary_role_id": "RO173",
        "role_ids": [
            "RO173"
        ],
        "status": "Active",
        "post_code": "B9 5ST",
        "uprn": "100071488273"
    },
    {
        "org_id": "690D0",
        "name": "QUEEN'S PARK HOSPITAL LABORATORY",
        "primary_role_id": "RO173",
        "role_ids": [
            "RO173"
        ],
        "status": "Active",
        "post_code": "BB2 3HH",
        "uprn": "Unknown"
    },
    {
        "org_id": "690E0",
        "name": "BLACKPOOL VICTORIA HOSPITAL LABORATORY",
        "primary_role_id": "RO173",
        "role_ids": [
            "RO173"
        ],
        "status": "Active",
        "post_code": "FY3 8NR",
        "uprn": "Unknown"
    },
    {
        "org_id": "690F0",
        "name": "THE ROYAL BOLTON HOSPITAL LABORATORY",
        "primary_role_id": "RO173",
        "role_ids": [
            "RO173"
        ],
        "status": "Active",
        "post_code": "BL4 0JR",
        "uprn": "Unknown"
    },
    {
        "org_id": "690J0",
        "name": "ROYAL SUSSEX COUNTY HOSPITAL LABORATORY",
        "primary_role_id": "RO173",
        "role_ids": [
            "RO173"
        ],
        "status": "Active",
        "post_code": "BN2 5BE",
        "uprn": "22082402"
    },
    {
        "org_id": "690Q0",
        "name": "CUMBERLAND INFIRMARY LABORATORY",
        "primary_role_id": "RO173",
        "role_ids": [
            "RO173"
        ],
        "status": "Active",
        "post_code": "CA2 7HY",
        "uprn": "Unknown"
    },
    {
        "org_id": "690V0",
        "name": "ROYAL HALLAMSHIRE HOSPITAL LABORATORY",
        "primary_role_id": "RO173",
        "role_ids": [
            "RO173"
        ],
        "status": "Active",
        "post_code": "S10 2JF",
        "uprn": "100052081025"
    },
    {
        "org_id": "69100",
        "name": "CITY HOSPITAL NHS TRUST",
        "primary_role_id": "RO173",
        "role_ids": [
            "RO173"
        ],
        "status": "Active",
        "post_code": "B18 7QH",
        "uprn": "Unknown"
    },
    {
        "org_id": "69120",
        "name": "COUNTESS OF CHESTER HOSPITAL LABORATORY",
        "primary_role_id": "RO173",
        "role_ids": [
            "RO173"
        ],
        "status": "Active",
        "post_code": "CH2 1UL",
        "uprn": "Unknown"
    },
    {
        "org_id": "691F0",
        "name": "EAST SURREY HOSPITAL LABORATORY",
        "primary_role_id": "RO173",
        "role_ids": [
            "RO173"
        ],
        "status": "Active",
        "post_code": "RH1 5RH",
        "uprn": "Unknown"
    },
    {
        "org_id": "691K0",
        "name": "COLCHESTER GENERAL HOSPITAL LABORATORY",
        "primary_role_id": "RO173",
        "role_ids": [
            "RO173"
        ],
        "status": "Active",
        "post_code": "CO4 5JL",
        "uprn": "Unknown"
    },
    {
        "org_id": "691R0",
        "name": "GLOUCESTERSHIRE ROYAL HOSPITAL LABORATORY",
        "primary_role_id": "RO173",
        "role_ids": [
            "RO173"
        ],
        "status": "Active",
        "post_code": "GL1 3NN",
        "uprn": "Unknown"
    },
    {
        "org_id": "69230",
        "name": "WEXHAM PARK HOSPITAL LABORATORY",
        "primary_role_id": "RO173",
        "role_ids": [
            "RO173"
        ],
        "status": "Active",
        "post_code": "SL2 4HL",
        "uprn": "200000848891"
    },
    {
        "org_id": "69240",
        "name": "COUNTY HOSPITAL LABORATORY",
        "primary_role_id": "RO173",
        "role_ids": [
            "RO173"
        ],
        "status": "Active",
        "post_code": "HR1 2ER",
        "uprn": "Unknown"
    },
    {
        "org_id": "692A0",
        "name": "IPSWICH HOSPITAL LABORATORY",
        "primary_role_id": "RO173",
        "role_ids": [
            "RO173"
        ],
        "status": "Active",
        "post_code": "IP4 5PD",
        "uprn": "Unknown"
    },
    {
        "org_id": "692M0",
        "name": "LEICESTER ROYAL INFIRMARY LABORATORY",
        "primary_role_id": "RO173",
        "role_ids": [
            "RO173"
        ],
        "status": "Active",
        "post_code": "LE1 5WW",
        "uprn": "2465055933"
    },
    {
        "org_id": "692P0",
        "name": "LINCOLN COUNTY HOSPITAL LABORATORY",
        "primary_role_id": "RO173",
        "role_ids": [
            "RO173"
        ],
        "status": "Active",
        "post_code": "LN2 5QY",
        "uprn": "235033632"
    },
    {
        "org_id": "692Q0",
        "name": "LUTON & DUNSTABLE HOSPITAL LABORATORY",
        "primary_role_id": "RO173",
        "role_ids": [
            "RO173"
        ],
        "status": "Active",
        "post_code": "LU4 0DZ",
        "uprn": "Unknown"
    },
    {
        "org_id": "692V0",
        "name": "BROOMFIELD HOSPITAL LABORATORY",
        "primary_role_id": "RO173",
        "role_ids": [
            "RO173"
        ],
        "status": "Active",
        "post_code": "CM1 7ET",
        "uprn": "100091643865"
    },
    {
        "org_id": "692Z0",
        "name": "MILTON KEYNES GENERAL HOSPITAL LABORATORY",
        "primary_role_id": "RO173",
        "role_ids": [
            "RO173"
        ],
        "status": "Active",
        "post_code": "MK6 5LD",
        "uprn": "Unknown"
    },
    {
        "org_id": "69390",
        "name": "NORTH STAFFORDSHIRE HOSPITAL LABORATORY",
        "primary_role_id": "RO173",
        "role_ids": [
            "RO173"
        ],
        "status": "Active",
        "post_code": "ST4 7PA",
        "uprn": "Unknown"
    },
    {
        "org_id": "693C0",
        "name": "NORTHAMPTON GENERAL HOSPITAL LABORATORY",
        "primary_role_id": "RO173",
        "role_ids": [
            "RO173"
        ],
        "status": "Active",
        "post_code": "NN1 5BD",
        "uprn": "Unknown"
    },
    {
        "org_id": "693E0",
        "name": "NORTHERN GENERAL HOSPITAL LABORATORY",
        "primary_role_id": "RO173",
        "role_ids": [
            "RO173"
        ],
        "status": "Active",
        "post_code": "S5 7AU",
        "uprn": "100050995915"
    },
    {
        "org_id": "693L0",
        "name": "OLDHAM LABORATORY",
        "primary_role_id": "RO173",
        "role_ids": [
            "RO173"
        ],
        "status": "Active",
        "post_code": "OL1 2PN",
        "uprn": "Unknown"
    },
    {
        "org_id": "693N0",
        "name": "PETERBOROUGH HOSPITAL LABORATORY",
        "primary_role_id": "RO173",
        "role_ids": [
            "RO173"
        ],
        "status": "Active",
        "post_code": "PE3 6DA",
        "uprn": "Unknown"
    },
    {
        "org_id": "693R0",
        "name": "DERRIFORD HOSPITAL LABORATORY",
        "primary_role_id": "RO173",
        "role_ids": [
            "RO173"
        ],
        "status": "Active",
        "post_code": "PL6 8DH",
        "uprn": "100041168060"
    },
    {
        "org_id": "693U0",
        "name": "ROYAL PRESTON HOSPITAL LABORATORY",
        "primary_role_id": "RO173",
        "role_ids": [
            "RO173"
        ],
        "status": "Active",
        "post_code": "PR2 9HT",
        "uprn": "Unknown"
    },
    {
        "org_id": "69400",
        "name": "BERKSHIRE AND SURREY PATHOLOGY SERVICES (BSPS) - HPV PRIMARY SCREENING PROGRAMME",
        "primary_role_id": "RO173",
        "role_ids": [
            "RO173"
        ],
        "status": "Active",
        "post_code": "RG1 5AN",
        "uprn": "310046674"
    },
    {
        "org_id": "69440",
        "name": "ROYAL DEVON & EXETER HOSPITAL (WONFORD) LABORATORY",
        "primary_role_id": "RO173",
        "role_ids": [
            "RO173"
        ],
        "status": "Active",
        "post_code": "EX2 5DW",
        "uprn": "Unknown"
    },
    {
        "org_id": "69460",
        "name": "HULL & EAST YORKSHIRE PATHOLOGY SERVICES",
        "primary_role_id": "RO173",
        "role_ids": [
            "RO173"
        ],
        "status": "Active",
        "post_code": "HU3 2JZ",
        "uprn": "Unknown"
    },
    {
        "org_id": "69470",
        "name": "ROYAL LIVERPOOL UNIVERSITY HOSPITAL LABORATORY",
        "primary_role_id": "RO173",
        "role_ids": [
            "RO173"
        ],
        "status": "Active",
        "post_code": "L7 8XP",
        "uprn": "38120459"
    },
    {
        "org_id": "69430",
        "name": "ROYAL CORNWALL HOSPITALS & WEST CORNWALL HOSPITAL LABORATORY",
        "primary_role_id": "RO173",
        "role_ids": [
            "RO173"
        ],
        "status": "Active",
        "post_code": "TR1 3LJ",
        "uprn": "Unknown"
    },
    {
        "org_id": "69040",
        "name": "THE ALEXANDRA HOSPITAL LABORATORY",
        "primary_role_id": "RO173",
        "role_ids": [
            "RO173"
        ],
        "status": "Active",
        "post_code": "B98 7UB",
        "uprn": "100121270565"
    },
    {
        "org_id": "694S0",
        "name": "THE WILLIAM HARVEY HOSPITAL LABORATORY",
        "primary_role_id": "RO173",
        "role_ids": [
            "RO173"
        ],
        "status": "Active",
        "post_code": "TN24 0LZ",
        "uprn": "100062617941"
    },
    {
        "org_id": "694F0",
        "name": "NEW CROSS HOSPITAL PATHOLOGY LABORATORY",
        "primary_role_id": "RO173",
        "role_ids": [
            "RO173"
        ],
        "status": "Active",
        "post_code": "WV10 0QP",
        "uprn": "100071556759"
    },
    {
        "org_id": "694J0",
        "name": "SALISBURY DISTRICT HOSPITAL LABORATORY",
        "primary_role_id": "RO173",
        "role_ids": [
            "RO173"
        ],
        "status": "Active",
        "post_code": "SP2 8BJ",
        "uprn": "100121333469"
    },
    {
        "org_id": "693Z0",
        "name": "ROTHERHAM GENERAL HOSPITAL LABORATORY",
        "primary_role_id": "RO173",
        "role_ids": [
            "RO173"
        ],
        "status": "Active",
        "post_code": "S60 2UD",
        "uprn": "Unknown"
    },
    {
        "org_id": "69170",
        "name": "DEWSBURY & DISTRICT HOSPITAL LABORATORY",
        "primary_role_id": "RO173",
        "role_ids": [
            "RO173"
        ],
        "status": "Active",
        "post_code": "WF13 4HS",
        "uprn": "Unknown"
    },
    {
        "org_id": "694K0",
        "name": "SANDWELL GENERAL HOSPITAL LABORATORY",
        "primary_role_id": "RO173",
        "role_ids": [
            "RO173"
        ],
        "status": "Active",
        "post_code": "B71 4HJ",
        "uprn": "32115285"
    },
    {
        "org_id": "691C0",
        "name": "CHELTENHAM GENERAL HOSPITAL",
        "primary_role_id": "RO173",
        "role_ids": [
            "RO173"
        ],
        "status": "Active",
        "post_code": "GL53 7AN",
        "uprn": "200002678707"
    },
    {
        "org_id": "69210",
        "name": "HASTINGS & ROTHER LABORATORY",
        "primary_role_id": "RO173",
        "role_ids": [
            "RO173"
        ],
        "status": "Active",
        "post_code": "TN37 7RD",
        "uprn": "200003866278"
    },
    {
        "org_id": "693Y0",
        "name": "BIRCH HILL HOSPITAL LABORATORY",
        "primary_role_id": "RO173",
        "role_ids": [
            "RO173"
        ],
        "status": "Active",
        "post_code": "OL12 9QB",
        "uprn": "23105075"
    }
]