[
    {
        "org_id": "RW6",
        "name": "PENNINE ACUTE HOSPITALS NHS TRUST",
        "primary_role_id": "RO197",
        "role_ids": [
            "RO197"
        ],
        "status": "Active",
        "post_code": "M8 5RB",
        "uprn": "77009523"
    },
    {
        "org_id": "RHU",
        "name": "PORTSMOUTH HOSPITALS UNIVERSITY NATIONAL HEALTH SERVICE TRUST",
        "primary_role_id": "RO197",
        "role_ids": [
            "RO7",
            "RO197"
        ],
        "status": "Active",
        "post_code": "PO6 3LY",
        "uprn": "1775098163"
    },
    {
        "org_id": "RTQ",
        "name": "GLOUCESTERSHIRE HEALTH AND CARE NHS FOUNDATION TRUST",
        "primary_role_id": "RO197",
        "role_ids": [
            "RO57",
            "RO197"
        ],
        "status": "Active",
        "post_code": "GL3 4AW",
        "uprn": "10067626544"
    },
    {
        "org_id": "REP",
        "name": "LIVERPOOL WOMEN'S NHS FOUNDATION TRUST",
        "primary_role_id": "RO197",
        "role_ids": [
            "RO57",
            "RO197"
        ],
        "status": "Active",
        "post_code": "L8 7SS",
        "uprn": "38039333"
    },
    {
        "org_id": "RC3",
        "name": "EALING HOSPITAL NHS TRUST",
        "primary_role_id": "RO197",
        "role_ids": [
            "RO7",
            "RO197"
        ],
        "status": "Active",
        "post_code": "UB1 3HW",
        "uprn": "12001075"
    },
    {
        "org_id": "RK5",
        "name": "SHERWOOD FOREST HOSPITALS NHS FOUNDATION TRUST",
        "primary_role_id": "RO197",
        "role_ids": [
            "RO57",
            "RO197"
        ],
        "status": "Active",
        "post_code": "NG17 4JL",
        "uprn": "100032103755"
    },
    {
        "org_id": "RW4",
        "name": "MERSEY CARE NHS FOUNDATION TRUST",
        "primary_role_id": "RO197",
        "role_ids": [
            "RO57",
            "RO197"
        ],
        "status": "Active",
        "post_code": "L34 1PJ",
        "uprn": "10091806420"
    },
    {
        "org_id": "RRJ",
        "name": "THE ROYAL ORTHOPAEDIC HOSPITAL NHS FOUNDATION TRUST",
        "primary_role_id": "RO197",
        "role_ids": [
            "RO57",
            "RO197"
        ],
        "status": "Active",
        "post_code": "B31 2AP",
        "uprn": "10024329781"
    },
    {
        "org_id": "RKE",
        "name": "WHITTINGTON HEALTH NHS TRUST",
        "primary_role_id": "RO197",
        "role_ids": [
            "RO7",
            "RO197"
        ],
        "status": "Active",
        "post_code": "N19 5NF",
        "uprn": "10090262687"
    },
    {
        "org_id": "RTE",
        "name": "GLOUCESTERSHIRE HOSPITALS NHS FOUNDATION TRUST",
        "primary_role_id": "RO197",
        "role_ids": [
            "RO57",
            "RO197"
        ],
        "status": "Active",
        "post_code": "GL53 7AN",
        "uprn": "200002678707"
    },
    {
        "org_id": "RR8",
        "name": "LEEDS TEACHING HOSPITALS NHS TRUST",
        "primary_role_id": "RO197",
        "role_ids": [
            "RO197"
        ],
        "status": "Active",
        "post_code": "LS9 7TF",
        "uprn": "72016246"
    },
    {
        "org_id": "RQX",
        "name": "HOMERTON HEALTHCARE NHS FOUNDATION TRUST",
        "primary_role_id": "RO197",
        "role_ids": [
            "RO7",
            "RO57",
            "RO197"
        ],
        "status": "Active",
        "post_code": "E9 6SR",
        "uprn": "10008242319"
    },
    {
        "org_id": "RM2",
        "name": "UNIVERSITY HOSPITAL OF SOUTH MANCHESTER NHS FOUNDATION TRUST",
        "primary_role_id": "RO197",
        "role_ids": [
            "RO7",
            "RO57",
            "RO197"
        ],
        "status": "Active",
        "post_code": "M23 9LT",
        "uprn": "77239155"
    },
    {
        "org_id": "RPC",
        "name": "QUEEN VICTORIA HOSPITAL NHS FOUNDATION TRUST",
        "primary_role_id": "RO197",
        "role_ids": [
            "RO57",
            "RO197"
        ],
        "status": "Active",
        "post_code": "RH19 3DZ",
        "uprn": "100062616507"
    },
    {
        "org_id": "RR7",
        "name": "GATESHEAD HEALTH NHS FOUNDATION TRUST",
        "primary_role_id": "RO197",
        "role_ids": [
            "RO57",
            "RO197"
        ],
        "status": "Active",
        "post_code": "NE9 6SX",
        "uprn": "100000529682"
    },
    {
        "org_id": "RGM",
        "name": "ROYAL PAPWORTH HOSPITAL NHS FOUNDATION TRUST",
        "primary_role_id": "RO197",
        "role_ids": [
            "RO7",
            "RO57",
            "RO197"
        ],
        "status": "Active",
        "post_code": "CB2 0AY",
        "uprn": "10093698746"
    },
    {
        "org_id": "RT1",
        "name": "CAMBRIDGESHIRE AND PETERBOROUGH NHS FOUNDATION TRUST",
        "primary_role_id": "RO197",
        "role_ids": [
            "RO57",
            "RO197"
        ],
        "status": "Active",
        "post_code": "CB21 5EF",
        "uprn": "100091410393"
    },
    {
        "org_id": "RET",
        "name": "THE WALTON CENTRE NHS FOUNDATION TRUST",
        "primary_role_id": "RO197",
        "role_ids": [
            "RO57",
            "RO197"
        ],
        "status": "Active",
        "post_code": "L9 7LJ",
        "uprn": "38095813"
    },
    {
        "org_id": "RFR",
        "name": "THE ROTHERHAM NHS FOUNDATION TRUST",
        "primary_role_id": "RO197",
        "role_ids": [
            "RO7",
            "RO57",
            "RO197"
        ],
        "status": "Active",
        "post_code": "S60 2UD",
        "uprn": "200000582870"
    },
    {
        "org_id": "RK9",
        "name": "UNIVERSITY HOSPITALS PLYMOUTH NHS TRUST",
        "primary_role_id": "RO197",
        "role_ids": [
            "RO7",
            "RO197"
        ],
        "status": "Active",
        "post_code": "PL6 8DH",
        "uprn": "100041168060"
    },
    {
        "org_id": "RJE",
        "name": "UNIVERSITY HOSPITALS OF NORTH MIDLANDS NHS TRUST",
        "primary_role_id": "RO197",
        "role_ids": [
            "RO7",
            "RO197",
            "RO268"
        ],
        "status": "Active",
        "post_code": "ST4 6QG",
        "uprn": "3455114370"
    },
    {
        "org_id": "RJ8",
        "name": "CORNWALL PARTNERSHIP NHS FOUNDATION TRUST",
        "primary_role_id": "RO197",
        "role_ids": [
            "RO57",
            "RO197"
        ],
        "status": "Active",
        "post_code": "PL31 2QN",
        "uprn": "Unknown"
    },
    {
        "org_id": "RDZ",
        "name": "THE ROYAL BOURNEMOUTH AND CHRISTCHURCH HOSPITALS NHS FOUNDATION TRUST",
        "primary_role_id": "RO197",
        "role_ids": [
            "RO7",
            "RO57",
            "RO197"
        ],
        "status": "Active",
        "post_code": "BH7 7DW",
        "uprn": "100041110435"
    },
    {
        "org_id": "RDU",
        "name": "FRIMLEY HEALTH NHS FOUNDATION TRUST",
        "primary_role_id": "RO197",
        "role_ids": [
            "RO7",
            "RO57",
            "RO197"
        ],
        "status": "Active",
        "post_code": "GU16 7UJ",
        "uprn": "100062329311"
    },
    {
        "org_id": "RDR",
        "name": "SUSSEX COMMUNITY NHS FOUNDATION TRUST",
        "primary_role_id": "RO197",
        "role_ids": [
            "RO7",
            "RO57",
            "RO197"
        ],
        "status": "Active",
        "post_code": "BN2 3EW",
        "uprn": "22088627"
    },
    {
        "org_id": "RBN",
        "name": "MERSEY AND WEST LANCASHIRE TEACHING HOSPITALS NHS TRUST",
        "primary_role_id": "RO197",
        "role_ids": [
            "RO7",
            "RO197"
        ],
        "status": "Active",
        "post_code": "L35 5DR",
        "uprn": "40012845"
    },
    {
        "org_id": "RBK",
        "name": "WALSALL HEALTHCARE NHS TRUST",
        "primary_role_id": "RO197",
        "role_ids": [
            "RO197"
        ],
        "status": "Active",
        "post_code": "WS2 9PS",
        "uprn": "200003322598"
    },
    {
        "org_id": "RAS",
        "name": "THE HILLINGDON HOSPITALS NHS FOUNDATION TRUST",
        "primary_role_id": "RO197",
        "role_ids": [
            "RO7",
            "RO57",
            "RO197"
        ],
        "status": "Active",
        "post_code": "UB8 3NN",
        "uprn": "100023422886"
    },
    {
        "org_id": "RD8",
        "name": "MILTON KEYNES UNIVERSITY HOSPITAL NHS FOUNDATION TRUST",
        "primary_role_id": "RO197",
        "role_ids": [
            "RO7",
            "RO57",
            "RO197"
        ],
        "status": "Active",
        "post_code": "MK6 5LD",
        "uprn": "25097921"
    },
    {
        "org_id": "RCB",
        "name": "YORK AND SCARBOROUGH TEACHING HOSPITALS NHS FOUNDATION TRUST",
        "primary_role_id": "RO197",
        "role_ids": [
            "RO7",
            "RO57",
            "RO197"
        ],
        "status": "Active",
        "post_code": "YO31 8HE",
        "uprn": "100052169265"
    },
    {
        "org_id": "RN7",
        "name": "DARTFORD AND GRAVESHAM NHS TRUST",
        "primary_role_id": "RO197",
        "role_ids": [
            "RO197"
        ],
        "status": "Active",
        "post_code": "DA2 8DA",
        "uprn": "200000544153"
    },
    {
        "org_id": "RYT",
        "name": "PUBLIC HEALTH WALES NHS TRUST",
        "primary_role_id": "RO197",
        "role_ids": [
            "RO197"
        ],
        "status": "Active",
        "post_code": "CF10 4BZ",
        "uprn": "10093728970"
    },
    {
        "org_id": "RW5",
        "name": "LANCASHIRE & SOUTH CUMBRIA NHS FOUNDATION TRUST",
        "primary_role_id": "RO197",
        "role_ids": [
            "RO57",
            "RO197"
        ],
        "status": "Active",
        "post_code": "PR5 6AW",
        "uprn": "10013247881"
    },
    {
        "org_id": "RQW",
        "name": "THE PRINCESS ALEXANDRA HOSPITAL NHS TRUST",
        "primary_role_id": "RO197",
        "role_ids": [
            "RO197"
        ],
        "status": "Active",
        "post_code": "CM20 1QX",
        "uprn": "10003715440"
    },
    {
        "org_id": "RX8",
        "name": "YORKSHIRE AMBULANCE SERVICE NHS TRUST",
        "primary_role_id": "RO197",
        "role_ids": [
            "RO197"
        ],
        "status": "Active",
        "post_code": "WF2 0XQ",
        "uprn": "63178340"
    },
    {
        "org_id": "RKL",
        "name": "WEST LONDON NHS TRUST",
        "primary_role_id": "RO197",
        "role_ids": [
            "RO197"
        ],
        "status": "Active",
        "post_code": "UB2 4SD",
        "uprn": "12152819"
    },
    {
        "org_id": "RWK",
        "name": "EAST LONDON NHS FOUNDATION TRUST",
        "primary_role_id": "RO197",
        "role_ids": [
            "RO57",
            "RO197"
        ],
        "status": "Active",
        "post_code": "E1 8DE",
        "uprn": "Unknown"
    },
    {
        "org_id": "RVV",
        "name": "EAST KENT HOSPITALS UNIVERSITY NHS FOUNDATION TRUST",
        "primary_role_id": "RO197",
        "role_ids": [
            "RO57",
            "RO197"
        ],
        "status": "Active",
        "post_code": "CT1 3NG",
        "uprn": "100062280103"
    },
    {
        "org_id": "RNL",
        "name": "NORTH CUMBRIA UNIVERSITY HOSPITALS NHS TRUST",
        "primary_role_id": "RO197",
        "role_ids": [
            "RO197"
        ],
        "status": "Active",
        "post_code": "CA2 7HY",
        "uprn": "Unknown"
    },
    {
        "org_id": "RWY",
        "name": "CALDERDALE AND HUDDERSFIELD NHS FOUNDATION TRUST",
        "primary_role_id": "RO197",
        "role_ids": [
            "RO57",
            "RO197"
        ],
        "status": "Active",
        "post_code": "HD3 3EA",
        "uprn": "83034315"
    },
    {
        "org_id": "REF",
        "name": "ROYAL CORNWALL HOSPITALS NHS TRUST",
        "primary_role_id": "RO197",
        "role_ids": [
            "RO197"
        ],
        "status": "Active",
        "post_code": "TR1 3LJ",
        "uprn": "10001213844"
    },
    {
        "org_id": "RRU",
        "name": "LONDON AMBULANCE SERVICE NHS TRUST",
        "primary_role_id": "RO197",
        "role_ids": [
            "RO197"
        ],
        "status": "Active",
        "post_code": "SE1 8SD",
        "uprn": "100023226260"
    },
    {
        "org_id": "RPG",
        "name": "OXLEAS NHS FOUNDATION TRUST",
        "primary_role_id": "RO197",
        "role_ids": [
            "RO57",
            "RO197"
        ],
        "status": "Active",
        "post_code": "DA2 7WG",
        "uprn": "200000533036"
    },
    {
        "org_id": "RBF",
        "name": "NUFFIELD ORTHOPAEDIC CENTRE NHS TRUST",
        "primary_role_id": "RO197",
        "role_ids": [
            "RO197"
        ],
        "status": "Active",
        "post_code": "OX3 7LD",
        "uprn": "Unknown"
    },
    {
        "org_id": "RNU",
        "name": "OXFORD HEALTH NHS FOUNDATION TRUST",
        "primary_role_id": "RO197",
        "role_ids": [
            "RO57",
            "RO197",
            "RO268"
        ],
        "status": "Active",
        "post_code": "OX4 4XN",
        "uprn": "10002762454"
    },
    {
        "org_id": "RTV",
        "name": "NORTH WEST BOROUGHS HEALTHCARE NHS FOUNDATION TRUST",
        "primary_role_id": "RO197",
        "role_ids": [
            "RO57",
            "RO197"
        ],
        "status": "Active",
        "post_code": "WA2 8WA",
        "uprn": "200000972848"
    },
    {
        "org_id": "RJC",
        "name": "SOUTH WARWICKSHIRE UNIVERSITY NHS FOUNDATION TRUST",
        "primary_role_id": "RO197",
        "role_ids": [
            "RO7",
            "RO57",
            "RO197"
        ],
        "status": "Active",
        "post_code": "CV34 5BW",
        "uprn": "100071510229"
    },
    {
        "org_id": "RYG",
        "name": "COVENTRY AND WARWICKSHIRE PARTNERSHIP NHS TRUST",
        "primary_role_id": "RO197",
        "role_ids": [
            "RO197"
        ],
        "status": "Active",
        "post_code": "CV6 6NY",
        "uprn": "10023032365"
    },
    {
        "org_id": "RWV",
        "name": "DEVON PARTNERSHIP NHS TRUST",
        "primary_role_id": "RO197",
        "role_ids": [
            "RO197"
        ],
        "status": "Active",
        "post_code": "EX2 5AF",
        "uprn": "100041044624"
    },
    {
        "org_id": "RRF",
        "name": "WRIGHTINGTON, WIGAN AND LEIGH NHS FOUNDATION TRUST",
        "primary_role_id": "RO197",
        "role_ids": [
            "RO57",
            "RO197"
        ],
        "status": "Active",
        "post_code": "WN1 2NN",
        "uprn": "100012895824"
    },
    {
        "org_id": "RXW",
        "name": "THE SHREWSBURY AND TELFORD HOSPITAL NHS TRUST",
        "primary_role_id": "RO197",
        "role_ids": [
            "RO7",
            "RO197"
        ],
        "status": "Active",
        "post_code": "SY3 8XQ",
        "uprn": "100071579721"
    },
    {
        "org_id": "RPR",
        "name": "ROYAL WEST SUSSEX NHS TRUST",
        "primary_role_id": "RO197",
        "role_ids": [
            "RO7",
            "RO197"
        ],
        "status": "Active",
        "post_code": "PO19 6SE",
        "uprn": "10008883780"
    },
    {
        "org_id": "RYR",
        "name": "UNIVERSITY HOSPITALS SUSSEX NHS FOUNDATION TRUST",
        "primary_role_id": "RO197",
        "role_ids": [
            "RO57",
            "RO197"
        ],
        "status": "Active",
        "post_code": "BN11 2DH",
        "uprn": "100062227731"
    }
]