[
    {
        "org_id": "611",
        "name": "LUTON BOROUGH COUNCIL",
        "primary_role_id": "RO141",
        "role_ids": [
            "RO40",
            "RO141"
        ],
        "status": "Active",
        "post_code": "LU1 2BQ",
        "uprn": "100081008966"
    },
    {
        "org_id": "613",
        "name": "MILTON KEYNES COUNCIL",
        "primary_role_id": "RO141",
        "role_ids": [
            "RO40",
            "RO141"
        ],
        "status": "Active",
        "post_code": "MK9 3EJ",
        "uprn": "Unknown"
    },
    {
        "org_id": "614",
        "name": "BRACKNELL FOREST COUNCIL",
        "primary_role_id": "RO141",
        "role_ids": [
            "RO40",
            "RO141"
        ],
        "status": "Active",
        "post_code": "RG12 1JD",
        "uprn": "100081224251"
    },
    {
        "org_id": "615",
        "name": "WEST BERKSHIRE COUNCIL",
        "primary_role_id": "RO141",
        "role_ids": [
            "RO40",
            "RO141"
        ],
        "status": "Active",
        "post_code": "RG14 5LD",
        "uprn": "100081226975"
    },
    {
        "org_id": "616",
        "name": "READING BOROUGH COUNCIL",
        "primary_role_id": "RO141",
        "role_ids": [
            "RO40",
            "RO141"
        ],
        "status": "Active",
        "post_code": "RG1 2LU",
        "uprn": "310044599"
    },
    {
        "org_id": "617",
        "name": "SLOUGH BOROUGH COUNCIL",
        "primary_role_id": "RO141",
        "role_ids": [
            "RO40",
            "RO141"
        ],
        "status": "Active",
        "post_code": "SL1 1JL",
        "uprn": "Unknown"
    },
    {
        "org_id": "618",
        "name": "ROYAL BOROUGH OF WINDSOR AND MAIDENHEAD",
        "primary_role_id": "RO141",
        "role_ids": [
            "RO40",
            "RO141"
        ],
        "status": "Active",
        "post_code": "SL6 1RF",
        "uprn": "Unknown"
    },
    {
        "org_id": "619",
        "name": "WOKINGHAM BOROUGH COUNCIL",
        "primary_role_id": "RO141",
        "role_ids": [
            "RO40",
            "RO141"
        ],
        "status": "Active",
        "post_code": "RG40 1BN",
        "uprn": "14045296"
    },
    {
        "org_id": "620",
        "name": "ESSEX COUNTY COUNCIL",
        "primary_role_id": "RO141",
        "role_ids": [
            "RO33",
            "RO141"
        ],
        "status": "Active",
        "post_code": "CM1 1QH",
        "uprn": "200003143454"
    },
    {
        "org_id": "621",
        "name": "SOUTHEND-ON-SEA CITY COUNCIL",
        "primary_role_id": "RO141",
        "role_ids": [
            "RO40",
            "RO141"
        ],
        "status": "Active",
        "post_code": "SS2 6EN",
        "uprn": "Unknown"
    },
    {
        "org_id": "622",
        "name": "THURROCK COUNCIL",
        "primary_role_id": "RO141",
        "role_ids": [
            "RO40",
            "RO141"
        ],
        "status": "Active",
        "post_code": "RM17 6SL",
        "uprn": "Unknown"
    },
    {
        "org_id": "812",
        "name": "HAMPSHIRE COUNTY COUNCIL",
        "primary_role_id": "RO141",
        "role_ids": [
            "RO33",
            "RO141"
        ],
        "status": "Active",
        "post_code": "SO23 8UJ",
        "uprn": "200000172610"
    },
    {
        "org_id": "813",
        "name": "PORTSMOUTH CITY COUNCIL",
        "primary_role_id": "RO141",
        "role_ids": [
            "RO40",
            "RO141"
        ],
        "status": "Active",
        "post_code": "PO1 2GB",
        "uprn": "Unknown"
    },
    {
        "org_id": "814",
        "name": "SOUTHAMPTON CITY COUNCIL",
        "primary_role_id": "RO141",
        "role_ids": [
            "RO40",
            "RO141"
        ],
        "status": "Active",
        "post_code": "SO14 7LY",
        "uprn": "Unknown"
    },
    {
        "org_id": "815",
        "name": "EAST SUSSEX COUNTY COUNCIL",
        "primary_role_id": "RO141",
        "role_ids": [
            "RO33",
            "RO141"
        ],
        "status": "Active",
        "post_code": "BN7 1UE",
        "uprn": "10033260751"
    },
    {
        "org_id": "816",
        "name": "BRIGHTON AND HOVE CITY COUNCIL",
        "primary_role_id": "RO141",
        "role_ids": [
            "RO40",
            "RO141"
        ],
        "status": "Active",
        "post_code": "BN1 1JE",
        "uprn": "22062038"
    },
    {
        "org_id": "820",
        "name": "KENT COUNTY COUNCIL",
        "primary_role_id": "RO141",
        "role_ids": [
            "RO33",
            "RO141"
        ],
        "status": "Active",
        "post_code": "ME14 1XQ",
        "uprn": "200003697464"
    },
    {
        "org_id": "821",
        "name": "MEDWAY COUNCIL",
        "primary_role_id": "RO141",
        "role_ids": [
            "RO40",
            "RO141"
        ],
        "status": "Active",
        "post_code": "ME4 4TR",
        "uprn": "200000898373"
    },
    {
        "org_id": "809",
        "name": "DORSET COUNCIL",
        "primary_role_id": "RO141",
        "role_ids": [
            "RO33",
            "RO40",
            "RO141"
        ],
        "status": "Active",
        "post_code": "DT1 1XJ",
        "uprn": "100041115206"
    },
    {
        "org_id": "810",
        "name": "BOURNEMOUTH BOROUGH COUNCIL",
        "primary_role_id": "RO141",
        "role_ids": [
            "RO40",
            "RO141"
        ],
        "status": "Active",
        "post_code": "BH2 6DY",
        "uprn": "100041057466"
    },
    {
        "org_id": "811",
        "name": "BOROUGH OF POOLE",
        "primary_role_id": "RO141",
        "role_ids": [
            "RO40",
            "RO141"
        ],
        "status": "Active",
        "post_code": "BH15 2RU",
        "uprn": "Unknown"
    },
    {
        "org_id": "817",
        "name": "WILTSHIRE COUNCIL",
        "primary_role_id": "RO141",
        "role_ids": [
            "RO40",
            "RO141"
        ],
        "status": "Active",
        "post_code": "BA14 8JN",
        "uprn": "Unknown"
    },
    {
        "org_id": "819",
        "name": "SWINDON BOROUGH COUNCIL",
        "primary_role_id": "RO141",
        "role_ids": [
            "RO40",
            "RO141"
        ],
        "status": "Active",
        "post_code": "SN1 2JH",
        "uprn": "Unknown"
    },
    {
        "org_id": "912",
        "name": "DEVON COUNTY COUNCIL",
        "primary_role_id": "RO141",
        "role_ids": [
            "RO33",
            "RO141"
        ],
        "status": "Active",
        "post_code": "EX2 4QD",
        "uprn": "10013041499"
    },
    {
        "org_id": "913",
        "name": "PLYMOUTH CITY COUNCIL",
        "primary_role_id": "RO141",
        "role_ids": [
            "RO40",
            "RO141"
        ],
        "status": "Active",
        "post_code": "PL1 3BJ",
        "uprn": "10012058682"
    },
    {
        "org_id": "914",
        "name": "TORBAY COUNCIL",
        "primary_role_id": "RO141",
        "role_ids": [
            "RO40",
            "RO141"
        ],
        "status": "Active",
        "post_code": "TQ1 3DR",
        "uprn": "10000012942"
    },
    {
        "org_id": "902",
        "name": "CORNWALL COUNCIL",
        "primary_role_id": "RO141",
        "role_ids": [
            "RO40",
            "RO141"
        ],
        "status": "Active",
        "post_code": "TR1 3AY",
        "uprn": "100041023531"
    },
    {
        "org_id": "904",
        "name": "GLOUCESTERSHIRE COUNTY COUNCIL",
        "primary_role_id": "RO141",
        "role_ids": [
            "RO33",
            "RO141"
        ],
        "status": "Active",
        "post_code": "GL1 2TG",
        "uprn": "Unknown"
    },
    {
        "org_id": "905",
        "name": "SOMERSET COUNCIL",
        "primary_role_id": "RO141",
        "role_ids": [
            "RO33",
            "RO40",
            "RO141"
        ],
        "status": "Active",
        "post_code": "TA1 4DY",
        "uprn": "200003145212"
    },
    {
        "org_id": "906",
        "name": "COUNCIL OF THE ISLES OF SCILLY",
        "primary_role_id": "RO141",
        "role_ids": [
            "RO40",
            "RO141"
        ],
        "status": "Active",
        "post_code": "TR21 0LW",
        "uprn": "10091850352"
    },
    {
        "org_id": "908",
        "name": "BATH AND NORTH EAST SOMERSET COUNCIL",
        "primary_role_id": "RO141",
        "role_ids": [
            "RO40",
            "RO141"
        ],
        "status": "Active",
        "post_code": "BA1 5AW",
        "uprn": "100121172373"
    },
    {
        "org_id": "909",
        "name": "BRISTOL CITY COUNCIL",
        "primary_role_id": "RO141",
        "role_ids": [
            "RO40",
            "RO141"
        ],
        "status": "Active",
        "post_code": "BS1 5TR",
        "uprn": "1"
    },
    {
        "org_id": "910",
        "name": "NORTH SOMERSET COUNCIL",
        "primary_role_id": "RO141",
        "role_ids": [
            "RO40",
            "RO141"
        ],
        "status": "Active",
        "post_code": "BS23 1UJ",
        "uprn": "24009468"
    },
    {
        "org_id": "911",
        "name": "SOUTH GLOUCESTERSHIRE COUNCIL",
        "primary_role_id": "RO141",
        "role_ids": [
            "RO40",
            "RO141"
        ],
        "status": "Active",
        "post_code": "BS37 5AF",
        "uprn": "661911"
    },
    {
        "org_id": "012",
        "name": "ISLE OF ANGLESEY UA",
        "primary_role_id": "RO141",
        "role_ids": [
            "RO40",
            "RO141"
        ],
        "status": "Active",
        "post_code": "LL77 7TW",
        "uprn": "10013849002"
    },
    {
        "org_id": "014",
        "name": "GWYNEDD UA",
        "primary_role_id": "RO141",
        "role_ids": [
            "RO40",
            "RO141"
        ],
        "status": "Active",
        "post_code": "LL55 1SH",
        "uprn": "Unknown"
    },
    {
        "org_id": "016",
        "name": "CONWY UA",
        "primary_role_id": "RO141",
        "role_ids": [
            "RO40",
            "RO141"
        ],
        "status": "Active",
        "post_code": "LL32 8DU",
        "uprn": "100100956695"
    },
    {
        "org_id": "018",
        "name": "DENBIGHSHIRE UA",
        "primary_role_id": "RO141",
        "role_ids": [
            "RO40",
            "RO141"
        ],
        "status": "Active",
        "post_code": "LL15 1YN",
        "uprn": "200004317067"
    },
    {
        "org_id": "020",
        "name": "FLINTSHIRE UA",
        "primary_role_id": "RO141",
        "role_ids": [
            "RO40",
            "RO141"
        ],
        "status": "Active",
        "post_code": "CH7 6NB",
        "uprn": "Unknown"
    },
    {
        "org_id": "022",
        "name": "WREXHAM UA",
        "primary_role_id": "RO141",
        "role_ids": [
            "RO40",
            "RO141"
        ],
        "status": "Active",
        "post_code": "LL11 1AY",
        "uprn": "10091907443"
    },
    {
        "org_id": "024",
        "name": "POWYS UA",
        "primary_role_id": "RO141",
        "role_ids": [
            "RO40",
            "RO141"
        ],
        "status": "Active",
        "post_code": "LD1 5LG",
        "uprn": "10006970180"
    },
    {
        "org_id": "026",
        "name": "CEREDIGION UA",
        "primary_role_id": "RO141",
        "role_ids": [
            "RO40",
            "RO141"
        ],
        "status": "Active",
        "post_code": "SA46 0PA",
        "uprn": "49054877"
    },
    {
        "org_id": "028",
        "name": "PEMBROKESHIRE UA",
        "primary_role_id": "RO141",
        "role_ids": [
            "RO40",
            "RO141"
        ],
        "status": "Active",
        "post_code": "SA61 1TP",
        "uprn": "200002959854"
    },
    {
        "org_id": "030",
        "name": "CARMARTHENSHIRE UA",
        "primary_role_id": "RO141",
        "role_ids": [
            "RO40",
            "RO141"
        ],
        "status": "Active",
        "post_code": "SA31 1JP",
        "uprn": "10009167172"
    },
    {
        "org_id": "032",
        "name": "SWANSEA UA",
        "primary_role_id": "RO141",
        "role_ids": [
            "RO40",
            "RO141"
        ],
        "status": "Active",
        "post_code": "SA1 3SN",
        "uprn": "100100986761"
    },
    {
        "org_id": "034",
        "name": "NEATH PORT TALBOT UA",
        "primary_role_id": "RO141",
        "role_ids": [
            "RO40",
            "RO141"
        ],
        "status": "Active",
        "post_code": "SA13 1PJ",
        "uprn": "10009177908"
    },
    {
        "org_id": "036",
        "name": "BRIDGEND UA",
        "primary_role_id": "RO141",
        "role_ids": [
            "RO40",
            "RO141"
        ],
        "status": "Active",
        "post_code": "CF31 4WB",
        "uprn": "200001485326"
    },
    {
        "org_id": "038",
        "name": "VALE OF GLAMORGAN UA",
        "primary_role_id": "RO141",
        "role_ids": [
            "RO40",
            "RO141"
        ],
        "status": "Active",
        "post_code": "CF63 4RU",
        "uprn": "64004254"
    },
    {
        "org_id": "040",
        "name": "RHONDDA, CYNON, TAFF UA",
        "primary_role_id": "RO141",
        "role_ids": [
            "RO40",
            "RO141"
        ],
        "status": "Active",
        "post_code": "CF40 2XX",
        "uprn": "10012772524"
    },
    {
        "org_id": "045",
        "name": "BLAENAU GWENT UA",
        "primary_role_id": "RO141",
        "role_ids": [
            "RO40",
            "RO141"
        ],
        "status": "Active",
        "post_code": "NP23 6XB",
        "uprn": "10091821210"
    },
    {
        "org_id": "042",
        "name": "MERTHYR TYDFIL UA",
        "primary_role_id": "RO141",
        "role_ids": [
            "RO40",
            "RO141"
        ],
        "status": "Active",
        "post_code": "CF47 8AN",
        "uprn": "100100912849"
    },
    {
        "org_id": "044",
        "name": "CAERPHILLY UA",
        "primary_role_id": "RO141",
        "role_ids": [
            "RO40",
            "RO141"
        ],
        "status": "Active",
        "post_code": "CF82 7PG",
        "uprn": "43164445"
    },
    {
        "org_id": "046",
        "name": "TORFAEN UA",
        "primary_role_id": "RO141",
        "role_ids": [
            "RO40",
            "RO141"
        ],
        "status": "Active",
        "post_code": "NP4 6YB",
        "uprn": "Unknown"
    },
    {
        "org_id": "048",
        "name": "MONMOUTHSHIRE UA",
        "primary_role_id": "RO141",
        "role_ids": [
            "RO40",
            "RO141"
        ],
        "status": "Active",
        "post_code": "NP15 1GA",
        "uprn": "Unknown"
    },
    {
        "org_id": "052",
        "name": "CARDIFF UA",
        "primary_role_id": "RO141",
        "role_ids": [
            "RO40",
            "RO141"
        ],
        "status": "Active",
        "post_code": "CF10 4UW",
        "uprn": "10002506530"
    },
    {
        "org_id": "050",
        "name": "NEWPORT UA",
        "primary_role_id": "RO141",
        "role_ids": [
            "RO40",
            "RO141"
        ],
        "status": "Active",
        "post_code": "NP20 4UR",
        "uprn": "100101047071"
    },
    {
        "org_id": "102",
        "name": "CUMBRIA COUNTY COUNCIL",
        "primary_role_id": "RO141",
        "role_ids": [
            "RO33",
            "RO141"
        ],
        "status": "Active",
        "post_code": "CA1 1RD",
        "uprn": "10008710524"
    },
    {
        "org_id": "104",
        "name": "NORTHUMBERLAND COUNTY COUNCIL",
        "primary_role_id": "RO141",
        "role_ids": [
            "RO40",
            "RO141"
        ],
        "status": "Active",
        "post_code": "NE61 2EF",
        "uprn": "2920008846"
    },
    {
        "org_id": "106",
        "name": "GATESHEAD METROPOLITAN BOROUGH COUNCIL",
        "primary_role_id": "RO141",
        "role_ids": [
            "RO11",
            "RO37",
            "RO141"
        ],
        "status": "Active",
        "post_code": "NE8 1HH",
        "uprn": "10091819139"
    },
    {
        "org_id": "107",
        "name": "NEWCASTLE CITY COUNCIL",
        "primary_role_id": "RO141",
        "role_ids": [
            "RO11",
            "RO37",
            "RO141"
        ],
        "status": "Active",
        "post_code": "NE1 8QH",
        "uprn": "Unknown"
    },
    {
        "org_id": "108",
        "name": "NORTH TYNESIDE COUNCIL",
        "primary_role_id": "RO141",
        "role_ids": [
            "RO11",
            "RO37",
            "RO141"
        ],
        "status": "Active",
        "post_code": "NE27 0BY",
        "uprn": "Unknown"
    },
    {
        "org_id": "109",
        "name": "SOUTH TYNESIDE COUNCIL",
        "primary_role_id": "RO141",
        "role_ids": [
            "RO11",
            "RO37",
            "RO141"
        ],
        "status": "Active",
        "post_code": "NE33 2RL",
        "uprn": "Unknown"
    },
    {
        "org_id": "110",
        "name": "SUNDERLAND CITY COUNCIL",
        "primary_role_id": "RO141",
        "role_ids": [
            "RO11",
            "RO37",
            "RO141"
        ],
        "status": "Active",
        "post_code": "SR1 3AA",
        "uprn": "45162954"
    },
    {
        "org_id": "111",
        "name": "HARTLEPOOL BOROUGH COUNCIL",
        "primary_role_id": "RO141",
        "role_ids": [
            "RO40",
            "RO141"
        ],
        "status": "Active",
        "post_code": "TS24 8AY",
        "uprn": "100110785107"
    },
    {
        "org_id": "112",
        "name": "MIDDLESBROUGH BOROUGH COUNCIL",
        "primary_role_id": "RO141",
        "role_ids": [
            "RO40",
            "RO141"
        ],
        "status": "Active",
        "post_code": "TS1 9FT",
        "uprn": "10015143866"
    },
    {
        "org_id": "113",
        "name": "REDCAR AND CLEVELAND BOROUGH COUNCIL",
        "primary_role_id": "RO141",
        "role_ids": [
            "RO40",
            "RO141"
        ],
        "status": "Active",
        "post_code": "TS10 1RT",
        "uprn": "10034521525"
    },
    {
        "org_id": "114",
        "name": "STOCKTON-ON-TEES BOROUGH COUNCIL",
        "primary_role_id": "RO141",
        "role_ids": [
            "RO40",
            "RO141"
        ],
        "status": "Active",
        "post_code": "TS18 1LD",
        "uprn": "10015199324"
    },
    {
        "org_id": "116",
        "name": "DURHAM COUNTY COUNCIL",
        "primary_role_id": "RO141",
        "role_ids": [
            "RO40",
            "RO141"
        ],
        "status": "Active",
        "post_code": "DH1 5UL",
        "uprn": "Unknown"
    },
    {
        "org_id": "117",
        "name": "DARLINGTON BOROUGH COUNCIL",
        "primary_role_id": "RO141",
        "role_ids": [
            "RO40",
            "RO141"
        ],
        "status": "Active",
        "post_code": "DL1 5QT",
        "uprn": "200002724266"
    },
    {
        "org_id": "204",
        "name": "BARNSLEY METROPOLITAN BOROUGH COUNCIL",
        "primary_role_id": "RO141",
        "role_ids": [
            "RO11",
            "RO37",
            "RO141"
        ],
        "status": "Active",
        "post_code": "S70 2TA",
        "uprn": "100052111085"
    },
    {
        "org_id": "205",
        "name": "DONCASTER METROPOLITAN BOROUGH COUNCIL",
        "primary_role_id": "RO141",
        "role_ids": [
            "RO11",
            "RO37",
            "RO141"
        ],
        "status": "Active",
        "post_code": "DN1 3BU",
        "uprn": "100051961451"
    },
    {
        "org_id": "206",
        "name": "ROTHERHAM METROPOLITAN BOROUGH COUNCIL",
        "primary_role_id": "RO141",
        "role_ids": [
            "RO11",
            "RO37",
            "RO141"
        ],
        "status": "Active",
        "post_code": "S60 1AE",
        "uprn": "10091973696"
    },
    {
        "org_id": "207",
        "name": "SHEFFIELD CITY COUNCIL",
        "primary_role_id": "RO141",
        "role_ids": [
            "RO11",
            "RO37",
            "RO141"
        ],
        "status": "Active",
        "post_code": "S1 2HH",
        "uprn": "Unknown"
    },
    {
        "org_id": "209",
        "name": "CITY OF BRADFORD METROPOLITAN DISTRICT COUNCIL",
        "primary_role_id": "RO141",
        "role_ids": [
            "RO11",
            "RO37",
            "RO141"
        ],
        "status": "Active",
        "post_code": "BD1 1HX",
        "uprn": "100052234766"
    },
    {
        "org_id": "210",
        "name": "CALDERDALE METROPOLITAN BOROUGH COUNCIL",
        "primary_role_id": "RO141",
        "role_ids": [
            "RO11",
            "RO37",
            "RO141"
        ],
        "status": "Active",
        "post_code": "HX1 1UJ",
        "uprn": "10010186165"
    },
    {
        "org_id": "211",
        "name": "KIRKLEES COUNCIL",
        "primary_role_id": "RO141",
        "role_ids": [
            "RO11",
            "RO37",
            "RO141"
        ],
        "status": "Active",
        "post_code": "HD1 2EY",
        "uprn": "Unknown"
    },
    {
        "org_id": "212",
        "name": "LEEDS CITY COUNCIL",
        "primary_role_id": "RO141",
        "role_ids": [
            "RO11",
            "RO37",
            "RO141"
        ],
        "status": "Active",
        "post_code": "LS1 1UR",
        "uprn": "10091809151"
    },
    {
        "org_id": "213",
        "name": "WAKEFIELD METROPOLITAN DISTRICT COUNCIL",
        "primary_role_id": "RO141",
        "role_ids": [
            "RO11",
            "RO37",
            "RO141"
        ],
        "status": "Active",
        "post_code": "WF1 2HQ",
        "uprn": "63156908"
    },
    {
        "org_id": "214",
        "name": "EAST RIDING OF YORKSHIRE COUNCIL",
        "primary_role_id": "RO141",
        "role_ids": [
            "RO40",
            "RO141"
        ],
        "status": "Active",
        "post_code": "HU17 9BA",
        "uprn": "100052020933"
    },
    {
        "org_id": "215",
        "name": "HULL CITY COUNCIL",
        "primary_role_id": "RO141",
        "role_ids": [
            "RO40",
            "RO141"
        ],
        "status": "Active",
        "post_code": "HU1 2AA",
        "uprn": "21118189"
    },
    {
        "org_id": "216",
        "name": "NORTH EAST LINCOLNSHIRE COUNCIL",
        "primary_role_id": "RO141",
        "role_ids": [
            "RO40",
            "RO141"
        ],
        "status": "Active",
        "post_code": "DN31 1HU",
        "uprn": "11070357"
    },
    {
        "org_id": "217",
        "name": "NORTH LINCOLNSHIRE COUNCIL",
        "primary_role_id": "RO141",
        "role_ids": [
            "RO40",
            "RO141"
        ],
        "status": "Active",
        "post_code": "DN15 6NL",
        "uprn": "100051965899"
    },
    {
        "org_id": "219",
        "name": "CITY OF YORK COUNCIL",
        "primary_role_id": "RO141",
        "role_ids": [
            "RO40",
            "RO141"
        ],
        "status": "Active",
        "post_code": "YO1 6GA",
        "uprn": "200004775857"
    },
    {
        "org_id": "304",
        "name": "BOLTON METROPOLITAN BOROUGH COUNCIL",
        "primary_role_id": "RO141",
        "role_ids": [
            "RO11",
            "RO37",
            "RO141"
        ],
        "status": "Active",
        "post_code": "BL1 1RU",
        "uprn": "10091758710"
    },
    {
        "org_id": "305",
        "name": "BURY METROPOLITAN BOROUGH COUNCIL",
        "primary_role_id": "RO141",
        "role_ids": [
            "RO11",
            "RO37",
            "RO141"
        ],
        "status": "Active",
        "post_code": "BL9 0SW",
        "uprn": "100012563916"
    },
    {
        "org_id": "306",
        "name": "MANCHESTER CITY COUNCIL",
        "primary_role_id": "RO141",
        "role_ids": [
            "RO11",
            "RO37",
            "RO141"
        ],
        "status": "Active",
        "post_code": "M60 2LA",
        "uprn": "10015131501"
    },
    {
        "org_id": "307",
        "name": "OLDHAM METROPOLITAN BOROUGH COUNCIL",
        "primary_role_id": "RO141",
        "role_ids": [
            "RO11",
            "RO37",
            "RO141"
        ],
        "status": "Active",
        "post_code": "OL1 1UT",
        "uprn": "10091824044"
    },
    {
        "org_id": "308",
        "name": "ROCHDALE METROPOLITAN BOROUGH COUNCIL",
        "primary_role_id": "RO141",
        "role_ids": [
            "RO11",
            "RO37",
            "RO141"
        ],
        "status": "Active",
        "post_code": "OL16 1XU",
        "uprn": "10023365089"
    },
    {
        "org_id": "309",
        "name": "SALFORD CITY COUNCIL",
        "primary_role_id": "RO141",
        "role_ids": [
            "RO11",
            "RO37",
            "RO141"
        ],
        "status": "Active",
        "post_code": "M27 5AW",
        "uprn": "Unknown"
    },
    {
        "org_id": "310",
        "name": "STOCKPORT METROPOLITAN BOROUGH COUNCIL",
        "primary_role_id": "RO141",
        "role_ids": [
            "RO11",
            "RO37",
            "RO141"
        ],
        "status": "Active",
        "post_code": "SK1 3UR",
        "uprn": "10009675921"
    },
    {
        "org_id": "311",
        "name": "TAMESIDE METROPOLITAN BOROUGH COUNCIL",
        "primary_role_id": "RO141",
        "role_ids": [
            "RO11",
            "RO37",
            "RO141"
        ],
        "status": "Active",
        "post_code": "OL6 6BH",
        "uprn": "Unknown"
    },
    {
        "org_id": "312",
        "name": "TRAFFORD METROPOLITAN BOROUGH COUNCIL",
        "primary_role_id": "RO141",
        "role_ids": [
            "RO11",
            "RO37",
            "RO141"
        ],
        "status": "Active",
        "post_code": "M32 0TH",
        "uprn": "10091813602"
    },
    {
        "org_id": "313",
        "name": "WIGAN METROPOLITAN BOROUGH COUNCIL",
        "primary_role_id": "RO141",
        "role_ids": [
            "RO11",
            "RO37",
            "RO141"
        ],
        "status": "Active",
        "post_code": "WN1 1YN",
        "uprn": "Unknown"
    },
    {
        "org_id": "315",
        "name": "KNOWSLEY METROPOLITAN BOROUGH COUNCIL",
        "primary_role_id": "RO141",
        "role_ids": [
            "RO11",
            "RO37",
            "RO141"
        ],
        "status": "Active",
        "post_code": "L36 9UX",
        "uprn": "40001127"
    },
    {
        "org_id": "316",
        "name": "LIVERPOOL CITY COUNCIL",
        "primary_role_id": "RO141",
        "role_ids": [
            "RO11",
            "RO37",
            "RO141"
        ],
        "status": "Active",
        "post_code": "L2 2TF",
        "uprn": "Unknown"
    },
    {
        "org_id": "317",
        "name": "SEFTON METROPOLITAN BOROUGH COUNCIL",
        "primary_role_id": "RO141",
        "role_ids": [
            "RO11",
            "RO37",
            "RO141"
        ],
        "status": "Active",
        "post_code": "L20 7AE",
        "uprn": "41069268"
    },
    {
        "org_id": "318",
        "name": "ST HELENS COUNCIL",
        "primary_role_id": "RO141",
        "role_ids": [
            "RO11",
            "RO37",
            "RO141"
        ],
        "status": "Active",
        "post_code": "WA10 1HF",
        "uprn": "Unknown"
    },
    {
        "org_id": "319",
        "name": "WIRRAL BOROUGH COUNCIL",
        "primary_role_id": "RO141",
        "role_ids": [
            "RO11",
            "RO37",
            "RO141"
        ],
        "status": "Active",
        "post_code": "CH44 8ED",
        "uprn": "Unknown"
    },
    {
        "org_id": "321",
        "name": "HALTON BOROUGH COUNCIL",
        "primary_role_id": "RO141",
        "role_ids": [
            "RO40",
            "RO141"
        ],
        "status": "Active",
        "post_code": "WA8 7QF",
        "uprn": "10009705467"
    },
    {
        "org_id": "322",
        "name": "WARRINGTON BOROUGH COUNCIL",
        "primary_role_id": "RO141",
        "role_ids": [
            "RO40",
            "RO141"
        ],
        "status": "Active",
        "post_code": "WA1 2NH",
        "uprn": "100012792914"
    },
    {
        "org_id": "323",
        "name": "LANCASHIRE COUNTY COUNCIL",
        "primary_role_id": "RO141",
        "role_ids": [
            "RO33",
            "RO141"
        ],
        "status": "Active",
        "post_code": "PR1 8XJ",
        "uprn": "10092810128"
    },
    {
        "org_id": "324",
        "name": "BLACKBURN WITH DARWEN BOROUGH COUNCIL",
        "primary_role_id": "RO141",
        "role_ids": [
            "RO40",
            "RO141"
        ],
        "status": "Active",
        "post_code": "BB1 7DY",
        "uprn": "100012535153"
    },
    {
        "org_id": "325",
        "name": "BLACKPOOL BOROUGH COUNCIL",
        "primary_role_id": "RO141",
        "role_ids": [
            "RO40",
            "RO141"
        ],
        "status": "Active",
        "post_code": "FY1 1EJ",
        "uprn": "10008477043"
    },
    {
        "org_id": "413",
        "name": "STAFFORDSHIRE COUNTY COUNCIL",
        "primary_role_id": "RO141",
        "role_ids": [
            "RO33",
            "RO141"
        ],
        "status": "Active",
        "post_code": "ST16 2DH",
        "uprn": "100032201637"
    },
    {
        "org_id": "218",
        "name": "NORTH YORKSHIRE COUNCIL",
        "primary_role_id": "RO141",
        "role_ids": [
            "RO33",
            "RO40",
            "RO141"
        ],
        "status": "Active",
        "post_code": "DL7 8AD",
        "uprn": "10001289452"
    },
    {
        "org_id": "414",
        "name": "STOKE-ON-TRENT CITY COUNCIL",
        "primary_role_id": "RO141",
        "role_ids": [
            "RO40",
            "RO141"
        ],
        "status": "Active",
        "post_code": "ST4 1HH",
        "uprn": "3455116075"
    },
    {
        "org_id": "415",
        "name": "HEREFORDSHIRE COUNCIL",
        "primary_role_id": "RO141",
        "role_ids": [
            "RO40",
            "RO141"
        ],
        "status": "Active",
        "post_code": "HR4 0LE",
        "uprn": "200002600924"
    },
    {
        "org_id": "416",
        "name": "WORCESTERSHIRE COUNTY COUNCIL",
        "primary_role_id": "RO141",
        "role_ids": [
            "RO33",
            "RO141"
        ],
        "status": "Active",
        "post_code": "WR5 2NP",
        "uprn": "100121275521"
    },
    {
        "org_id": "417",
        "name": "SHROPSHIRE COUNCIL",
        "primary_role_id": "RO141",
        "role_ids": [
            "RO40",
            "RO141"
        ],
        "status": "Active",
        "post_code": "SY2 6ND",
        "uprn": "100071579414"
    },
    {
        "org_id": "418",
        "name": "TELFORD & WREKIN COUNCIL",
        "primary_role_id": "RO141",
        "role_ids": [
            "RO40",
            "RO141"
        ],
        "status": "Active",
        "post_code": "TF3 4NT",
        "uprn": "452031768"
    },
    {
        "org_id": "404",
        "name": "WARWICKSHIRE COUNTY COUNCIL",
        "primary_role_id": "RO141",
        "role_ids": [
            "RO33",
            "RO141"
        ],
        "status": "Active",
        "post_code": "CV34 4RL",
        "uprn": "10013180510"
    },
    {
        "org_id": "406",
        "name": "BIRMINGHAM CITY COUNCIL",
        "primary_role_id": "RO141",
        "role_ids": [
            "RO11",
            "RO37",
            "RO141"
        ],
        "status": "Active",
        "post_code": "B1 1BB",
        "uprn": "100071417680"
    },
    {
        "org_id": "407",
        "name": "COVENTRY CITY COUNCIL",
        "primary_role_id": "RO141",
        "role_ids": [
            "RO11",
            "RO37",
            "RO141"
        ],
        "status": "Active",
        "post_code": "CV1 5RR",
        "uprn": "10091767970"
    },
    {
        "org_id": "408",
        "name": "DUDLEY METROPOLITAN BOROUGH COUNCIL",
        "primary_role_id": "RO141",
        "role_ids": [
            "RO11",
            "RO37",
            "RO141"
        ],
        "status": "Active",
        "post_code": "DY1 1HF",
        "uprn": "Unknown"
    },
    {
        "org_id": "409",
        "name": "SANDWELL METROPOLITAN BOROUGH COUNCIL",
        "primary_role_id": "RO141",
        "role_ids": [
            "RO11",
            "RO37",
            "RO141"
        ],
        "status": "Active",
        "post_code": "B69 3DE",
        "uprn": "10015257012"
    },
    {
        "org_id": "410",
        "name": "SOLIHULL METROPOLITAN BOROUGH COUNCIL",
        "primary_role_id": "RO141",
        "role_ids": [
            "RO11",
            "RO37",
            "RO141"
        ],
        "status": "Active",
        "post_code": "B91 3QB",
        "uprn": "Unknown"
    },
    {
        "org_id": "411",
        "name": "WALSALL METROPOLITAN BOROUGH COUNCIL",
        "primary_role_id": "RO141",
        "role_ids": [
            "RO11",
            "RO37",
            "RO141"
        ],
        "status": "Active",
        "post_code": "WS1 1TP",
        "uprn": "10015108780"
    },
    {
        "org_id": "412",
        "name": "CITY OF WOLVERHAMPTON COUNCIL",
        "primary_role_id": "RO141",
        "role_ids": [
            "RO11",
            "RO37",
            "RO141"
        ],
        "status": "Active",
        "post_code": "WV1 1SH",
        "uprn": "Unknown"
    },
    {
        "org_id": "503",
        "name": "LINCOLNSHIRE COUNTY COUNCIL",
        "primary_role_id": "RO141",
        "role_ids": [
            "RO33",
            "RO141"
        ],
        "status": "Active",
        "post_code": "LN1 1YL",
        "uprn": "235027230"
    },
    {
        "org_id": "506",
        "name": "DERBYSHIRE COUNTY COUNCIL",
        "primary_role_id": "RO141",
        "role_ids": [
            "RO33",
            "RO141"
        ],
        "status": "Active",
        "post_code": "DE4 3AG",
        "uprn": "10070103225"
    },
    {
        "org_id": "507",
        "name": "DERBY CITY COUNCIL",
        "primary_role_id": "RO141",
        "role_ids": [
            "RO40",
            "RO141"
        ],
        "status": "Active",
        "post_code": "DE1 2FS",
        "uprn": "Unknown"
    },
    {
        "org_id": "508",
        "name": "LEICESTERSHIRE COUNTY COUNCIL",
        "primary_role_id": "RO141",
        "role_ids": [
            "RO33",
            "RO141"
        ],
        "status": "Active",
        "post_code": "LE3 8RA",
        "uprn": "Unknown"
    },
    {
        "org_id": "509",
        "name": "LEICESTER CITY COUNCIL",
        "primary_role_id": "RO141",
        "role_ids": [
            "RO40",
            "RO141"
        ],
        "status": "Active",
        "post_code": "LE1 1FZ",
        "uprn": "2465058391"
    },
    {
        "org_id": "510",
        "name": "RUTLAND COUNTY COUNCIL",
        "primary_role_id": "RO141",
        "role_ids": [
            "RO40",
            "RO141"
        ],
        "status": "Active",
        "post_code": "LE15 6HP",
        "uprn": "10008625593"
    },
    {
        "org_id": "511",
        "name": "NOTTINGHAMSHIRE COUNTY COUNCIL",
        "primary_role_id": "RO141",
        "role_ids": [
            "RO33",
            "RO141"
        ],
        "status": "Active",
        "post_code": "NG2 7QP",
        "uprn": "3040056927"
    },
    {
        "org_id": "512",
        "name": "NOTTINGHAM CITY COUNCIL",
        "primary_role_id": "RO141",
        "role_ids": [
            "RO40",
            "RO141"
        ],
        "status": "Active",
        "post_code": "NG2 3NG",
        "uprn": "Unknown"
    },
    {
        "org_id": "623",
        "name": "CAMBRIDGESHIRE COUNTY COUNCIL",
        "primary_role_id": "RO141",
        "role_ids": [
            "RO33",
            "RO141"
        ],
        "status": "Active",
        "post_code": "PE28 4YE",
        "uprn": "10093629744"
    },
    {
        "org_id": "624",
        "name": "PETERBOROUGH CITY COUNCIL",
        "primary_role_id": "RO141",
        "role_ids": [
            "RO40",
            "RO141"
        ],
        "status": "Active",
        "post_code": "PE1 1HF",
        "uprn": "100091509351"
    },
    {
        "org_id": "607",
        "name": "NORFOLK COUNTY COUNCIL",
        "primary_role_id": "RO141",
        "role_ids": [
            "RO33",
            "RO141"
        ],
        "status": "Active",
        "post_code": "NR1 2DH",
        "uprn": "Unknown"
    },
    {
        "org_id": "609",
        "name": "SUFFOLK COUNTY COUNCIL",
        "primary_role_id": "RO141",
        "role_ids": [
            "RO33",
            "RO141"
        ],
        "status": "Active",
        "post_code": "IP1 2BX",
        "uprn": "Unknown"
    },
    {
        "org_id": "606",
        "name": "HERTFORDSHIRE COUNTY COUNCIL",
        "primary_role_id": "RO141",
        "role_ids": [
            "RO33",
            "RO141"
        ],
        "status": "Active",
        "post_code": "SG13 8DQ",
        "uprn": "Unknown"
    },
    {
        "org_id": "608",
        "name": "OXFORDSHIRE COUNTY COUNCIL",
        "primary_role_id": "RO141",
        "role_ids": [
            "RO33",
            "RO141"
        ],
        "status": "Active",
        "post_code": "OX1 1ND",
        "uprn": "100121293944"
    },
    {
        "org_id": "702",
        "name": "LONDON BOROUGH OF CAMDEN",
        "primary_role_id": "RO141",
        "role_ids": [
            "RO12",
            "RO141",
            "RO223"
        ],
        "status": "Active",
        "post_code": "N1C 4AG",
        "uprn": "5170230"
    },
    {
        "org_id": "703",
        "name": "ROYAL BOROUGH OF GREENWICH",
        "primary_role_id": "RO141",
        "role_ids": [
            "RO12",
            "RO141",
            "RO223"
        ],
        "status": "Active",
        "post_code": "SE18 6HQ",
        "uprn": "Unknown"
    },
    {
        "org_id": "704",
        "name": "LONDON BOROUGH OF HACKNEY",
        "primary_role_id": "RO141",
        "role_ids": [
            "RO12",
            "RO141",
            "RO223"
        ],
        "status": "Active",
        "post_code": "E8 1DY",
        "uprn": "10008315925"
    },
    {
        "org_id": "705",
        "name": "LONDON BOROUGH OF HAMMERSMITH & FULHAM",
        "primary_role_id": "RO141",
        "role_ids": [
            "RO12",
            "RO141",
            "RO223"
        ],
        "status": "Active",
        "post_code": "W6 9JT",
        "uprn": "34006802"
    },
    {
        "org_id": "706",
        "name": "LONDON BOROUGH OF ISLINGTON",
        "primary_role_id": "RO141",
        "role_ids": [
            "RO12",
            "RO141",
            "RO223"
        ],
        "status": "Active",
        "post_code": "N1 1XR",
        "uprn": "5300094897"
    },
    {
        "org_id": "707",
        "name": "ROYAL BOROUGH OF KENSINGTON AND CHELSEA",
        "primary_role_id": "RO141",
        "role_ids": [
            "RO12",
            "RO141",
            "RO223"
        ],
        "status": "Active",
        "post_code": "W8 7NX",
        "uprn": "Unknown"
    },
    {
        "org_id": "708",
        "name": "LONDON BOROUGH OF LAMBETH",
        "primary_role_id": "RO141",
        "role_ids": [
            "RO12",
            "RO141",
            "RO223"
        ],
        "status": "Active",
        "post_code": "SW2 1EG",
        "uprn": "10093378978"
    },
    {
        "org_id": "709",
        "name": "LONDON BOROUGH OF LEWISHAM",
        "primary_role_id": "RO141",
        "role_ids": [
            "RO12",
            "RO141",
            "RO223"
        ],
        "status": "Active",
        "post_code": "SE6 4RU",
        "uprn": "100023278218"
    },
    {
        "org_id": "710",
        "name": "LONDON BOROUGH OF SOUTHWARK",
        "primary_role_id": "RO141",
        "role_ids": [
            "RO12",
            "RO141",
            "RO223"
        ],
        "status": "Active",
        "post_code": "SE1 2QH",
        "uprn": "10013528792"
    },
    {
        "org_id": "711",
        "name": "LONDON BOROUGH OF TOWER HAMLETS",
        "primary_role_id": "RO141",
        "role_ids": [
            "RO12",
            "RO141",
            "RO223"
        ],
        "status": "Active",
        "post_code": "E14 2BG",
        "uprn": "Unknown"
    },
    {
        "org_id": "712",
        "name": "LONDON BOROUGH OF WANDSWORTH",
        "primary_role_id": "RO141",
        "role_ids": [
            "RO12",
            "RO141",
            "RO223"
        ],
        "status": "Active",
        "post_code": "SW18 2PU",
        "uprn": "10008156680"
    },
    {
        "org_id": "713",
        "name": "CITY OF WESTMINSTER",
        "primary_role_id": "RO141",
        "role_ids": [
            "RO12",
            "RO141",
            "RO223"
        ],
        "status": "Active",
        "post_code": "SW1E 6QP",
        "uprn": "200003145573"
    },
    {
        "org_id": "714",
        "name": "CITY OF LONDON CORPORATION",
        "primary_role_id": "RO141",
        "role_ids": [
            "RO12",
            "RO141",
            "RO223"
        ],
        "status": "Active",
        "post_code": "EC2P 2EJ",
        "uprn": "10092785460"
    },
    {
        "org_id": "716",
        "name": "LONDON BOROUGH OF BARKING AND DAGENHAM",
        "primary_role_id": "RO141",
        "role_ids": [
            "RO141",
            "RO223"
        ],
        "status": "Active",
        "post_code": "RM10 7BZ",
        "uprn": "Unknown"
    },
    {
        "org_id": "717",
        "name": "LONDON BOROUGH OF BARNET",
        "primary_role_id": "RO141",
        "role_ids": [
            "RO141",
            "RO223"
        ],
        "status": "Active",
        "post_code": "N11 1NP",
        "uprn": "Unknown"
    },
    {
        "org_id": "718",
        "name": "LONDON BOROUGH OF BEXLEY",
        "primary_role_id": "RO141",
        "role_ids": [
            "RO141",
            "RO223"
        ],
        "status": "Active",
        "post_code": "DA6 7AT",
        "uprn": "10023304993"
    },
    {
        "org_id": "719",
        "name": "LONDON BOROUGH OF BRENT",
        "primary_role_id": "RO141",
        "role_ids": [
            "RO141",
            "RO223"
        ],
        "status": "Active",
        "post_code": "HA9 0FJ",
        "uprn": "202054627"
    },
    {
        "org_id": "720",
        "name": "LONDON BOROUGH OF BROMLEY",
        "primary_role_id": "RO141",
        "role_ids": [
            "RO141",
            "RO223"
        ],
        "status": "Active",
        "post_code": "BR1 3UH",
        "uprn": "Unknown"
    },
    {
        "org_id": "721",
        "name": "LONDON BOROUGH OF CROYDON",
        "primary_role_id": "RO141",
        "role_ids": [
            "RO141",
            "RO223"
        ],
        "status": "Active",
        "post_code": "CR0 1EA",
        "uprn": "Unknown"
    },
    {
        "org_id": "722",
        "name": "LONDON BOROUGH OF EALING",
        "primary_role_id": "RO141",
        "role_ids": [
            "RO141",
            "RO223"
        ],
        "status": "Active",
        "post_code": "W5 2HL",
        "uprn": "12132971"
    },
    {
        "org_id": "723",
        "name": "LONDON BOROUGH OF ENFIELD",
        "primary_role_id": "RO141",
        "role_ids": [
            "RO141",
            "RO223"
        ],
        "status": "Active",
        "post_code": "EN1 3ES",
        "uprn": "Unknown"
    },
    {
        "org_id": "724",
        "name": "LONDON BOROUGH OF HARINGEY",
        "primary_role_id": "RO141",
        "role_ids": [
            "RO141",
            "RO223"
        ],
        "status": "Active",
        "post_code": "N22 9SA",
        "uprn": "Unknown"
    },
    {
        "org_id": "725",
        "name": "LONDON BOROUGH OF HARROW",
        "primary_role_id": "RO141",
        "role_ids": [
            "RO141",
            "RO223"
        ],
        "status": "Active",
        "post_code": "HA1 2XY",
        "uprn": "200000303701"
    },
    {
        "org_id": "726",
        "name": "LONDON BOROUGH OF HAVERING",
        "primary_role_id": "RO141",
        "role_ids": [
            "RO141",
            "RO223"
        ],
        "status": "Active",
        "post_code": "RM1 3BD",
        "uprn": "10013186074"
    },
    {
        "org_id": "727",
        "name": "LONDON BOROUGH OF HILLINGDON",
        "primary_role_id": "RO141",
        "role_ids": [
            "RO141",
            "RO223"
        ],
        "status": "Active",
        "post_code": "UB8 1UW",
        "uprn": "10091852180"
    },
    {
        "org_id": "728",
        "name": "LONDON BOROUGH OF HOUNSLOW",
        "primary_role_id": "RO141",
        "role_ids": [
            "RO141",
            "RO223"
        ],
        "status": "Active",
        "post_code": "TW3 3EB",
        "uprn": "10093765268"
    },
    {
        "org_id": "729",
        "name": "ROYAL BOROUGH OF KINGSTON UPON THAMES",
        "primary_role_id": "RO141",
        "role_ids": [
            "RO141",
            "RO223"
        ],
        "status": "Active",
        "post_code": "KT1 1EU",
        "uprn": "10091802492"
    },
    {
        "org_id": "730",
        "name": "LONDON BOROUGH OF MERTON",
        "primary_role_id": "RO141",
        "role_ids": [
            "RO141",
            "RO223"
        ],
        "status": "Active",
        "post_code": "SM4 5DX",
        "uprn": "Unknown"
    },
    {
        "org_id": "731",
        "name": "LONDON BOROUGH OF NEWHAM",
        "primary_role_id": "RO141",
        "role_ids": [
            "RO141",
            "RO223"
        ],
        "status": "Active",
        "post_code": "E16 2QU",
        "uprn": "10034510842"
    },
    {
        "org_id": "732",
        "name": "LONDON BOROUGH OF REDBRIDGE",
        "primary_role_id": "RO141",
        "role_ids": [
            "RO141",
            "RO223"
        ],
        "status": "Active",
        "post_code": "IG1 1NY",
        "uprn": "10034922090"
    },
    {
        "org_id": "733",
        "name": "LONDON BOROUGH OF RICHMOND UPON THAMES",
        "primary_role_id": "RO141",
        "role_ids": [
            "RO141",
            "RO223"
        ],
        "status": "Active",
        "post_code": "TW1 3BZ",
        "uprn": "100023391941"
    },
    {
        "org_id": "734",
        "name": "LONDON BOROUGH OF SUTTON",
        "primary_role_id": "RO141",
        "role_ids": [
            "RO141",
            "RO223"
        ],
        "status": "Active",
        "post_code": "SM1 1EA",
        "uprn": "5870034546"
    },
    {
        "org_id": "735",
        "name": "LONDON BOROUGH OF WALTHAM FOREST",
        "primary_role_id": "RO141",
        "role_ids": [
            "RO141",
            "RO223"
        ],
        "status": "Active",
        "post_code": "E17 4JF",
        "uprn": "200001418714"
    },
    {
        "org_id": "803",
        "name": "ISLE OF WIGHT COUNCIL",
        "primary_role_id": "RO141",
        "role_ids": [
            "RO40",
            "RO141"
        ],
        "status": "Active",
        "post_code": "PO30 1UD",
        "uprn": "10091829966"
    },
    {
        "org_id": "805",
        "name": "SURREY COUNTY COUNCIL",
        "primary_role_id": "RO141",
        "role_ids": [
            "RO33",
            "RO141"
        ],
        "status": "Active",
        "post_code": "RH2 8EF",
        "uprn": "100062491147"
    },
    {
        "org_id": "807",
        "name": "WEST SUSSEX COUNTY COUNCIL",
        "primary_role_id": "RO141",
        "role_ids": [
            "RO33",
            "RO141"
        ],
        "status": "Active",
        "post_code": "PO19 1RQ",
        "uprn": "100062410134"
    },
    {
        "org_id": "105",
        "name": "ADUR DISTRICT COUNCIL",
        "primary_role_id": "RO141",
        "role_ids": [
            "RO36",
            "RO141"
        ],
        "status": "Active",
        "post_code": "BN11 1HS",
        "uprn": "10002290968"
    },
    {
        "org_id": "118",
        "name": "AMBER VALLEY BOROUGH COUNCIL",
        "primary_role_id": "RO141",
        "role_ids": [
            "RO34",
            "RO141"
        ],
        "status": "Active",
        "post_code": "DE5 3BT",
        "uprn": "10000254798"
    },
    {
        "org_id": "119",
        "name": "ARUN DISTRICT COUNCIL",
        "primary_role_id": "RO141",
        "role_ids": [
            "RO36",
            "RO141"
        ],
        "status": "Active",
        "post_code": "BN17 5LF",
        "uprn": "100062237016"
    },
    {
        "org_id": "120",
        "name": "ASHFIELD DISTRICT COUNCIL",
        "primary_role_id": "RO141",
        "role_ids": [
            "RO36",
            "RO141"
        ],
        "status": "Active",
        "post_code": "NG17 8DA",
        "uprn": "100032105121"
    },
    {
        "org_id": "121",
        "name": "ASHFORD BOROUGH COUNCIL",
        "primary_role_id": "RO141",
        "role_ids": [
            "RO34",
            "RO141"
        ],
        "status": "Active",
        "post_code": "TN23 1PL",
        "uprn": "100062558167"
    },
    {
        "org_id": "123",
        "name": "BABERGH DISTRICT COUNCIL",
        "primary_role_id": "RO141",
        "role_ids": [
            "RO36",
            "RO141"
        ],
        "status": "Active",
        "post_code": "IP7 9SJ",
        "uprn": "Unknown"
    },
    {
        "org_id": "125",
        "name": "BASILDON BOROUGH COUNCIL",
        "primary_role_id": "RO141",
        "role_ids": [
            "RO34",
            "RO36",
            "RO141"
        ],
        "status": "Active",
        "post_code": "SS14 1DL",
        "uprn": "10013346100"
    },
    {
        "org_id": "126",
        "name": "BASINGSTOKE AND DEANE BOROUGH COUNCIL",
        "primary_role_id": "RO141",
        "role_ids": [
            "RO34",
            "RO141"
        ],
        "status": "Active",
        "post_code": "RG21 4AH",
        "uprn": "Unknown"
    },
    {
        "org_id": "127",
        "name": "BASSETLAW DISTRICT COUNCIL",
        "primary_role_id": "RO141",
        "role_ids": [
            "RO36",
            "RO141"
        ],
        "status": "Active",
        "post_code": "S80 2AH",
        "uprn": "100032186971"
    },
    {
        "org_id": "128",
        "name": "BLABY DISTRICT COUNCIL",
        "primary_role_id": "RO141",
        "role_ids": [
            "RO36",
            "RO141"
        ],
        "status": "Active",
        "post_code": "LE19 2EP",
        "uprn": "100032073536"
    },
    {
        "org_id": "130",
        "name": "BOLSOVER DISTRICT COUNCIL",
        "primary_role_id": "RO141",
        "role_ids": [
            "RO36",
            "RO141"
        ],
        "status": "Active",
        "post_code": "S43 4JY",
        "uprn": "10013069714"
    },
    {
        "org_id": "131",
        "name": "BOSTON BOROUGH COUNCIL",
        "primary_role_id": "RO141",
        "role_ids": [
            "RO34",
            "RO141"
        ],
        "status": "Active",
        "post_code": "PE21 8QR",
        "uprn": "Unknown"
    },
    {
        "org_id": "132",
        "name": "BRAINTREE DISTRICT COUNCIL",
        "primary_role_id": "RO141",
        "role_ids": [
            "RO36",
            "RO141"
        ],
        "status": "Active",
        "post_code": "CM7 9HB",
        "uprn": "10091905704"
    },
    {
        "org_id": "133",
        "name": "BRECKLAND DISTRICT COUNCIL",
        "primary_role_id": "RO141",
        "role_ids": [
            "RO36",
            "RO141"
        ],
        "status": "Active",
        "post_code": "NR19 1EE",
        "uprn": "10091821859"
    },
    {
        "org_id": "134",
        "name": "BRENTWOOD BOROUGH COUNCIL",
        "primary_role_id": "RO141",
        "role_ids": [
            "RO34",
            "RO141"
        ],
        "status": "Active",
        "post_code": "CM15 8AY",
        "uprn": "100091435713"
    },
    {
        "org_id": "136",
        "name": "BROADLAND DISTRICT COUNCIL",
        "primary_role_id": "RO141",
        "role_ids": [
            "RO36",
            "RO141"
        ],
        "status": "Active",
        "post_code": "NR7 0DU",
        "uprn": "100091575169"
    },
    {
        "org_id": "137",
        "name": "BROMSGROVE DISTRICT COUNCIL",
        "primary_role_id": "RO141",
        "role_ids": [
            "RO36",
            "RO141"
        ],
        "status": "Active",
        "post_code": "B61 8DA",
        "uprn": "10090744962"
    },
    {
        "org_id": "138",
        "name": "BROXBOURNE BOROUGH COUNCIL",
        "primary_role_id": "RO141",
        "role_ids": [
            "RO34",
            "RO141"
        ],
        "status": "Active",
        "post_code": "EN8 9XQ",
        "uprn": "148046473"
    },
    {
        "org_id": "139",
        "name": "BROXTOWE BOROUGH COUNCIL",
        "primary_role_id": "RO141",
        "role_ids": [
            "RO34",
            "RO141"
        ],
        "status": "Active",
        "post_code": "NG9 1AB",
        "uprn": "100032269867"
    },
    {
        "org_id": "140",
        "name": "BURNLEY BOROUGH COUNCIL",
        "primary_role_id": "RO141",
        "role_ids": [
            "RO34",
            "RO141"
        ],
        "status": "Active",
        "post_code": "BB11 9SD",
        "uprn": "Unknown"
    },
    {
        "org_id": "142",
        "name": "CAMBRIDGE CITY COUNCIL",
        "primary_role_id": "RO141",
        "role_ids": [
            "RO35",
            "RO141"
        ],
        "status": "Active",
        "post_code": "CB2 3QJ",
        "uprn": "200004292747"
    },
    {
        "org_id": "143",
        "name": "CANNOCK CHASE DISTRICT COUNCIL",
        "primary_role_id": "RO141",
        "role_ids": [
            "RO36",
            "RO141"
        ],
        "status": "Active",
        "post_code": "WS11 1BG",
        "uprn": "100032279722"
    },
    {
        "org_id": "144",
        "name": "CANTERBURY CITY COUNCIL",
        "primary_role_id": "RO141",
        "role_ids": [
            "RO35",
            "RO141"
        ],
        "status": "Active",
        "post_code": "CT1 1YW",
        "uprn": "100062618849"
    },
    {
        "org_id": "148",
        "name": "CASTLE POINT BOROUGH COUNCIL",
        "primary_role_id": "RO141",
        "role_ids": [
            "RO34",
            "RO141"
        ],
        "status": "Active",
        "post_code": "SS7 1TF",
        "uprn": "100091599552"
    },
    {
        "org_id": "150",
        "name": "CHARNWOOD BOROUGH COUNCIL",
        "primary_role_id": "RO141",
        "role_ids": [
            "RO34",
            "RO141"
        ],
        "status": "Active",
        "post_code": "LE11 2TX",
        "uprn": "100032039579"
    },
    {
        "org_id": "151",
        "name": "CHELMSFORD CITY COUNCIL",
        "primary_role_id": "RO141",
        "role_ids": [
            "RO34",
            "RO141"
        ],
        "status": "Active",
        "post_code": "CM1 1JE",
        "uprn": "100091429985"
    },
    {
        "org_id": "152",
        "name": "CHELTENHAM BOROUGH COUNCIL",
        "primary_role_id": "RO141",
        "role_ids": [
            "RO34",
            "RO141"
        ],
        "status": "Active",
        "post_code": "GL50 1PJ",
        "uprn": "200002681896"
    },
    {
        "org_id": "153",
        "name": "CHERWELL DISTRICT COUNCIL",
        "primary_role_id": "RO141",
        "role_ids": [
            "RO36",
            "RO141"
        ],
        "status": "Active",
        "post_code": "OX15 4AA",
        "uprn": "100121287251"
    },
    {
        "org_id": "154",
        "name": "CHESTERFIELD BOROUGH COUNCIL",
        "primary_role_id": "RO141",
        "role_ids": [
            "RO34",
            "RO141"
        ],
        "status": "Active",
        "post_code": "S40 1LP",
        "uprn": "74037641"
    },
    {
        "org_id": "155",
        "name": "CHICHESTER DISTRICT COUNCIL",
        "primary_role_id": "RO141",
        "role_ids": [
            "RO36",
            "RO141"
        ],
        "status": "Active",
        "post_code": "PO19 1TY",
        "uprn": "100062410143"
    },
    {
        "org_id": "157",
        "name": "CHORLEY BOROUGH COUNCIL",
        "primary_role_id": "RO141",
        "role_ids": [
            "RO34",
            "RO141"
        ],
        "status": "Active",
        "post_code": "PR7 1AL",
        "uprn": "100012759159"
    },
    {
        "org_id": "159",
        "name": "CITY OF LINCOLN COUNCIL",
        "primary_role_id": "RO141",
        "role_ids": [
            "RO35",
            "RO141"
        ],
        "status": "Active",
        "post_code": "LN1 1DD",
        "uprn": "235027209"
    },
    {
        "org_id": "160",
        "name": "COLCHESTER BOROUGH COUNCIL",
        "primary_role_id": "RO141",
        "role_ids": [
            "RO34",
            "RO141"
        ],
        "status": "Active",
        "post_code": "CO3 3WG",
        "uprn": "100091468723"
    },
    {
        "org_id": "164",
        "name": "COTSWOLD DISTRICT COUNCIL",
        "primary_role_id": "RO141",
        "role_ids": [
            "RO36",
            "RO141"
        ],
        "status": "Active",
        "post_code": "GL7 1PX",
        "uprn": "Unknown"
    },
    {
        "org_id": "166",
        "name": "CRAWLEY BOROUGH COUNCIL",
        "primary_role_id": "RO141",
        "role_ids": [
            "RO34",
            "RO141"
        ],
        "status": "Active",
        "post_code": "RH10 1UZ",
        "uprn": "10091832467"
    },
    {
        "org_id": "167",
        "name": "DACORUM BOROUGH COUNCIL",
        "primary_role_id": "RO141",
        "role_ids": [
            "RO34",
            "RO141"
        ],
        "status": "Active",
        "post_code": "HP1 1DN",
        "uprn": "10093313547"
    },
    {
        "org_id": "168",
        "name": "DARTFORD BOROUGH COUNCIL",
        "primary_role_id": "RO141",
        "role_ids": [
            "RO34",
            "RO141"
        ],
        "status": "Active",
        "post_code": "DA1 1DR",
        "uprn": "200000541865"
    },
    {
        "org_id": "171",
        "name": "DERBYSHIRE DALES DISTRICT COUNCIL",
        "primary_role_id": "RO141",
        "role_ids": [
            "RO36",
            "RO141"
        ],
        "status": "Active",
        "post_code": "DE4 3NN",
        "uprn": "10070102943"
    },
    {
        "org_id": "172",
        "name": "DOVER DISTRICT COUNCIL",
        "primary_role_id": "RO141",
        "role_ids": [
            "RO36",
            "RO141"
        ],
        "status": "Active",
        "post_code": "CT16 3PJ",
        "uprn": "Unknown"
    },
    {
        "org_id": "173",
        "name": "EAST CAMBRIDGESHIRE DISTRICT COUNCIL",
        "primary_role_id": "RO141",
        "role_ids": [
            "RO36",
            "RO141"
        ],
        "status": "Active",
        "post_code": "CB7 4EE",
        "uprn": "10002597178"
    },
    {
        "org_id": "174",
        "name": "EAST DEVON DISTRICT COUNCIL",
        "primary_role_id": "RO141",
        "role_ids": [
            "RO36",
            "RO141"
        ],
        "status": "Active",
        "post_code": "EX14 1EJ",
        "uprn": "Unknown"
    },
    {
        "org_id": "176",
        "name": "EAST HAMPSHIRE DISTRICT COUNCIL",
        "primary_role_id": "RO141",
        "role_ids": [
            "RO36",
            "RO141"
        ],
        "status": "Active",
        "post_code": "GU31 4EX",
        "uprn": "1710107133"
    },
    {
        "org_id": "177",
        "name": "EAST HERTFORDSHIRE DISTRICT COUNCIL",
        "primary_role_id": "RO141",
        "role_ids": [
            "RO36",
            "RO141"
        ],
        "status": "Active",
        "post_code": "SG13 8EQ",
        "uprn": "Unknown"
    },
    {
        "org_id": "178",
        "name": "EAST LINDSEY DISTRICT COUNCIL",
        "primary_role_id": "RO141",
        "role_ids": [
            "RO36",
            "RO141"
        ],
        "status": "Active",
        "post_code": "LN11 8UP",
        "uprn": "Unknown"
    },
    {
        "org_id": "180",
        "name": "EAST STAFFORDSHIRE BOROUGH COUNCIL",
        "primary_role_id": "RO141",
        "role_ids": [
            "RO34",
            "RO141"
        ],
        "status": "Active",
        "post_code": "DE14 2EB",
        "uprn": "Unknown"
    },
    {
        "org_id": "181",
        "name": "EASTBOURNE BOROUGH COUNCIL",
        "primary_role_id": "RO141",
        "role_ids": [
            "RO34",
            "RO141"
        ],
        "status": "Active",
        "post_code": "BN21 4TW",
        "uprn": "100062251890"
    },
    {
        "org_id": "182",
        "name": "EASTLEIGH BOROUGH COUNCIL",
        "primary_role_id": "RO141",
        "role_ids": [
            "RO34",
            "RO141"
        ],
        "status": "Active",
        "post_code": "SO50 9YN",
        "uprn": "10009588105"
    },
    {
        "org_id": "184",
        "name": "ELMBRIDGE BOROUGH COUNCIL",
        "primary_role_id": "RO141",
        "role_ids": [
            "RO34",
            "RO141"
        ],
        "status": "Active",
        "post_code": "KT10 9SD",
        "uprn": "100062605470"
    },
    {
        "org_id": "185",
        "name": "EPPING FOREST DISTRICT COUNCIL",
        "primary_role_id": "RO141",
        "role_ids": [
            "RO36",
            "RO141"
        ],
        "status": "Active",
        "post_code": "CM16 4BZ",
        "uprn": "10091765747"
    },
    {
        "org_id": "186",
        "name": "EPSOM AND EWELL BOROUGH COUNCIL",
        "primary_role_id": "RO141",
        "role_ids": [
            "RO34",
            "RO141"
        ],
        "status": "Active",
        "post_code": "KT18 5BY",
        "uprn": "10091803125"
    },
    {
        "org_id": "187",
        "name": "EREWASH BOROUGH COUNCIL",
        "primary_role_id": "RO141",
        "role_ids": [
            "RO34",
            "RO141"
        ],
        "status": "Active",
        "post_code": "DE7 5RP",
        "uprn": "100032241193"
    },
    {
        "org_id": "188",
        "name": "EXETER CITY COUNCIL",
        "primary_role_id": "RO141",
        "role_ids": [
            "RO35",
            "RO141"
        ],
        "status": "Active",
        "post_code": "EX1 1JN",
        "uprn": "10013041256"
    },
    {
        "org_id": "189",
        "name": "FAREHAM BOROUGH COUNCIL",
        "primary_role_id": "RO141",
        "role_ids": [
            "RO34",
            "RO141"
        ],
        "status": "Active",
        "post_code": "PO16 7AZ",
        "uprn": "10012130398"
    },
    {
        "org_id": "190",
        "name": "FENLAND DISTRICT COUNCIL",
        "primary_role_id": "RO141",
        "role_ids": [
            "RO36",
            "RO141"
        ],
        "status": "Active",
        "post_code": "PE15 8NQ",
        "uprn": "Unknown"
    },
    {
        "org_id": "193",
        "name": "FOREST OF DEAN DISTRICT COUNCIL",
        "primary_role_id": "RO141",
        "role_ids": [
            "RO36",
            "RO141"
        ],
        "status": "Active",
        "post_code": "GL16 8HG",
        "uprn": "100121368777"
    },
    {
        "org_id": "194",
        "name": "FYLDE BOROUGH COUNCIL",
        "primary_role_id": "RO141",
        "role_ids": [
            "RO34",
            "RO141"
        ],
        "status": "Active",
        "post_code": "FY8 1LW",
        "uprn": "10013594547"
    },
    {
        "org_id": "195",
        "name": "GEDLING BOROUGH COUNCIL",
        "primary_role_id": "RO141",
        "role_ids": [
            "RO34",
            "RO141"
        ],
        "status": "Active",
        "post_code": "NG5 6LU",
        "uprn": "10002888001"
    },
    {
        "org_id": "196",
        "name": "GLOUCESTER CITY COUNCIL",
        "primary_role_id": "RO141",
        "role_ids": [
            "RO35",
            "RO141"
        ],
        "status": "Active",
        "post_code": "GL1 2PE",
        "uprn": "Unknown"
    },
    {
        "org_id": "197",
        "name": "GOSPORT BOROUGH COUNCIL",
        "primary_role_id": "RO141",
        "role_ids": [
            "RO34",
            "RO141"
        ],
        "status": "Active",
        "post_code": "PO12 1EB",
        "uprn": "10091829388"
    },
    {
        "org_id": "198",
        "name": "GRAVESHAM BOROUGH COUNCIL",
        "primary_role_id": "RO141",
        "role_ids": [
            "RO34",
            "RO141"
        ],
        "status": "Active",
        "post_code": "DA12 1AU",
        "uprn": "100062311358"
    },
    {
        "org_id": "199",
        "name": "GREAT YARMOUTH BOROUGH COUNCIL",
        "primary_role_id": "RO141",
        "role_ids": [
            "RO34",
            "RO141"
        ],
        "status": "Active",
        "post_code": "NR30 2QF",
        "uprn": "10091911885"
    },
    {
        "org_id": "203",
        "name": "GREATER LONDON AUTHORITY",
        "primary_role_id": "RO141",
        "role_ids": [
            "RO141",
            "RO223"
        ],
        "status": "Active",
        "post_code": "SE1 2AA",
        "uprn": "10000814129"
    },
    {
        "org_id": "208",
        "name": "GUILDFORD BOROUGH COUNCIL",
        "primary_role_id": "RO141",
        "role_ids": [
            "RO34",
            "RO141"
        ],
        "status": "Active",
        "post_code": "GU2 4BB",
        "uprn": "100062331014"
    },
    {
        "org_id": "222",
        "name": "HARBOROUGH DISTRICT COUNCIL",
        "primary_role_id": "RO141",
        "role_ids": [
            "RO36",
            "RO141"
        ],
        "status": "Active",
        "post_code": "LE16 7AG",
        "uprn": "Unknown"
    },
    {
        "org_id": "223",
        "name": "HARLOW DISTRICT COUNCIL",
        "primary_role_id": "RO141",
        "role_ids": [
            "RO36",
            "RO141"
        ],
        "status": "Active",
        "post_code": "CM20 1WG",
        "uprn": "10003709357"
    },
    {
        "org_id": "225",
        "name": "HART DISTRICT COUNCIL",
        "primary_role_id": "RO141",
        "role_ids": [
            "RO36",
            "RO141"
        ],
        "status": "Active",
        "post_code": "GU51 4AE",
        "uprn": "200001014946"
    },
    {
        "org_id": "226",
        "name": "HASTINGS BOROUGH COUNCIL",
        "primary_role_id": "RO141",
        "role_ids": [
            "RO34",
            "RO141"
        ],
        "status": "Active",
        "post_code": "TN34 1QR",
        "uprn": "10002504352"
    },
    {
        "org_id": "227",
        "name": "HAVANT BOROUGH COUNCIL",
        "primary_role_id": "RO141",
        "role_ids": [
            "RO34",
            "RO141"
        ],
        "status": "Active",
        "post_code": "PO9 2AX",
        "uprn": "100062457206"
    },
    {
        "org_id": "228",
        "name": "HERTSMERE BOROUGH COUNCIL",
        "primary_role_id": "RO141",
        "role_ids": [
            "RO34",
            "RO141"
        ],
        "status": "Active",
        "post_code": "WD6 1WA",
        "uprn": "Unknown"
    },
    {
        "org_id": "229",
        "name": "HIGH PEAK BOROUGH COUNCIL",
        "primary_role_id": "RO141",
        "role_ids": [
            "RO34",
            "RO141"
        ],
        "status": "Active",
        "post_code": "SK17 6EL",
        "uprn": "10010744753"
    },
    {
        "org_id": "230",
        "name": "HINCKLEY AND BOSWORTH BOROUGH COUNCIL",
        "primary_role_id": "RO141",
        "role_ids": [
            "RO34",
            "RO141"
        ],
        "status": "Active",
        "post_code": "LE10 0FR",
        "uprn": "Unknown"
    },
    {
        "org_id": "231",
        "name": "HORSHAM DISTRICT COUNCIL",
        "primary_role_id": "RO141",
        "role_ids": [
            "RO36",
            "RO141"
        ],
        "status": "Active",
        "post_code": "RH12 1RL",
        "uprn": "Unknown"
    },
    {
        "org_id": "232",
        "name": "HUNTINGDONSHIRE DISTRICT COUNCIL",
        "primary_role_id": "RO141",
        "role_ids": [
            "RO36",
            "RO141"
        ],
        "status": "Active",
        "post_code": "PE29 3TN",
        "uprn": "10091827040"
    },
    {
        "org_id": "233",
        "name": "HYNDBURN BOROUGH COUNCIL",
        "primary_role_id": "RO141",
        "role_ids": [
            "RO34",
            "RO141"
        ],
        "status": "Active",
        "post_code": "BB5 0PF",
        "uprn": "Unknown"
    },
    {
        "org_id": "234",
        "name": "IPSWICH BOROUGH COUNCIL",
        "primary_role_id": "RO141",
        "role_ids": [
            "RO34",
            "RO141"
        ],
        "status": "Active",
        "post_code": "IP1 2DE",
        "uprn": "Unknown"
    },
    {
        "org_id": "237",
        "name": "BOROUGH COUNCIL OF KING'S LYNN AND WEST NORFOLK",
        "primary_role_id": "RO141",
        "role_ids": [
            "RO34",
            "RO141"
        ],
        "status": "Active",
        "post_code": "PE30 1EX",
        "uprn": "100091526110"
    },
    {
        "org_id": "238",
        "name": "LANCASTER CITY COUNCIL",
        "primary_role_id": "RO141",
        "role_ids": [
            "RO35",
            "RO141"
        ],
        "status": "Active",
        "post_code": "LA1 1PJ",
        "uprn": "100012621088"
    },
    {
        "org_id": "239",
        "name": "LEWES DISTRICT COUNCIL",
        "primary_role_id": "RO141",
        "role_ids": [
            "RO36",
            "RO141"
        ],
        "status": "Active",
        "post_code": "BN7 2LX",
        "uprn": "10033267284"
    },
    {
        "org_id": "240",
        "name": "LICHFIELD DISTRICT COUNCIL",
        "primary_role_id": "RO141",
        "role_ids": [
            "RO36",
            "RO141"
        ],
        "status": "Active",
        "post_code": "WS13 6YU",
        "uprn": "Unknown"
    },
    {
        "org_id": "241",
        "name": "MAIDSTONE BOROUGH COUNCIL",
        "primary_role_id": "RO141",
        "role_ids": [
            "RO34",
            "RO141"
        ],
        "status": "Active",
        "post_code": "ME15 6JQ",
        "uprn": "10014306994"
    },
    {
        "org_id": "242",
        "name": "MALDON DISTRICT COUNCIL",
        "primary_role_id": "RO141",
        "role_ids": [
            "RO36",
            "RO141"
        ],
        "status": "Active",
        "post_code": "CM9 5DL",
        "uprn": "Unknown"
    },
    {
        "org_id": "243",
        "name": "MALVERN HILLS DISTRICT COUNCIL",
        "primary_role_id": "RO141",
        "role_ids": [
            "RO36",
            "RO141"
        ],
        "status": "Active",
        "post_code": "WR14 3AF",
        "uprn": "10091864547"
    },
    {
        "org_id": "244",
        "name": "MANSFIELD DISTRICT COUNCIL",
        "primary_role_id": "RO141",
        "role_ids": [
            "RO36",
            "RO141"
        ],
        "status": "Active",
        "post_code": "NG19 7BH",
        "uprn": "100032107530"
    },
    {
        "org_id": "245",
        "name": "MELTON BOROUGH COUNCIL",
        "primary_role_id": "RO141",
        "role_ids": [
            "RO34",
            "RO141"
        ],
        "status": "Active",
        "post_code": "LE13 1GH",
        "uprn": "10033212212"
    },
    {
        "org_id": "248",
        "name": "MID DEVON DISTRICT COUNCIL",
        "primary_role_id": "RO141",
        "role_ids": [
            "RO36",
            "RO141"
        ],
        "status": "Active",
        "post_code": "EX16 6PP",
        "uprn": "10002162352"
    },
    {
        "org_id": "249",
        "name": "MID SUFFOLK DISTRICT COUNCIL",
        "primary_role_id": "RO141",
        "role_ids": [
            "RO36",
            "RO141"
        ],
        "status": "Active",
        "post_code": "IP6 8DL",
        "uprn": "100091507326"
    },
    {
        "org_id": "250",
        "name": "MID SUSSEX DISTRICT COUNCIL",
        "primary_role_id": "RO141",
        "role_ids": [
            "RO36",
            "RO141"
        ],
        "status": "Active",
        "post_code": "RH16 1SS",
        "uprn": "10070625306"
    },
    {
        "org_id": "251",
        "name": "MOLE VALLEY DISTRICT COUNCIL",
        "primary_role_id": "RO141",
        "role_ids": [
            "RO36",
            "RO141"
        ],
        "status": "Active",
        "post_code": "RH4 1SJ",
        "uprn": "Unknown"
    },
    {
        "org_id": "254",
        "name": "NEW FOREST DISTRICT COUNCIL",
        "primary_role_id": "RO141",
        "role_ids": [
            "RO36",
            "RO141"
        ],
        "status": "Active",
        "post_code": "SO43 7PA",
        "uprn": "100062001977"
    },
    {
        "org_id": "255",
        "name": "NEWARK AND SHERWOOD DISTRICT COUNCIL",
        "primary_role_id": "RO141",
        "role_ids": [
            "RO36",
            "RO141"
        ],
        "status": "Active",
        "post_code": "NG24 1BY",
        "uprn": "10008173015"
    },
    {
        "org_id": "256",
        "name": "NEWCASTLE-UNDER-LYME BOROUGH COUNCIL",
        "primary_role_id": "RO141",
        "role_ids": [
            "RO34",
            "RO36",
            "RO141"
        ],
        "status": "Active",
        "post_code": "ST5 1BL",
        "uprn": "10024256260"
    },
    {
        "org_id": "260",
        "name": "NORTH EAST DERBYSHIRE DISTRICT COUNCIL",
        "primary_role_id": "RO141",
        "role_ids": [
            "RO36",
            "RO141"
        ],
        "status": "Active",
        "post_code": "S42 6NG",
        "uprn": "10034036658"
    },
    {
        "org_id": "261",
        "name": "NORTH HERTFORDSHIRE DISTRICT COUNCIL",
        "primary_role_id": "RO141",
        "role_ids": [
            "RO36",
            "RO141"
        ],
        "status": "Active",
        "post_code": "SG6 3JF",
        "uprn": "Unknown"
    },
    {
        "org_id": "262",
        "name": "NORTH KESTEVEN DISTRICT COUNCIL",
        "primary_role_id": "RO141",
        "role_ids": [
            "RO36",
            "RO141"
        ],
        "status": "Active",
        "post_code": "NG34 7EF",
        "uprn": "Unknown"
    },
    {
        "org_id": "263",
        "name": "NORTH NORFOLK DISTRICT COUNCIL",
        "primary_role_id": "RO141",
        "role_ids": [
            "RO36",
            "RO141"
        ],
        "status": "Active",
        "post_code": "NR27 9EN",
        "uprn": "10034808413"
    },
    {
        "org_id": "264",
        "name": "NORTH WARWICKSHIRE BOROUGH COUNCIL",
        "primary_role_id": "RO141",
        "role_ids": [
            "RO34",
            "RO141"
        ],
        "status": "Active",
        "post_code": "CV9 1DE",
        "uprn": "10001171425"
    },
    {
        "org_id": "265",
        "name": "NORTH WEST LEICESTERSHIRE DISTRICT COUNCIL",
        "primary_role_id": "RO141",
        "role_ids": [
            "RO36",
            "RO141"
        ],
        "status": "Active",
        "post_code": "LE67 3FJ",
        "uprn": "10091808582"
    },
    {
        "org_id": "267",
        "name": "NORWICH CITY COUNCIL",
        "primary_role_id": "RO141",
        "role_ids": [
            "RO35",
            "RO141"
        ],
        "status": "Active",
        "post_code": "NR2 1NH",
        "uprn": "200004349549"
    },
    {
        "org_id": "268",
        "name": "NUNEATON AND BEDWORTH BOROUGH COUNCIL",
        "primary_role_id": "RO141",
        "role_ids": [
            "RO34",
            "RO141"
        ],
        "status": "Active",
        "post_code": "CV11 5AA",
        "uprn": "Unknown"
    },
    {
        "org_id": "269",
        "name": "OADBY AND WIGSTON BOROUGH COUNCIL",
        "primary_role_id": "RO141",
        "role_ids": [
            "RO34",
            "RO141"
        ],
        "status": "Active",
        "post_code": "LE18 1AD",
        "uprn": "100032050551"
    },
    {
        "org_id": "270",
        "name": "OXFORD CITY COUNCIL",
        "primary_role_id": "RO141",
        "role_ids": [
            "RO35",
            "RO141"
        ],
        "status": "Active",
        "post_code": "OX1 1BX",
        "uprn": "200001115542"
    },
    {
        "org_id": "272",
        "name": "PENDLE BOROUGH COUNCIL",
        "primary_role_id": "RO141",
        "role_ids": [
            "RO34",
            "RO141"
        ],
        "status": "Active",
        "post_code": "BB9 7LJ",
        "uprn": "Unknown"
    },
    {
        "org_id": "274",
        "name": "PRESTON CITY COUNCIL",
        "primary_role_id": "RO141",
        "role_ids": [
            "RO35",
            "RO141"
        ],
        "status": "Active",
        "post_code": "PR1 2RL",
        "uprn": "10002220003"
    },
    {
        "org_id": "276",
        "name": "REDDITCH BOROUGH COUNCIL",
        "primary_role_id": "RO141",
        "role_ids": [
            "RO34",
            "RO141"
        ],
        "status": "Active",
        "post_code": "B98 8AH",
        "uprn": "10009650279"
    },
    {
        "org_id": "277",
        "name": "REIGATE AND BANSTEAD BOROUGH COUNCIL",
        "primary_role_id": "RO141",
        "role_ids": [
            "RO34",
            "RO141"
        ],
        "status": "Active",
        "post_code": "RH2 0SH",
        "uprn": "10091832323"
    },
    {
        "org_id": "279",
        "name": "RIBBLE VALLEY BOROUGH COUNCIL",
        "primary_role_id": "RO141",
        "role_ids": [
            "RO34",
            "RO141"
        ],
        "status": "Active",
        "post_code": "BB7 2RA",
        "uprn": "10022971243"
    },
    {
        "org_id": "281",
        "name": "ROCHFORD DISTRICT COUNCIL",
        "primary_role_id": "RO141",
        "role_ids": [
            "RO36",
            "RO141"
        ],
        "status": "Active",
        "post_code": "SS4 1BW",
        "uprn": "100091596525"
    },
    {
        "org_id": "282",
        "name": "ROSSENDALE BOROUGH COUNCIL",
        "primary_role_id": "RO141",
        "role_ids": [
            "RO34",
            "RO141"
        ],
        "status": "Active",
        "post_code": "OL13 0BB",
        "uprn": "Unknown"
    },
    {
        "org_id": "283",
        "name": "ROTHER DISTRICT COUNCIL",
        "primary_role_id": "RO141",
        "role_ids": [
            "RO36",
            "RO141"
        ],
        "status": "Active",
        "post_code": "TN39 3JX",
        "uprn": "100062580672"
    },
    {
        "org_id": "284",
        "name": "RUGBY BOROUGH COUNCIL",
        "primary_role_id": "RO141",
        "role_ids": [
            "RO34",
            "RO141"
        ],
        "status": "Active",
        "post_code": "CV21 2RR",
        "uprn": "100071399550"
    },
    {
        "org_id": "285",
        "name": "RUNNYMEDE BOROUGH COUNCIL",
        "primary_role_id": "RO141",
        "role_ids": [
            "RO34",
            "RO141"
        ],
        "status": "Active",
        "post_code": "KT15 2AH",
        "uprn": "Unknown"
    },
    {
        "org_id": "286",
        "name": "RUSHCLIFFE BOROUGH COUNCIL",
        "primary_role_id": "RO141",
        "role_ids": [
            "RO34",
            "RO141"
        ],
        "status": "Active",
        "post_code": "NG2 7YG",
        "uprn": "Unknown"
    },
    {
        "org_id": "287",
        "name": "RUSHMOOR BOROUGH COUNCIL",
        "primary_role_id": "RO141",
        "role_ids": [
            "RO34",
            "RO141"
        ],
        "status": "Active",
        "post_code": "GU14 7JU",
        "uprn": "100062326836"
    },
    {
        "org_id": "292",
        "name": "SEVENOAKS DISTRICT COUNCIL",
        "primary_role_id": "RO141",
        "role_ids": [
            "RO36",
            "RO141"
        ],
        "status": "Active",
        "post_code": "TN13 1HG",
        "uprn": "100062546706"
    },
    {
        "org_id": "293",
        "name": "FOLKESTONE AND HYTHE COUNCIL",
        "primary_role_id": "RO141",
        "role_ids": [
            "RO36",
            "RO141"
        ],
        "status": "Active",
        "post_code": "CT20 2QY",
        "uprn": "Unknown"
    },
    {
        "org_id": "295",
        "name": "SOUTH CAMBRIDGESHIRE DISTRICT COUNCIL",
        "primary_role_id": "RO141",
        "role_ids": [
            "RO36",
            "RO141"
        ],
        "status": "Active",
        "post_code": "CB23 6EA",
        "uprn": "10008083142"
    },
    {
        "org_id": "296",
        "name": "SOUTH DERBYSHIRE DISTRICT COUNCIL",
        "primary_role_id": "RO141",
        "role_ids": [
            "RO36",
            "RO141"
        ],
        "status": "Active",
        "post_code": "DE11 0AH",
        "uprn": "10091770765"
    },
    {
        "org_id": "297",
        "name": "SOUTH HAMS DISTRICT COUNCIL",
        "primary_role_id": "RO141",
        "role_ids": [
            "RO36",
            "RO141"
        ],
        "status": "Active",
        "post_code": "TQ9 5NE",
        "uprn": "100041041502"
    },
    {
        "org_id": "298",
        "name": "SOUTH HOLLAND DISTRICT COUNCIL",
        "primary_role_id": "RO141",
        "role_ids": [
            "RO36",
            "RO141"
        ],
        "status": "Active",
        "post_code": "PE11 2XE",
        "uprn": "Unknown"
    },
    {
        "org_id": "299",
        "name": "SOUTH KESTEVEN DISTRICT COUNCIL",
        "primary_role_id": "RO141",
        "role_ids": [
            "RO36",
            "RO141"
        ],
        "status": "Active",
        "post_code": "NG31 6PZ",
        "uprn": "10091820183"
    },
    {
        "org_id": "314",
        "name": "SOUTH NORFOLK DISTRICT COUNCIL",
        "primary_role_id": "RO141",
        "role_ids": [
            "RO36",
            "RO141"
        ],
        "status": "Active",
        "post_code": "NR15 2XE",
        "uprn": "Unknown"
    },
    {
        "org_id": "383",
        "name": "SOUTH OXFORDSHIRE DISTRICT COUNCIL",
        "primary_role_id": "RO141",
        "role_ids": [
            "RO36",
            "RO141"
        ],
        "status": "Active",
        "post_code": "OX14 4SB",
        "uprn": "10014027907"
    },
    {
        "org_id": "328",
        "name": "SOUTH RIBBLE BOROUGH COUNCIL",
        "primary_role_id": "RO141",
        "role_ids": [
            "RO34",
            "RO141"
        ],
        "status": "Active",
        "post_code": "PR25 1DH",
        "uprn": "100012755948"
    },
    {
        "org_id": "330",
        "name": "SOUTH STAFFORDSHIRE COUNCIL",
        "primary_role_id": "RO141",
        "role_ids": [
            "RO36",
            "RO141"
        ],
        "status": "Active",
        "post_code": "WV8 1PX",
        "uprn": "200004528153"
    },
    {
        "org_id": "331",
        "name": "SPELTHORNE BOROUGH COUNCIL",
        "primary_role_id": "RO141",
        "role_ids": [
            "RO34",
            "RO141"
        ],
        "status": "Active",
        "post_code": "TW18 1XB",
        "uprn": "10091852511"
    },
    {
        "org_id": "332",
        "name": "ST ALBANS CITY AND DISTRICT COUNCIL",
        "primary_role_id": "RO141",
        "role_ids": [
            "RO36",
            "RO141"
        ],
        "status": "Active",
        "post_code": "AL1 3JE",
        "uprn": "200003637136"
    },
    {
        "org_id": "334",
        "name": "STAFFORD BOROUGH COUNCIL",
        "primary_role_id": "RO141",
        "role_ids": [
            "RO34",
            "RO141"
        ],
        "status": "Active",
        "post_code": "ST16 3AQ",
        "uprn": "Unknown"
    },
    {
        "org_id": "335",
        "name": "STAFFORDSHIRE MOORLANDS DISTRICT COUNCIL",
        "primary_role_id": "RO141",
        "role_ids": [
            "RO36",
            "RO141"
        ],
        "status": "Active",
        "post_code": "ST13 6HQ",
        "uprn": "200001575511"
    },
    {
        "org_id": "336",
        "name": "STEVENAGE BOROUGH COUNCIL",
        "primary_role_id": "RO141",
        "role_ids": [
            "RO34",
            "RO141"
        ],
        "status": "Active",
        "post_code": "SG1 1HN",
        "uprn": "Unknown"
    },
    {
        "org_id": "337",
        "name": "STRATFORD-ON-AVON DISTRICT COUNCIL",
        "primary_role_id": "RO141",
        "role_ids": [
            "RO36",
            "RO141"
        ],
        "status": "Active",
        "post_code": "CV37 6HX",
        "uprn": "Unknown"
    },
    {
        "org_id": "338",
        "name": "STROUD DISTRICT COUNCIL",
        "primary_role_id": "RO141",
        "role_ids": [
            "RO36",
            "RO141"
        ],
        "status": "Active",
        "post_code": "GL5 4UB",
        "uprn": "10014280260"
    },
    {
        "org_id": "340",
        "name": "SURREY HEATH BOROUGH COUNCIL",
        "primary_role_id": "RO141",
        "role_ids": [
            "RO34",
            "RO141"
        ],
        "status": "Active",
        "post_code": "GU15 3HD",
        "uprn": "Unknown"
    },
    {
        "org_id": "341",
        "name": "SWALE BOROUGH COUNCIL",
        "primary_role_id": "RO141",
        "role_ids": [
            "RO34",
            "RO141"
        ],
        "status": "Active",
        "post_code": "ME10 3HT",
        "uprn": "100062375927"
    },
    {
        "org_id": "343",
        "name": "TAMWORTH BOROUGH COUNCIL",
        "primary_role_id": "RO141",
        "role_ids": [
            "RO34",
            "RO141"
        ],
        "status": "Active",
        "post_code": "B79 7BZ",
        "uprn": "Unknown"
    },
    {
        "org_id": "344",
        "name": "TANDRIDGE DISTRICT COUNCIL",
        "primary_role_id": "RO141",
        "role_ids": [
            "RO36",
            "RO141"
        ],
        "status": "Active",
        "post_code": "RH8 0BT",
        "uprn": "100062498585"
    },
    {
        "org_id": "346",
        "name": "TEIGNBRIDGE DISTRICT COUNCIL",
        "primary_role_id": "RO141",
        "role_ids": [
            "RO36",
            "RO141"
        ],
        "status": "Active",
        "post_code": "TQ12 4XX",
        "uprn": "10032966626"
    },
    {
        "org_id": "347",
        "name": "TENDRING DISTRICT COUNCIL",
        "primary_role_id": "RO141",
        "role_ids": [
            "RO36",
            "RO141"
        ],
        "status": "Active",
        "post_code": "CO15 1SE",
        "uprn": "100091463459"
    },
    {
        "org_id": "348",
        "name": "TEST VALLEY BOROUGH COUNCIL",
        "primary_role_id": "RO141",
        "role_ids": [
            "RO34",
            "RO141"
        ],
        "status": "Active",
        "post_code": "SP10 3AJ",
        "uprn": "200000710896"
    },
    {
        "org_id": "349",
        "name": "TEWKESBURY BOROUGH COUNCIL",
        "primary_role_id": "RO141",
        "role_ids": [
            "RO34",
            "RO141"
        ],
        "status": "Active",
        "post_code": "GL20 5TT",
        "uprn": "10091794282"
    },
    {
        "org_id": "350",
        "name": "THANET DISTRICT COUNCIL",
        "primary_role_id": "RO141",
        "role_ids": [
            "RO36",
            "RO141"
        ],
        "status": "Active",
        "post_code": "CT9 1XZ",
        "uprn": "10015249164"
    },
    {
        "org_id": "351",
        "name": "THREE RIVERS DISTRICT COUNCIL",
        "primary_role_id": "RO141",
        "role_ids": [
            "RO36",
            "RO141"
        ],
        "status": "Active",
        "post_code": "WD3 1RL",
        "uprn": "100081288780"
    },
    {
        "org_id": "352",
        "name": "TONBRIDGE AND MALLING BOROUGH COUNCIL",
        "primary_role_id": "RO141",
        "role_ids": [
            "RO34",
            "RO141"
        ],
        "status": "Active",
        "post_code": "ME19 4LZ",
        "uprn": "200000960080"
    },
    {
        "org_id": "354",
        "name": "TORRIDGE DISTRICT COUNCIL",
        "primary_role_id": "RO141",
        "role_ids": [
            "RO36",
            "RO141"
        ],
        "status": "Active",
        "post_code": "EX39 2QG",
        "uprn": "10002296087"
    },
    {
        "org_id": "355",
        "name": "TUNBRIDGE WELLS BOROUGH COUNCIL",
        "primary_role_id": "RO141",
        "role_ids": [
            "RO34",
            "RO141"
        ],
        "status": "Active",
        "post_code": "TN1 1RS",
        "uprn": "10008660629"
    },
    {
        "org_id": "356",
        "name": "UTTLESFORD DISTRICT COUNCIL",
        "primary_role_id": "RO141",
        "role_ids": [
            "RO36",
            "RO141"
        ],
        "status": "Active",
        "post_code": "CB11 4ER",
        "uprn": "Unknown"
    },
    {
        "org_id": "358",
        "name": "VALE OF WHITE HORSE DISTRICT COUNCIL",
        "primary_role_id": "RO141",
        "role_ids": [
            "RO36",
            "RO141"
        ],
        "status": "Active",
        "post_code": "OX14 4SB",
        "uprn": "10091912489"
    },
    {
        "org_id": "359",
        "name": "WARWICK DISTRICT COUNCIL",
        "primary_role_id": "RO141",
        "role_ids": [
            "RO36",
            "RO141"
        ],
        "status": "Active",
        "post_code": "CV32 5HZ",
        "uprn": "10013181215"
    },
    {
        "org_id": "360",
        "name": "WATFORD BOROUGH COUNCIL",
        "primary_role_id": "RO141",
        "role_ids": [
            "RO34",
            "RO141"
        ],
        "status": "Active",
        "post_code": "WD17 3EX",
        "uprn": "200000930744"
    },
    {
        "org_id": "362",
        "name": "WAVERLEY BOROUGH COUNCIL",
        "primary_role_id": "RO141",
        "role_ids": [
            "RO34",
            "RO141"
        ],
        "status": "Active",
        "post_code": "GU7 1HR",
        "uprn": "Unknown"
    },
    {
        "org_id": "363",
        "name": "WEALDEN DISTRICT COUNCIL",
        "primary_role_id": "RO141",
        "role_ids": [
            "RO36",
            "RO141"
        ],
        "status": "Active",
        "post_code": "BN27 2AX",
        "uprn": "Unknown"
    },
    {
        "org_id": "365",
        "name": "WELWYN HATFIELD BOROUGH COUNCIL",
        "primary_role_id": "RO141",
        "role_ids": [
            "RO34",
            "RO36",
            "RO141"
        ],
        "status": "Active",
        "post_code": "AL8 6AE",
        "uprn": "10007553940"
    },
    {
        "org_id": "366",
        "name": "WEST DEVON BOROUGH COUNCIL",
        "primary_role_id": "RO141",
        "role_ids": [
            "RO34",
            "RO141"
        ],
        "status": "Active",
        "post_code": "PL19 0BZ",
        "uprn": "100041039809"
    },
    {
        "org_id": "368",
        "name": "WEST LANCASHIRE BOROUGH COUNCIL",
        "primary_role_id": "RO141",
        "role_ids": [
            "RO34",
            "RO36",
            "RO141"
        ],
        "status": "Active",
        "post_code": "L39 2DF",
        "uprn": "10092807853"
    },
    {
        "org_id": "369",
        "name": "WEST LINDSEY DISTRICT COUNCIL",
        "primary_role_id": "RO141",
        "role_ids": [
            "RO36",
            "RO141"
        ],
        "status": "Active",
        "post_code": "DN21 2NA",
        "uprn": "Unknown"
    },
    {
        "org_id": "370",
        "name": "WEST OXFORDSHIRE DISTRICT COUNCIL",
        "primary_role_id": "RO141",
        "role_ids": [
            "RO36",
            "RO141"
        ],
        "status": "Active",
        "post_code": "OX28 6JH",
        "uprn": "100121320858"
    },
    {
        "org_id": "373",
        "name": "WINCHESTER CITY COUNCIL",
        "primary_role_id": "RO141",
        "role_ids": [
            "RO35",
            "RO141"
        ],
        "status": "Active",
        "post_code": "SO23 9LJ",
        "uprn": "100062521493"
    },
    {
        "org_id": "374",
        "name": "WOKING BOROUGH COUNCIL",
        "primary_role_id": "RO141",
        "role_ids": [
            "RO34",
            "RO141"
        ],
        "status": "Active",
        "post_code": "GU21 6YL",
        "uprn": "10000003838"
    },
    {
        "org_id": "375",
        "name": "WORCESTER CITY COUNCIL",
        "primary_role_id": "RO141",
        "role_ids": [
            "RO35",
            "RO141"
        ],
        "status": "Active",
        "post_code": "WR1 2EY",
        "uprn": "10000854501"
    },
    {
        "org_id": "376",
        "name": "WORTHING BOROUGH COUNCIL",
        "primary_role_id": "RO141",
        "role_ids": [
            "RO34",
            "RO141"
        ],
        "status": "Active",
        "post_code": "BN11 1HS",
        "uprn": "10002290968"
    },
    {
        "org_id": "380",
        "name": "WYRE BOROUGH COUNCIL",
        "primary_role_id": "RO141",
        "role_ids": [
            "RO34",
            "RO141"
        ],
        "status": "Active",
        "post_code": "FY6 7PU",
        "uprn": "10003515302"
    },
    {
        "org_id": "381",
        "name": "WYRE FOREST DISTRICT COUNCIL",
        "primary_role_id": "RO141",
        "role_ids": [
            "RO36",
            "RO141"
        ],
        "status": "Active",
        "post_code": "DY11 7WF",
        "uprn": "10003378634"
    },
    {
        "org_id": "326",
        "name": "CHESHIRE EAST COUNCIL",
        "primary_role_id": "RO141",
        "role_ids": [
            "RO40",
            "RO141"
        ],
        "status": "Active",
        "post_code": "CW1 2BJ",
        "uprn": "100012595245"
    },
    {
        "org_id": "327",
        "name": "CHESHIRE WEST AND CHESTER COUNCIL",
        "primary_role_id": "RO141",
        "role_ids": [
            "RO40",
            "RO141"
        ],
        "status": "Active",
        "post_code": "CH1 2NP",
        "uprn": "10014509875"
    },
    {
        "org_id": "378",
        "name": "WYCHAVON DISTRICT COUNCIL",
        "primary_role_id": "RO141",
        "role_ids": [
            "RO36",
            "RO141"
        ],
        "status": "Active",
        "post_code": "WR10 1PT",
        "uprn": "100121351477"
    },
    {
        "org_id": "258",
        "name": "NORTH DEVON DISTRICT COUNCIL",
        "primary_role_id": "RO141",
        "role_ids": [
            "RO36",
            "RO141"
        ],
        "status": "Active",
        "post_code": "EX31 1DG",
        "uprn": "100041037516"
    },
    {
        "org_id": "625",
        "name": "BEDFORD BOROUGH COUNCIL",
        "primary_role_id": "RO141",
        "role_ids": [
            "RO34",
            "RO40",
            "RO141"
        ],
        "status": "Active",
        "post_code": "MK42 9AP",
        "uprn": "100081210838"
    },
    {
        "org_id": "626",
        "name": "CENTRAL BEDFORDSHIRE COUNCIL",
        "primary_role_id": "RO141",
        "role_ids": [
            "RO40",
            "RO141"
        ],
        "status": "Active",
        "post_code": "SG17 5TQ",
        "uprn": "10012431439"
    },
    {
        "org_id": "738",
        "name": "BCP COUNCIL",
        "primary_role_id": "RO141",
        "role_ids": [
            "RO40",
            "RO141"
        ],
        "status": "Active",
        "post_code": "BH2 6DY",
        "uprn": "100041057466"
    },
    {
        "org_id": "739",
        "name": "SOMERSET WEST AND TAUNTON COUNCIL",
        "primary_role_id": "RO141",
        "role_ids": [
            "RO36",
            "RO141"
        ],
        "status": "Active",
        "post_code": "TA1 1HE",
        "uprn": "100041069988"
    },
    {
        "org_id": "740",
        "name": "EAST SUFFOLK COUNCIL",
        "primary_role_id": "RO141",
        "role_ids": [
            "RO36",
            "RO141"
        ],
        "status": "Active",
        "post_code": "IP12 1RT",
        "uprn": "10090648032"
    },
    {
        "org_id": "741",
        "name": "WEST SUFFOLK COUNCIL",
        "primary_role_id": "RO141",
        "role_ids": [
            "RO36",
            "RO141"
        ],
        "status": "Active",
        "post_code": "IP33 3YU",
        "uprn": "Unknown"
    },
    {
        "org_id": "915",
        "name": "GREATER MANCHESTER COMBINED AUTHORITY",
        "primary_role_id": "RO141",
        "role_ids": [
            "RO141",
            "RO273"
        ],
        "status": "Active",
        "post_code": "M1 6EU",
        "uprn": "10091978280"
    },
    {
        "org_id": "916",
        "name": "BUCKINGHAMSHIRE COUNCIL",
        "primary_role_id": "RO141",
        "role_ids": [
            "RO40",
            "RO141"
        ],
        "status": "Active",
        "post_code": "HP19 8FF",
        "uprn": "766299967"
    },
    {
        "org_id": "U6Q5Z",
        "name": "WEST NORTHAMPTONSHIRE COUNCIL",
        "primary_role_id": "RO141",
        "role_ids": [
            "RO36",
            "RO40",
            "RO141"
        ],
        "status": "Active",
        "post_code": "NN1 1ED",
        "uprn": "Unknown"
    },
    {
        "org_id": "Z9D4Z",
        "name": "NORTH NORTHAMPTONSHIRE COUNCIL",
        "primary_role_id": "RO141",
        "role_ids": [
            "RO36",
            "RO40",
            "RO141"
        ],
        "status": "Active",
        "post_code": "NN16 8TL",
        "uprn": "100032264201"
    },
    {
        "org_id": "H6X4G",
        "name": "CUMBERLAND COUNCIL",
        "primary_role_id": "RO141",
        "role_ids": [
            "RO33",
            "RO40",
            "RO141"
        ],
        "status": "Active",
        "post_code": "CA1 1RD",
        "uprn": "10008710524"
    },
    {
        "org_id": "W8X1Q",
        "name": "WESTMORLAND AND FURNESS COUNCIL",
        "primary_role_id": "RO141",
        "role_ids": [
            "RO40",
            "RO141"
        ],
        "status": "Active",
        "post_code": "LA9 4UG",
        "uprn": "10091806947"
    },
    {
        "org_id": "T8X3V",
        "name": "WEST YORKSHIRE COMBINED AUTHORITY",
        "primary_role_id": "RO141",
        "role_ids": [
            "RO141",
            "RO273"
        ],
        "status": "Active",
        "post_code": "LS1 2DE",
        "uprn": "72225587"
    }
]