[
    {
        "org_id": "J82022",
        "name": "VICTOR STREET SURGERY",
        "primary_role_id": "RO177",
        "role_ids": [
            "RO76",
            "RO177"
        ],
        "status": "Active",
        "post_code": "SO15 5SY",
        "uprn": "100062506311"
    },
    {
        "org_id": "J82024",
        "name": "SOLENT GP SURGERY",
        "primary_role_id": "RO177",
        "role_ids": [
            "RO76",
            "RO177"
        ],
        "status": "Active",
        "post_code": "SO16 4XE",
        "uprn": "10034868931"
    },
    {
        "org_id": "J82025",
        "name": "CHARLTON HILL SURGERY",
        "primary_role_id": "RO177",
        "role_ids": [
            "RO76",
            "RO177"
        ],
        "status": "Active",
        "post_code": "SP10 3JY",
        "uprn": "100062540087"
    },
    {
        "org_id": "J82026",
        "name": "CENTRE PRACTICE",
        "primary_role_id": "RO177",
        "role_ids": [
            "RO76",
            "RO177"
        ],
        "status": "Active",
        "post_code": "PO16 7ER",
        "uprn": "100062408020"
    },
    {
        "org_id": "J82028",
        "name": "TRAFALGAR MEDICAL GROUP PRACTICE",
        "primary_role_id": "RO177",
        "role_ids": [
            "RO76",
            "RO177"
        ],
        "status": "Active",
        "post_code": "PO5 3ND",
        "uprn": "1775062167"
    },
    {
        "org_id": "J82033",
        "name": "GUDGEHEATH LANE SURGERY",
        "primary_role_id": "RO177",
        "role_ids": [
            "RO76",
            "RO177"
        ],
        "status": "Active",
        "post_code": "PO15 6QA",
        "uprn": "100062407252"
    },
    {
        "org_id": "J82034",
        "name": "WICKHAM SURGERY",
        "primary_role_id": "RO177",
        "role_ids": [
            "RO76",
            "RO177"
        ],
        "status": "Active",
        "post_code": "PO17 5GU",
        "uprn": "10024211930"
    },
    {
        "org_id": "J82035",
        "name": "ST CLEMENTS PARTNERSHIP",
        "primary_role_id": "RO177",
        "role_ids": [
            "RO76",
            "RO177"
        ],
        "status": "Active",
        "post_code": "SO23 8DG",
        "uprn": "Unknown"
    },
    {
        "org_id": "J82036",
        "name": "WEST MEON SURGERY",
        "primary_role_id": "RO177",
        "role_ids": [
            "RO76",
            "RO177"
        ],
        "status": "Active",
        "post_code": "GU32 1LR",
        "uprn": "100062343171"
    },
    {
        "org_id": "J82039",
        "name": "RINGWOOD MEDICAL CENTRE",
        "primary_role_id": "RO177",
        "role_ids": [
            "RO76",
            "RO177"
        ],
        "status": "Active",
        "post_code": "BH24 1JY",
        "uprn": "100062213369"
    },
    {
        "org_id": "J82040",
        "name": "WEST END ROAD SURGERY",
        "primary_role_id": "RO177",
        "role_ids": [
            "RO76",
            "RO177"
        ],
        "status": "Active",
        "post_code": "SO18 6TG",
        "uprn": "100062515677"
    },
    {
        "org_id": "J82042",
        "name": "BADGERSWOOD SURGERY",
        "primary_role_id": "RO177",
        "role_ids": [
            "RO76",
            "RO177"
        ],
        "status": "Active",
        "post_code": "GU35 8LH",
        "uprn": "1710050917"
    },
    {
        "org_id": "J82049",
        "name": "THE OAKLEY HEALTH GROUP",
        "primary_role_id": "RO177",
        "role_ids": [
            "RO76",
            "RO177"
        ],
        "status": "Active",
        "post_code": "GU17 0DD",
        "uprn": "Unknown"
    },
    {
        "org_id": "J82050",
        "name": "ST PAUL'S SURGERY",
        "primary_role_id": "RO177",
        "role_ids": [
            "RO76",
            "RO177"
        ],
        "status": "Active",
        "post_code": "SO22 5DD",
        "uprn": "200000187378"
    },
    {
        "org_id": "J82051",
        "name": "BLACKTHORN HEALTH CENTRE",
        "primary_role_id": "RO177",
        "role_ids": [
            "RO76",
            "RO177"
        ],
        "status": "Active",
        "post_code": "SO31 4NQ",
        "uprn": "Unknown"
    },
    {
        "org_id": "J82053",
        "name": "ADELAIDE MEDICAL CENTRE",
        "primary_role_id": "RO177",
        "role_ids": [
            "RO76",
            "RO177"
        ],
        "status": "Active",
        "post_code": "SP10 1HA",
        "uprn": "100062539170"
    },
    {
        "org_id": "J82054",
        "name": "KINTBURY & WOOLTON HILL SURGERY",
        "primary_role_id": "RO177",
        "role_ids": [
            "RO76",
            "RO177"
        ],
        "status": "Active",
        "post_code": "RG17 9UX",
        "uprn": "Unknown"
    },
    {
        "org_id": "J82055",
        "name": "CRANESWATER GROUP PRACTICE",
        "primary_role_id": "RO177",
        "role_ids": [
            "RO76",
            "RO177"
        ],
        "status": "Active",
        "post_code": "PO5 2PW",
        "uprn": "1775084132"
    },
    {
        "org_id": "J82056",
        "name": "RED AND GREEN PRACTICE",
        "primary_role_id": "RO177",
        "role_ids": [
            "RO76",
            "RO177"
        ],
        "status": "Active",
        "post_code": "SO45 5WX",
        "uprn": "100062533883"
    },
    {
        "org_id": "J82058",
        "name": "BRAMBLYS GRANGE MEDICAL PRACTICE",
        "primary_role_id": "RO177",
        "role_ids": [
            "RO76",
            "RO177"
        ],
        "status": "Active",
        "post_code": "RG21 7AP",
        "uprn": "10002464742"
    },
    {
        "org_id": "J82059",
        "name": "THE WATERCRESS MEDICAL GROUP",
        "primary_role_id": "RO177",
        "role_ids": [
            "RO76",
            "RO177"
        ],
        "status": "Active",
        "post_code": "GU34 5EW",
        "uprn": "200001495082"
    },
    {
        "org_id": "J82060",
        "name": "THE LIGHTHOUSE GROUP PRACTICE",
        "primary_role_id": "RO177",
        "role_ids": [
            "RO76",
            "RO177"
        ],
        "status": "Active",
        "post_code": "PO5 1AT",
        "uprn": "1775114663"
    },
    {
        "org_id": "J82061",
        "name": "ODIHAM HEALTH CENTRE",
        "primary_role_id": "RO177",
        "role_ids": [
            "RO76",
            "RO177"
        ],
        "status": "Active",
        "post_code": "RG29 1JY",
        "uprn": "200000999889"
    },
    {
        "org_id": "J82062",
        "name": "CHEVIOT ROAD SURGERY",
        "primary_role_id": "RO177",
        "role_ids": [
            "RO76",
            "RO177"
        ],
        "status": "Active",
        "post_code": "SO15 5RP",
        "uprn": "100062506306"
    },
    {
        "org_id": "J82063",
        "name": "PARKSIDE PRACTICE",
        "primary_role_id": "RO177",
        "role_ids": [
            "RO76",
            "RO177"
        ],
        "status": "Active",
        "post_code": "SO50 9AG",
        "uprn": "100062535929"
    },
    {
        "org_id": "J82064",
        "name": "BISHOPS WALTHAM SURGERY",
        "primary_role_id": "RO177",
        "role_ids": [
            "RO76",
            "RO177"
        ],
        "status": "Active",
        "post_code": "SO32 1GR",
        "uprn": "100062525700"
    },
    {
        "org_id": "J82066",
        "name": "THE CAMBRIDGE PRACTICE",
        "primary_role_id": "RO177",
        "role_ids": [
            "RO76",
            "RO177"
        ],
        "status": "Active",
        "post_code": "GU11 1AY",
        "uprn": "Unknown"
    },
    {
        "org_id": "J82067",
        "name": "VOYAGER FAMILY HEALTH",
        "primary_role_id": "RO177",
        "role_ids": [
            "RO76",
            "RO177"
        ],
        "status": "Active",
        "post_code": "GU14 0NP",
        "uprn": "Unknown"
    },
    {
        "org_id": "J82069",
        "name": "CAMROSE GILLIES AND HACKWOOD PARTNERSHIP",
        "primary_role_id": "RO177",
        "role_ids": [
            "RO76",
            "RO177"
        ],
        "status": "Active",
        "post_code": "RG22 4EH",
        "uprn": "10002923279"
    },
    {
        "org_id": "J82071",
        "name": "ST. ANDREW'S SURGERY",
        "primary_role_id": "RO177",
        "role_ids": [
            "RO76",
            "RO177"
        ],
        "status": "Active",
        "post_code": "SO50 5PT",
        "uprn": "100062535103"
    },
    {
        "org_id": "J82072",
        "name": "FORESTSIDE MEDICAL PRACTICE",
        "primary_role_id": "RO177",
        "role_ids": [
            "RO76",
            "RO177"
        ],
        "status": "Active",
        "post_code": "SO45 4JA",
        "uprn": "100062533713"
    },
    {
        "org_id": "J82073",
        "name": "KIRKLANDS SURGERY",
        "primary_role_id": "RO177",
        "role_ids": [
            "RO76",
            "RO177"
        ],
        "status": "Active",
        "post_code": "PO3 5AF",
        "uprn": "1775016789"
    },
    {
        "org_id": "J82074",
        "name": "ALMA ROAD SURGERY",
        "primary_role_id": "RO177",
        "role_ids": [
            "RO76",
            "RO177"
        ],
        "status": "Active",
        "post_code": "SO51 8ED",
        "uprn": "100062537404"
    },
    {
        "org_id": "J82075",
        "name": "CHAWTON HOUSE SURGERY",
        "primary_role_id": "RO177",
        "role_ids": [
            "RO76",
            "RO177"
        ],
        "status": "Active",
        "post_code": "SO41 9ND",
        "uprn": "100062639861"
    },
    {
        "org_id": "J82076",
        "name": "WOOLSTON AND CHARTWELL PARTNERSHIP",
        "primary_role_id": "RO177",
        "role_ids": [
            "RO76",
            "RO177"
        ],
        "status": "Active",
        "post_code": "SO19 9AL",
        "uprn": "100062517228"
    },
    {
        "org_id": "J82079",
        "name": "CLIFT SURGERY",
        "primary_role_id": "RO177",
        "role_ids": [
            "RO76",
            "RO177"
        ],
        "status": "Active",
        "post_code": "RG26 5BH",
        "uprn": "100062463842"
    },
    {
        "org_id": "J82080",
        "name": "UNIVERSITY HEALTH SERVICE SOUTHAMPTON",
        "primary_role_id": "RO177",
        "role_ids": [
            "RO76",
            "RO177"
        ],
        "status": "Active",
        "post_code": "SO17 1BJ",
        "uprn": "Unknown"
    },
    {
        "org_id": "J82081",
        "name": "ST. MARY'S SURGERY",
        "primary_role_id": "RO177",
        "role_ids": [
            "RO76",
            "RO177"
        ],
        "status": "Active",
        "post_code": "SO14 1LT",
        "uprn": "10001314354"
    },
    {
        "org_id": "J82082",
        "name": "SHEPHERDS SPRING MEDICAL CENTRE",
        "primary_role_id": "RO177",
        "role_ids": [
            "RO76",
            "RO177"
        ],
        "status": "Active",
        "post_code": "SP10 5DE",
        "uprn": "200000703511"
    },
    {
        "org_id": "J82083",
        "name": "THE WILLOW GROUP",
        "primary_role_id": "RO177",
        "role_ids": [
            "RO76",
            "RO177"
        ],
        "status": "Active",
        "post_code": "PO12 3JP",
        "uprn": "Unknown"
    },
    {
        "org_id": "J82084",
        "name": "BLOSSOM HEALTH - GOSPORT",
        "primary_role_id": "RO177",
        "role_ids": [
            "RO76",
            "RO177"
        ],
        "status": "Active",
        "post_code": "PO12 3PW",
        "uprn": "37031326"
    },
    {
        "org_id": "J82085",
        "name": "ISLAND CITY PRACTICE",
        "primary_role_id": "RO177",
        "role_ids": [
            "RO76",
            "RO177"
        ],
        "status": "Active",
        "post_code": "PO1 4JT",
        "uprn": "1775060816"
    },
    {
        "org_id": "J82087",
        "name": "STONEHAM LANE SURGERY",
        "primary_role_id": "RO177",
        "role_ids": [
            "RO76",
            "RO177"
        ],
        "status": "Active",
        "post_code": "SO16 2JA",
        "uprn": "100062508143"
    },
    {
        "org_id": "J82088",
        "name": "THE SHIRLEY HEALTH PARTNERSHIP",
        "primary_role_id": "RO177",
        "role_ids": [
            "RO76",
            "RO177"
        ],
        "status": "Active",
        "post_code": "SO15 3JD",
        "uprn": "Unknown"
    },
    {
        "org_id": "J82089",
        "name": "HEDGE END MEDICAL CENTRE",
        "primary_role_id": "RO177",
        "role_ids": [
            "RO76",
            "RO177"
        ],
        "status": "Active",
        "post_code": "SO30 4FQ",
        "uprn": "100062523766"
    },
    {
        "org_id": "J82092",
        "name": "ALDERMOOR SURGERY",
        "primary_role_id": "RO177",
        "role_ids": [
            "RO76",
            "RO177"
        ],
        "status": "Active",
        "post_code": "SO16 5ST",
        "uprn": "100062508940"
    },
    {
        "org_id": "J82094",
        "name": "TADLEY MEDICAL P'SHIP",
        "primary_role_id": "RO177",
        "role_ids": [
            "RO76",
            "RO177"
        ],
        "status": "Active",
        "post_code": "RG26 4ER",
        "uprn": "100062463447"
    },
    {
        "org_id": "J82098",
        "name": "SWAN MEDICAL GROUP",
        "primary_role_id": "RO177",
        "role_ids": [
            "RO76",
            "RO177"
        ],
        "status": "Active",
        "post_code": "GU32 3AB",
        "uprn": "1710058950"
    },
    {
        "org_id": "J82099",
        "name": "RICHMOND SURGERY",
        "primary_role_id": "RO177",
        "role_ids": [
            "RO76",
            "RO177"
        ],
        "status": "Active",
        "post_code": "GU52 7US",
        "uprn": "100062325604"
    },
    {
        "org_id": "J82101",
        "name": "THE PEARTREE PRACTICE",
        "primary_role_id": "RO177",
        "role_ids": [
            "RO76",
            "RO177"
        ],
        "status": "Active",
        "post_code": "SO19 0HS",
        "uprn": "100062652160"
    },
    {
        "org_id": "J82102",
        "name": "THE DRAYTON SURGERY",
        "primary_role_id": "RO177",
        "role_ids": [
            "RO76",
            "RO177"
        ],
        "status": "Active",
        "post_code": "PO6 1PA",
        "uprn": "1775035797"
    },
    {
        "org_id": "J82103",
        "name": "ST MARY'S SURGERY",
        "primary_role_id": "RO177",
        "role_ids": [
            "RO76",
            "RO177"
        ],
        "status": "Active",
        "post_code": "SP10 1DP",
        "uprn": "100062539136"
    },
    {
        "org_id": "J82104",
        "name": "STUBBINGTON MEDICAL PRACTICE",
        "primary_role_id": "RO177",
        "role_ids": [
            "RO76",
            "RO177"
        ],
        "status": "Active",
        "post_code": "PO14 2JP",
        "uprn": "100062406584"
    },
    {
        "org_id": "J82106",
        "name": "GRATTON SURGERY",
        "primary_role_id": "RO177",
        "role_ids": [
            "RO76",
            "RO177"
        ],
        "status": "Active",
        "post_code": "SO21 3LE",
        "uprn": "10000101859"
    },
    {
        "org_id": "J82110",
        "name": "HART HEALTH PARTNERSHIP",
        "primary_role_id": "RO177",
        "role_ids": [
            "RO76",
            "RO177"
        ],
        "status": "Active",
        "post_code": "GU51 4PE",
        "uprn": "200001002768"
    },
    {
        "org_id": "J82112",
        "name": "NEW HORIZONS MEDICAL PARTNERSHIP",
        "primary_role_id": "RO177",
        "role_ids": [
            "RO76",
            "RO177"
        ],
        "status": "Active",
        "post_code": "SO40 8WU",
        "uprn": "100062529099"
    },
    {
        "org_id": "J82115",
        "name": "ATHERLEY HOUSE SURGERY",
        "primary_role_id": "RO177",
        "role_ids": [
            "RO76",
            "RO177"
        ],
        "status": "Active",
        "post_code": "SO15 3FH",
        "uprn": "10001308607"
    },
    {
        "org_id": "J82116",
        "name": "TWYFORD SURGERY",
        "primary_role_id": "RO177",
        "role_ids": [
            "RO76",
            "RO177"
        ],
        "status": "Active",
        "post_code": "SO21 1QY",
        "uprn": "100062647465"
    },
    {
        "org_id": "J82119",
        "name": "DENMEAD HEALTH CENTRE",
        "primary_role_id": "RO177",
        "role_ids": [
            "RO76",
            "RO177"
        ],
        "status": "Active",
        "post_code": "PO7 6NR",
        "uprn": "100062454539"
    },
    {
        "org_id": "J82120",
        "name": "ALEXANDER HOUSE SURGERY",
        "primary_role_id": "RO177",
        "role_ids": [
            "RO76",
            "RO177"
        ],
        "status": "Active",
        "post_code": "GU14 7AW",
        "uprn": "100062326833"
    },
    {
        "org_id": "J82121",
        "name": "NORTH BADDESLEY SURGERY",
        "primary_role_id": "RO177",
        "role_ids": [
            "RO76",
            "RO177"
        ],
        "status": "Active",
        "post_code": "SO52 9EP",
        "uprn": "Unknown"
    },
    {
        "org_id": "J82122",
        "name": "ALMA ROAD SURGERY",
        "primary_role_id": "RO177",
        "role_ids": [
            "RO76",
            "RO177"
        ],
        "status": "Active",
        "post_code": "SO14 6UX",
        "uprn": "100062502671"
    },
    {
        "org_id": "J82124",
        "name": "ALRESFORD SURGERY",
        "primary_role_id": "RO177",
        "role_ids": [
            "RO76",
            "RO177"
        ],
        "status": "Active",
        "post_code": "SO24 9JL",
        "uprn": "200000172125"
    },
    {
        "org_id": "J82125",
        "name": "JENNER HOUSE SURGERY",
        "primary_role_id": "RO177",
        "role_ids": [
            "RO76",
            "RO177"
        ],
        "status": "Active",
        "post_code": "GU14 0HQ",
        "uprn": "100062325752"
    },
    {
        "org_id": "J82126",
        "name": "RAYMOND ROAD SURGERY",
        "primary_role_id": "RO177",
        "role_ids": [
            "RO76",
            "RO177"
        ],
        "status": "Active",
        "post_code": "SO15 5AL",
        "uprn": "100062506316"
    },
    {
        "org_id": "J82128",
        "name": "OLD FIRE STATION SURGERY",
        "primary_role_id": "RO177",
        "role_ids": [
            "RO76",
            "RO177"
        ],
        "status": "Active",
        "post_code": "SO19 9AN",
        "uprn": "100062517334"
    },
    {
        "org_id": "J82129",
        "name": "NEW FOREST MEDICAL GROUP",
        "primary_role_id": "RO177",
        "role_ids": [
            "RO76",
            "RO177"
        ],
        "status": "Active",
        "post_code": "SO42 7RY",
        "uprn": "100062532516"
    },
    {
        "org_id": "J82130",
        "name": "FRIARSGATE PRACTICE",
        "primary_role_id": "RO177",
        "role_ids": [
            "RO76",
            "RO177"
        ],
        "status": "Active",
        "post_code": "SO22 6EL",
        "uprn": "10034501056"
    },
    {
        "org_id": "J82131",
        "name": "FORDINGBRIDGE SURGERY",
        "primary_role_id": "RO177",
        "role_ids": [
            "RO76",
            "RO177"
        ],
        "status": "Active",
        "post_code": "SP6 1RS",
        "uprn": "100062540965"
    },
    {
        "org_id": "J82132",
        "name": "TESTVALE SURGERY",
        "primary_role_id": "RO177",
        "role_ids": [
            "RO76",
            "RO177"
        ],
        "status": "Active",
        "post_code": "SO40 3PY",
        "uprn": "100062528204"
    },
    {
        "org_id": "J82134",
        "name": "VINE MEDICAL GROUP",
        "primary_role_id": "RO177",
        "role_ids": [
            "RO76",
            "RO177"
        ],
        "status": "Active",
        "post_code": "PO7 7AH",
        "uprn": "Unknown"
    },
    {
        "org_id": "J82136",
        "name": "CHAWTON PARK SURGERY",
        "primary_role_id": "RO177",
        "role_ids": [
            "RO76",
            "RO177"
        ],
        "status": "Active",
        "post_code": "GU34 1RJ",
        "uprn": "10032899263"
    },
    {
        "org_id": "J82138",
        "name": "WHITEWATER HEALTH",
        "primary_role_id": "RO177",
        "role_ids": [
            "RO76",
            "RO177"
        ],
        "status": "Active",
        "post_code": "RG27 8QJ",
        "uprn": "100062464215"
    },
    {
        "org_id": "J82139",
        "name": "WISTARIA & MILFORD SURGERIES",
        "primary_role_id": "RO177",
        "role_ids": [
            "RO76",
            "RO177"
        ],
        "status": "Active",
        "post_code": "SO41 9GJ",
        "uprn": "10007464132"
    },
    {
        "org_id": "J82142",
        "name": "THE BORDER PRACTICE",
        "primary_role_id": "RO177",
        "role_ids": [
            "RO76",
            "RO177"
        ],
        "status": "Active",
        "post_code": "GU12 4DN",
        "uprn": "10008775254"
    },
    {
        "org_id": "J82143",
        "name": "PARK SURGERY",
        "primary_role_id": "RO177",
        "role_ids": [
            "RO76",
            "RO177"
        ],
        "status": "Active",
        "post_code": "SO53 2ZH",
        "uprn": "100062645044"
    },
    {
        "org_id": "J82144",
        "name": "CROWN HEIGHTS MEDICAL CENTRE",
        "primary_role_id": "RO177",
        "role_ids": [
            "RO76",
            "RO177"
        ],
        "status": "Active",
        "post_code": "RG21 7AN",
        "uprn": "10008489199"
    },
    {
        "org_id": "Y00048",
        "name": "INTERMEDIATE CARE",
        "primary_role_id": "RO177",
        "role_ids": [
            "RO72",
            "RO177",
            "RO247"
        ],
        "status": "Active",
        "post_code": "CW1 3AW",
        "uprn": "10014009731"
    },
    {
        "org_id": "Y00049",
        "name": "CORNWALL HEALTH FOR HOMELESS",
        "primary_role_id": "RO177",
        "role_ids": [
            "RO72",
            "RO177"
        ],
        "status": "Active",
        "post_code": "TR1 2JJ",
        "uprn": "100040041212"
    },
    {
        "org_id": "Y00050",
        "name": "LILFORD & PENNINGTON PARK SURGERY",
        "primary_role_id": "RO177",
        "role_ids": [
            "RO76",
            "RO177"
        ],
        "status": "Active",
        "post_code": "WN7 2PE",
        "uprn": "10014057625"
    },
    {
        "org_id": "Y00054",
        "name": "THE HOMELESS HEALTHCARE TEAM",
        "primary_role_id": "RO177",
        "role_ids": [
            "RO76",
            "RO177"
        ],
        "status": "Active",
        "post_code": "GL1 1LY",
        "uprn": "100121245228"
    },
    {
        "org_id": "Y00056",
        "name": "CAMBRIDGE ACCESS SURGERY",
        "primary_role_id": "RO177",
        "role_ids": [
            "RO76",
            "RO177"
        ],
        "status": "Active",
        "post_code": "CB5 8HB",
        "uprn": "200004177969"
    },
    {
        "org_id": "Y00057",
        "name": "ANGEL SURGERY",
        "primary_role_id": "RO177",
        "role_ids": [
            "RO76",
            "RO177"
        ],
        "status": "Active",
        "post_code": "N18 2FF",
        "uprn": "207018268"
    },
    {
        "org_id": "Y00060",
        "name": "THE ANCHOR CENTRE",
        "primary_role_id": "RO177",
        "role_ids": [
            "RO76",
            "RO177"
        ],
        "status": "Active",
        "post_code": "CV1 5FX",
        "uprn": "100071494250"
    },
    {
        "org_id": "Y00065",
        "name": "NEMS OOH",
        "primary_role_id": "RO177",
        "role_ids": [
            "RO80",
            "RO177"
        ],
        "status": "Active",
        "post_code": "NG2 3AJ",
        "uprn": "Unknown"
    },
    {
        "org_id": "Y00070",
        "name": "MAJOR INCIDENT",
        "primary_role_id": "RO177",
        "role_ids": [
            "RO72",
            "RO177",
            "RO259"
        ],
        "status": "Active",
        "post_code": "WN1 1NJ",
        "uprn": "10014066701"
    },
    {
        "org_id": "Y00071",
        "name": "DEVON DOCTORS LIMITED OOH",
        "primary_role_id": "RO177",
        "role_ids": [
            "RO80",
            "RO177"
        ],
        "status": "Active",
        "post_code": "EX2 8PF",
        "uprn": "100041133332"
    },
    {
        "org_id": "Y00073",
        "name": "ST ANN'S HOSPICE/PAL CARE",
        "primary_role_id": "RO177",
        "role_ids": [
            "RO72",
            "RO177",
            "RO249"
        ],
        "status": "Active",
        "post_code": "M28 0FE",
        "uprn": "100012693442"
    },
    {
        "org_id": "Y00074",
        "name": "MEADOWBROOK/LDP",
        "primary_role_id": "RO177",
        "role_ids": [
            "RO72",
            "RO177",
            "RO250"
        ],
        "status": "Active",
        "post_code": "M6 8HG",
        "uprn": "100012720093"
    },
    {
        "org_id": "Y00078",
        "name": "WINSHILL",
        "primary_role_id": "RO177",
        "role_ids": [
            "RO76",
            "RO177"
        ],
        "status": "Active",
        "post_code": "DE15 0EP",
        "uprn": "10008044465"
    },
    {
        "org_id": "Y00080",
        "name": "HARBOUR MEDICAL PRACTICE",
        "primary_role_id": "RO177",
        "role_ids": [
            "RO76",
            "RO177"
        ],
        "status": "Active",
        "post_code": "BN23 6DW",
        "uprn": "10024140655"
    },
    {
        "org_id": "Y00081",
        "name": "SAFE HAVEN UNIT - LCD",
        "primary_role_id": "RO177",
        "role_ids": [
            "RO76",
            "RO177"
        ],
        "status": "Active",
        "post_code": "HD1 9RX",
        "uprn": "Unknown"
    },
    {
        "org_id": "Y00082",
        "name": "(FRACTURE CLINIC) NORTH OOH",
        "primary_role_id": "RO177",
        "role_ids": [
            "RO80",
            "RO177"
        ],
        "status": "Active",
        "post_code": "NN1 5BD",
        "uprn": "Unknown"
    },
    {
        "org_id": "Y00084",
        "name": "MUSCULOSKELETAL SERVICE",
        "primary_role_id": "RO177",
        "role_ids": [
            "RO72",
            "RO177",
            "RO247"
        ],
        "status": "Active",
        "post_code": "WF10 5LT",
        "uprn": "Unknown"
    },
    {
        "org_id": "Y00090",
        "name": "THE DOCTORS HOUSE",
        "primary_role_id": "RO177",
        "role_ids": [
            "RO76",
            "RO177"
        ],
        "status": "Active",
        "post_code": "IG3 8LF",
        "uprn": "100023049507"
    },
    {
        "org_id": "Y00094",
        "name": "SMS COMMUNITY DERMATOLOGY CLINIC",
        "primary_role_id": "RO177",
        "role_ids": [
            "RO72",
            "RO177",
            "RO247"
        ],
        "status": "Active",
        "post_code": "SO14 0LX",
        "uprn": "100062651266"
    },
    {
        "org_id": "Y00100",
        "name": "BRADFORD DERMATOLOGY SERVICE",
        "primary_role_id": "RO177",
        "role_ids": [
            "RO72",
            "RO177",
            "RO250"
        ],
        "status": "Active",
        "post_code": "BD18 3EE",
        "uprn": "100051937453"
    },
    {
        "org_id": "Y00107",
        "name": "HORDEN RECOVERY CENTRE",
        "primary_role_id": "RO177",
        "role_ids": [
            "RO72",
            "RO177",
            "RO255"
        ],
        "status": "Active",
        "post_code": "SR8 4NL",
        "uprn": "Unknown"
    },
    {
        "org_id": "Y00108",
        "name": "NOTTINGHAM NHS URGENT CARE CENTRE",
        "primary_role_id": "RO177",
        "role_ids": [
            "RO72",
            "RO87",
            "RO177",
            "RO259"
        ],
        "status": "Active",
        "post_code": "NG2 4LA",
        "uprn": "200001412701"
    },
    {
        "org_id": "Y00111",
        "name": "MONET LODGE",
        "primary_role_id": "RO177",
        "role_ids": [
            "RO72",
            "RO177"
        ],
        "status": "Active",
        "post_code": "M20 1JG",
        "uprn": "10014177694"
    },
    {
        "org_id": "Y00124",
        "name": "ORTHOPAEDIC INTERFACE",
        "primary_role_id": "RO177",
        "role_ids": [
            "RO72",
            "RO177"
        ],
        "status": "Active",
        "post_code": "E11 4HX",
        "uprn": "200001421984"
    },
    {
        "org_id": "Y00126",
        "name": "SPECIALIST CHILDRENS SERVICE",
        "primary_role_id": "RO177",
        "role_ids": [
            "RO72",
            "RO177"
        ],
        "status": "Active",
        "post_code": "E17 3LA",
        "uprn": "10009143347"
    },
    {
        "org_id": "Y00131",
        "name": "ADULT SICKLE CELL",
        "primary_role_id": "RO177",
        "role_ids": [
            "RO72",
            "RO177"
        ],
        "status": "Active",
        "post_code": "E17 3LA",
        "uprn": "10009143347"
    },
    {
        "org_id": "Y00136",
        "name": "MINOR SURGERY & DERMATOLOGY UNIT",
        "primary_role_id": "RO177",
        "role_ids": [
            "RO72",
            "RO177",
            "RO247"
        ],
        "status": "Active",
        "post_code": "DL3 6JL",
        "uprn": "Unknown"
    },
    {
        "org_id": "Y00137",
        "name": "WILLOWS HEALTH",
        "primary_role_id": "RO177",
        "role_ids": [
            "RO76",
            "RO177"
        ],
        "status": "Active",
        "post_code": "LE5 4LJ",
        "uprn": "2465118975"
    },
    {
        "org_id": "Y00140",
        "name": "TORCROSS MEDICAL CENTRE",
        "primary_role_id": "RO177",
        "role_ids": [
            "RO76",
            "RO177"
        ],
        "status": "Active",
        "post_code": "CV2 3NF",
        "uprn": "100071367342"
    },
    {
        "org_id": "Y00142",
        "name": "DARLINGTON PALLIATIVE CARE",
        "primary_role_id": "RO177",
        "role_ids": [
            "RO72",
            "RO177",
            "RO249"
        ],
        "status": "Active",
        "post_code": "DL3 7UA",
        "uprn": "200002729060"
    },
    {
        "org_id": "M86622",
        "name": "GOVIND HEALTH CENTRE",
        "primary_role_id": "RO177",
        "role_ids": [
            "RO76",
            "RO177"
        ],
        "status": "Active",
        "post_code": "CV5 6EU",
        "uprn": "100071366656"
    },
    {
        "org_id": "M86624",
        "name": "COVENTRY GP GROUP OF PRACTICES",
        "primary_role_id": "RO177",
        "role_ids": [
            "RO76",
            "RO177"
        ],
        "status": "Active",
        "post_code": "CV6 3FA",
        "uprn": "10023035316"
    },
    {
        "org_id": "M86627",
        "name": "STOKE ALDERMOOR MED CTRE",
        "primary_role_id": "RO177",
        "role_ids": [
            "RO76",
            "RO177"
        ],
        "status": "Active",
        "post_code": "CV3 1EG",
        "uprn": "100071503974"
    },
    {
        "org_id": "M86633",
        "name": "EDGWICK MEDICAL CENTRE",
        "primary_role_id": "RO177",
        "role_ids": [
            "RO76",
            "RO177"
        ],
        "status": "Active",
        "post_code": "CV6 5LL",
        "uprn": "100071366819"
    },
    {
        "org_id": "M86638",
        "name": "WOODWAY MEDICAL CENTRE",
        "primary_role_id": "RO177",
        "role_ids": [
            "RO76",
            "RO177"
        ],
        "status": "Active",
        "post_code": "CV2 2RH",
        "uprn": "100071367627"
    },
    {
        "org_id": "M86639",
        "name": "C&WPT OOH SERVICE",
        "primary_role_id": "RO177",
        "role_ids": [
            "RO80",
            "RO177"
        ],
        "status": "Active",
        "post_code": "CV1 4FS",
        "uprn": "10024030804"
    },
    {
        "org_id": "M87001",
        "name": "MEADOWBROOK SURGERY",
        "primary_role_id": "RO177",
        "role_ids": [
            "RO76",
            "RO177"
        ],
        "status": "Active",
        "post_code": "B63 1AB",
        "uprn": "90130096"
    },
    {
        "org_id": "M87003",
        "name": "MOSS GROVE SURGERY",
        "primary_role_id": "RO177",
        "role_ids": [
            "RO76",
            "RO177"
        ],
        "status": "Active",
        "post_code": "DY6 9HS",
        "uprn": "90125863"
    },
    {
        "org_id": "M87005",
        "name": "THREE VILLAGES MEDICAL PRACTICE",
        "primary_role_id": "RO177",
        "role_ids": [
            "RO76",
            "RO177"
        ],
        "status": "Active",
        "post_code": "DY8 4HZ",
        "uprn": "90200470"
    },
    {
        "org_id": "M87006",
        "name": "EVE HILL MEDICAL PRACTICE",
        "primary_role_id": "RO177",
        "role_ids": [
            "RO76",
            "RO177"
        ],
        "status": "Active",
        "post_code": "DY1 2QD",
        "uprn": "90124024"
    },
    {
        "org_id": "M87007",
        "name": "THE RIDGEWAY SURGERY",
        "primary_role_id": "RO177",
        "role_ids": [
            "RO76",
            "RO177"
        ],
        "status": "Active",
        "post_code": "DY3 3UH",
        "uprn": "90115373"
    },
    {
        "org_id": "M87008",
        "name": "KINGSWINFORD MEDICAL PRACTICE",
        "primary_role_id": "RO177",
        "role_ids": [
            "RO76",
            "RO177"
        ],
        "status": "Active",
        "post_code": "DY6 8DN",
        "uprn": "90148712"
    },
    {
        "org_id": "M87009",
        "name": "AW SURGERIES",
        "primary_role_id": "RO177",
        "role_ids": [
            "RO76",
            "RO177"
        ],
        "status": "Active",
        "post_code": "DY5 3EE",
        "uprn": "90153562"
    },
    {
        "org_id": "M87010",
        "name": "THE WATERFRONT SURGERY",
        "primary_role_id": "RO177",
        "role_ids": [
            "RO76",
            "RO177"
        ],
        "status": "Active",
        "post_code": "DY5 1RU",
        "uprn": "90213540"
    },
    {
        "org_id": "M87011",
        "name": "LION HEALTH",
        "primary_role_id": "RO177",
        "role_ids": [
            "RO76",
            "RO177"
        ],
        "status": "Active",
        "post_code": "DY8 3SS",
        "uprn": "90212598"
    },
    {
        "org_id": "M87012",
        "name": "THE GREENS HEALTH CENTRE",
        "primary_role_id": "RO177",
        "role_ids": [
            "RO76",
            "RO177"
        ],
        "status": "Active",
        "post_code": "DY1 3QZ",
        "uprn": "90125390"
    },
    {
        "org_id": "M87013",
        "name": "TANDON MEDICAL CENTRE (ORAM & PARTNERS)",
        "primary_role_id": "RO177",
        "role_ids": [
            "RO76",
            "RO177"
        ],
        "status": "Active",
        "post_code": "DY3 1UX",
        "uprn": "90124538"
    },
    {
        "org_id": "M87014",
        "name": "LAPAL MEDICAL PRACTICE",
        "primary_role_id": "RO177",
        "role_ids": [
            "RO76",
            "RO177"
        ],
        "status": "Active",
        "post_code": "B62 0HP",
        "uprn": "90155605"
    },
    {
        "org_id": "M87015",
        "name": "LOWER GORNAL MEDICAL PRACTICE",
        "primary_role_id": "RO177",
        "role_ids": [
            "RO76",
            "RO177"
        ],
        "status": "Active",
        "post_code": "DY3 2NQ",
        "uprn": "90144341"
    },
    {
        "org_id": "M87016",
        "name": "WOODSETTON MEDICAL CENTRE",
        "primary_role_id": "RO177",
        "role_ids": [
            "RO76",
            "RO177"
        ],
        "status": "Active",
        "post_code": "DY3 1AF",
        "uprn": "90153300"
    },
    {
        "org_id": "M87017",
        "name": "STEPPINGSTONES MEDICAL PRACTICE",
        "primary_role_id": "RO177",
        "role_ids": [
            "RO76",
            "RO177"
        ],
        "status": "Active",
        "post_code": "DY1 1RT",
        "uprn": "90142740"
    },
    {
        "org_id": "M87018",
        "name": "THE SUMMERHILL SURGERY",
        "primary_role_id": "RO177",
        "role_ids": [
            "RO76",
            "RO177"
        ],
        "status": "Active",
        "post_code": "DY6 9JG",
        "uprn": "90148380"
    },
    {
        "org_id": "M87019",
        "name": "THE LIMES SURGERY MEDICAL CENTRE",
        "primary_role_id": "RO177",
        "role_ids": [
            "RO76",
            "RO177"
        ],
        "status": "Active",
        "post_code": "DY9 8LL",
        "uprn": "90123149"
    },
    {
        "org_id": "M87020",
        "name": "FELDON LANE PRACTICE",
        "primary_role_id": "RO177",
        "role_ids": [
            "RO76",
            "RO177"
        ],
        "status": "Active",
        "post_code": "B62 9DR",
        "uprn": "90145182"
    },
    {
        "org_id": "M87021",
        "name": "COSELEY MEDICAL CENTRE",
        "primary_role_id": "RO177",
        "role_ids": [
            "RO76",
            "RO177"
        ],
        "status": "Active",
        "post_code": "WV14 9DJ",
        "uprn": "90143746"
    },
    {
        "org_id": "M87023",
        "name": "WORDSLEY GREEN HEALTH CENTRE",
        "primary_role_id": "RO177",
        "role_ids": [
            "RO76",
            "RO177"
        ],
        "status": "Active",
        "post_code": "DY8 5PD",
        "uprn": "90141229"
    },
    {
        "org_id": "M87024",
        "name": "WYCHBURY MEDICAL GROUP",
        "primary_role_id": "RO177",
        "role_ids": [
            "RO76",
            "RO177"
        ],
        "status": "Active",
        "post_code": "DY9 9DS",
        "uprn": "90126180"
    },
    {
        "org_id": "M87025",
        "name": "LIMESTONE SURGERY",
        "primary_role_id": "RO177",
        "role_ids": [
            "RO76",
            "RO177"
        ],
        "status": "Active",
        "post_code": "DY1 1RN",
        "uprn": "90149907"
    },
    {
        "org_id": "M87026",
        "name": "ST JAMES MEDICAL PRACTICE2",
        "primary_role_id": "RO177",
        "role_ids": [
            "RO76",
            "RO177"
        ],
        "status": "Active",
        "post_code": "DY1 2BY",
        "uprn": "90203253"
    },
    {
        "org_id": "M87027",
        "name": "QUARRY BANK MEDICAL CENTRE",
        "primary_role_id": "RO177",
        "role_ids": [
            "RO76",
            "RO177"
        ],
        "status": "Active",
        "post_code": "DY5 2AE",
        "uprn": "90123439"
    },
    {
        "org_id": "M87028",
        "name": "ANCHOR MEDICAL PRACTICE",
        "primary_role_id": "RO177",
        "role_ids": [
            "RO76",
            "RO177"
        ],
        "status": "Active",
        "post_code": "DY2 9PU",
        "uprn": "90155729"
    },
    {
        "org_id": "M87030",
        "name": "PEDMORE MEDICAL PRACTICE",
        "primary_role_id": "RO177",
        "role_ids": [
            "RO76",
            "RO177"
        ],
        "status": "Active",
        "post_code": "DY9 8DJ",
        "uprn": "90117696"
    },
    {
        "org_id": "M87034",
        "name": "CLEMENT ROAD MEDICAL PRACTICE",
        "primary_role_id": "RO177",
        "role_ids": [
            "RO76",
            "RO177"
        ],
        "status": "Active",
        "post_code": "B62 9LR",
        "uprn": "90137939"
    },
    {
        "org_id": "C84664",
        "name": "WELBECK SURGERY",
        "primary_role_id": "RO177",
        "role_ids": [
            "RO76",
            "RO177"
        ],
        "status": "Active",
        "post_code": "NG5 2JJ",
        "uprn": "100032125046"
    },
    {
        "org_id": "C84667",
        "name": "GILTBROOK SURGERY",
        "primary_role_id": "RO177",
        "role_ids": [
            "RO76",
            "RO177"
        ],
        "status": "Active",
        "post_code": "NG16 2GE",
        "uprn": "100032101244"
    },
    {
        "org_id": "C84676",
        "name": "GREENFIELDS MEDICAL CENTRE (YVS RAO)",
        "primary_role_id": "RO177",
        "role_ids": [
            "RO76",
            "RO177"
        ],
        "status": "Active",
        "post_code": "NG7 6ER",
        "uprn": "200001394449"
    },
    {
        "org_id": "C84679",
        "name": "ACORN MEDICAL PRACTICE",
        "primary_role_id": "RO177",
        "role_ids": [
            "RO76",
            "RO177"
        ],
        "status": "Active",
        "post_code": "NG18 1QA",
        "uprn": "Unknown"
    },
    {
        "org_id": "C84682",
        "name": "SHERRINGTON PARK MEDICAL PRACTICE",
        "primary_role_id": "RO177",
        "role_ids": [
            "RO76",
            "RO177"
        ],
        "status": "Active",
        "post_code": "NG5 2EJ",
        "uprn": "100032124522"
    },
    {
        "org_id": "C84683",
        "name": "THE WINDMILL PRACTICE",
        "primary_role_id": "RO177",
        "role_ids": [
            "RO76",
            "RO177"
        ],
        "status": "Active",
        "post_code": "NG2 4PJ",
        "uprn": "100032109056"
    },
    {
        "org_id": "C84691",
        "name": "HIGHGREEN PRACTICE (KHAN)",
        "primary_role_id": "RO177",
        "role_ids": [
            "RO76",
            "RO177"
        ],
        "status": "Active",
        "post_code": "NG7 5HY",
        "uprn": "10090907102"
    },
    {
        "org_id": "C84692",
        "name": "NORTH LEVERTON SURGERY",
        "primary_role_id": "RO177",
        "role_ids": [
            "RO76",
            "RO177"
        ],
        "status": "Active",
        "post_code": "DN22 0AB",
        "uprn": "10090214401"
    },
    {
        "org_id": "C84693",
        "name": "BAKERSFIELD MEDICAL CENTRE",
        "primary_role_id": "RO177",
        "role_ids": [
            "RO76",
            "RO177"
        ],
        "status": "Active",
        "post_code": "NG3 7EJ",
        "uprn": "100032118371"
    },
    {
        "org_id": "C84694",
        "name": "LIME TREE SURGERY",
        "primary_role_id": "RO177",
        "role_ids": [
            "RO76",
            "RO177"
        ],
        "status": "Active",
        "post_code": "NG8 6AB",
        "uprn": "100032131754"
    },
    {
        "org_id": "C84695",
        "name": "THE ALICE MEDICAL CENTRE",
        "primary_role_id": "RO177",
        "role_ids": [
            "RO76",
            "RO177"
        ],
        "status": "Active",
        "post_code": "NG5 5HW",
        "uprn": "100032125343"
    },
    {
        "org_id": "C84696",
        "name": "WEST OAK SURGERY",
        "primary_role_id": "RO177",
        "role_ids": [
            "RO76",
            "RO177"
        ],
        "status": "Active",
        "post_code": "NG3 6EW",
        "uprn": "200001622079"
    },
    {
        "org_id": "C84703",
        "name": "THE GAMSTON MEDICAL CTR.",
        "primary_role_id": "RO177",
        "role_ids": [
            "RO76",
            "RO177"
        ],
        "status": "Active",
        "post_code": "NG2 6PS",
        "uprn": "3040062855"
    },
    {
        "org_id": "C84704",
        "name": "JRB HEALTHCARE BEECHDALE SURGERY",
        "primary_role_id": "RO177",
        "role_ids": [
            "RO76",
            "RO177"
        ],
        "status": "Active",
        "post_code": "NG8 3LF",
        "uprn": "100032131099"
    },
    {
        "org_id": "C84705",
        "name": "HICKINGS LANE MEDICAL CTR",
        "primary_role_id": "RO177",
        "role_ids": [
            "RO76",
            "RO177"
        ],
        "status": "Active",
        "post_code": "NG9 8PN",
        "uprn": "100032134111"
    },
    {
        "org_id": "Y00631",
        "name": "BINGLEY DERMATOLOGY CLINIC",
        "primary_role_id": "RO177",
        "role_ids": [
            "RO72",
            "RO177",
            "RO247"
        ],
        "status": "Active",
        "post_code": "BD16 4RP",
        "uprn": "10024070844"
    },
    {
        "org_id": "Y00635",
        "name": "SATELLITE DIABETIC CLINIC 2",
        "primary_role_id": "RO177",
        "role_ids": [
            "RO72",
            "RO177",
            "RO247"
        ],
        "status": "Active",
        "post_code": "BD5 7JR",
        "uprn": "100051951328"
    },
    {
        "org_id": "Y00640",
        "name": "WOKING HOSPICE",
        "primary_role_id": "RO177",
        "role_ids": [
            "RO72",
            "RO177",
            "RO249"
        ],
        "status": "Active",
        "post_code": "GU21 3LG",
        "uprn": "Unknown"
    },
    {
        "org_id": "Y00641",
        "name": "COMMUNITY PAEDIATRICIANS NW",
        "primary_role_id": "RO177",
        "role_ids": [
            "RO72",
            "RO177"
        ],
        "status": "Active",
        "post_code": "GU21 3LQ",
        "uprn": "200000221198"
    },
    {
        "org_id": "Y00643",
        "name": "RECOVERY CENTRE BISHOP AUCKLAND",
        "primary_role_id": "RO177",
        "role_ids": [
            "RO72",
            "RO177",
            "RO255"
        ],
        "status": "Active",
        "post_code": "DL14 7PB",
        "uprn": "10014557221"
    },
    {
        "org_id": "Y00644",
        "name": "PRIMARY CARE ACCESS CENTRE",
        "primary_role_id": "RO177",
        "role_ids": [
            "RO72",
            "RO177",
            "RO250"
        ],
        "status": "Active",
        "post_code": "NE63 9JJ",
        "uprn": "100110768303"
    },
    {
        "org_id": "Y00646",
        "name": "LEASOWES ICC",
        "primary_role_id": "RO177",
        "role_ids": [
            "RO72",
            "RO177",
            "RO247"
        ],
        "status": "Active",
        "post_code": "B66 1HX",
        "uprn": "Unknown"
    },
    {
        "org_id": "Y00650",
        "name": "UNIV HOSP NORTH DURHAM OOH",
        "primary_role_id": "RO177",
        "role_ids": [
            "RO80",
            "RO177"
        ],
        "status": "Active",
        "post_code": "DH1 5TW",
        "uprn": "200003216669"
    },
    {
        "org_id": "Y00656",
        "name": "NDUC NEWCASTLE GATESHEAD OOH",
        "primary_role_id": "RO177",
        "role_ids": [
            "RO80",
            "RO177"
        ],
        "status": "Active",
        "post_code": "NE12 8EW",
        "uprn": "47009607"
    },
    {
        "org_id": "Y00658",
        "name": "FIRST CONTACT & PC PATH",
        "primary_role_id": "RO177",
        "role_ids": [
            "RO80",
            "RO177"
        ],
        "status": "Active",
        "post_code": "OX14 1AG",
        "uprn": "100121312058"
    },
    {
        "org_id": "Y00661",
        "name": "NDUC NORTHUMBERLAND OOH",
        "primary_role_id": "RO177",
        "role_ids": [
            "RO80",
            "RO177"
        ],
        "status": "Active",
        "post_code": "NE12 8EW",
        "uprn": "47009607"
    },
    {
        "org_id": "Y00670",
        "name": "GPSI CARDIOLOGY - WESTCLIFFE",
        "primary_role_id": "RO177",
        "role_ids": [
            "RO72",
            "RO177",
            "RO250"
        ],
        "status": "Active",
        "post_code": "BD18 3EE",
        "uprn": "100051937453"
    },
    {
        "org_id": "Y00672",
        "name": "SELDOC HEALTHCARE",
        "primary_role_id": "RO177",
        "role_ids": [
            "RO80",
            "RO177"
        ],
        "status": "Active",
        "post_code": "KT2 7AZ",
        "uprn": "100023059200"
    },
    {
        "org_id": "Y00673",
        "name": "GPSI DERMATOLOGY SERVICE BUCKDEN HUNTS",
        "primary_role_id": "RO177",
        "role_ids": [
            "RO72",
            "RO177"
        ],
        "status": "Active",
        "post_code": "PE19 5SZ",
        "uprn": "100091522466"
    },
    {
        "org_id": "Y00674",
        "name": "GPSI ENT SERVICE ROMAN GATE HUNTS",
        "primary_role_id": "RO177",
        "role_ids": [
            "RO72",
            "RO177"
        ],
        "status": "Active",
        "post_code": "PE29 2JH",
        "uprn": "100091521937"
    },
    {
        "org_id": "Y00675",
        "name": "LEIGH URGENT TREATMENT CENTRE",
        "primary_role_id": "RO177",
        "role_ids": [
            "RO87",
            "RO177",
            "RO250"
        ],
        "status": "Active",
        "post_code": "WN7 1HS",
        "uprn": "100012818953"
    },
    {
        "org_id": "Y01310",
        "name": "COMMUNITY SUBSTANCE MISUSE TEAM",
        "primary_role_id": "RO177",
        "role_ids": [
            "RO72",
            "RO177",
            "RO255"
        ],
        "status": "Active",
        "post_code": "NE24 2BA",
        "uprn": "100110763270"
    },
    {
        "org_id": "Y01311",
        "name": "IN-PATIENT UNIT",
        "primary_role_id": "RO177",
        "role_ids": [
            "RO72",
            "RO177",
            "RO247"
        ],
        "status": "Active",
        "post_code": "TW11 0JL",
        "uprn": "100023395708"
    },
    {
        "org_id": "Y01615",
        "name": "RHEUMATOLOGY CLINIC",
        "primary_role_id": "RO177",
        "role_ids": [
            "RO72",
            "RO177"
        ],
        "status": "Active",
        "post_code": "RG41 2RE",
        "uprn": "14067603"
    },
    {
        "org_id": "Y01616",
        "name": "LEEDS CIRCUMCISION SERVICE",
        "primary_role_id": "RO177",
        "role_ids": [
            "RO72",
            "RO177",
            "RO255"
        ],
        "status": "Active",
        "post_code": "LS8 5BS",
        "uprn": "72562101"
    },
    {
        "org_id": "Y01620",
        "name": "GPSI (SKIN)",
        "primary_role_id": "RO177",
        "role_ids": [
            "RO72",
            "RO177",
            "RO247"
        ],
        "status": "Active",
        "post_code": "PR2 8DW",
        "uprn": "10090425671"
    },
    {
        "org_id": "Y01636",
        "name": "WILLOWBURN HOSPICE",
        "primary_role_id": "RO177",
        "role_ids": [
            "RO72",
            "RO177",
            "RO249"
        ],
        "status": "Active",
        "post_code": "DH7 0QS",
        "uprn": "100110741384"
    },
    {
        "org_id": "Y01652",
        "name": "THE NEW SPRINGWELLS PRACTICE",
        "primary_role_id": "RO177",
        "role_ids": [
            "RO76",
            "RO177"
        ],
        "status": "Active",
        "post_code": "NG34 0QQ",
        "uprn": "10007255020"
    },
    {
        "org_id": "Y01655",
        "name": "THE VALE PRACTICE",
        "primary_role_id": "RO177",
        "role_ids": [
            "RO76",
            "RO177"
        ],
        "status": "Active",
        "post_code": "N8 8SU",
        "uprn": "10003973590"
    },
    {
        "org_id": "Y01658",
        "name": "SUBSTANCE MISUSE CLINIC",
        "primary_role_id": "RO177",
        "role_ids": [
            "RO72",
            "RO177",
            "RO255"
        ],
        "status": "Active",
        "post_code": "ST13 6JB",
        "uprn": "200001575514"
    },
    {
        "org_id": "Y00687",
        "name": "SUBSTANCE MISUSE SERVICE",
        "primary_role_id": "RO177",
        "role_ids": [
            "RO72",
            "RO177",
            "RO255"
        ],
        "status": "Active",
        "post_code": "BL9 0SW",
        "uprn": "100012563916"
    },
    {
        "org_id": "Y00688",
        "name": "URGENT CARE CENTRES PETERLEE AND SEAHAM",
        "primary_role_id": "RO177",
        "role_ids": [
            "RO80",
            "RO177",
            "RO259"
        ],
        "status": "Active",
        "post_code": "SR8 5UQ",
        "uprn": "100110711903"
    },
    {
        "org_id": "Y00693",
        "name": "COMMUNITY GYNAECOLOGY SERVICE",
        "primary_role_id": "RO177",
        "role_ids": [
            "RO72",
            "RO177",
            "RO247"
        ],
        "status": "Active",
        "post_code": "LS12 3HD",
        "uprn": "72685370"
    },
    {
        "org_id": "Y00694",
        "name": "BADGER OUT OF HOURS SERVICE",
        "primary_role_id": "RO177",
        "role_ids": [
            "RO80",
            "RO177"
        ],
        "status": "Active",
        "post_code": "B91 2JL",
        "uprn": "Unknown"
    },
    {
        "org_id": "Y00697",
        "name": "CHILD DEVELOPMENT CENTRE BURY",
        "primary_role_id": "RO177",
        "role_ids": [
            "RO72",
            "RO177",
            "RO247"
        ],
        "status": "Active",
        "post_code": "IP33 3ND",
        "uprn": "Unknown"
    },
    {
        "org_id": "Y00698",
        "name": "SATELLITE DIABETES SERVICE",
        "primary_role_id": "RO177",
        "role_ids": [
            "RO72",
            "RO177",
            "RO247"
        ],
        "status": "Active",
        "post_code": "BD5 7JR",
        "uprn": "100051951328"
    },
    {
        "org_id": "Y00701",
        "name": "NORTH LINCOLNSHIRE OOH",
        "primary_role_id": "RO177",
        "role_ids": [
            "RO80",
            "RO177"
        ],
        "status": "Active",
        "post_code": "DN16 2SZ",
        "uprn": "100051968162"
    },
    {
        "org_id": "Y00703",
        "name": "DERMATOLOGY SERVICE",
        "primary_role_id": "RO177",
        "role_ids": [
            "RO72",
            "RO177"
        ],
        "status": "Active",
        "post_code": "E9 7PX",
        "uprn": "Unknown"
    },
    {
        "org_id": "Y00704",
        "name": "SATELLITE DIABETES CLINIC",
        "primary_role_id": "RO177",
        "role_ids": [
            "RO72",
            "RO177",
            "RO247"
        ],
        "status": "Active",
        "post_code": "BD5 7JR",
        "uprn": "100051951328"
    },
    {
        "org_id": "Y00705",
        "name": "WARWICKSHIRE GP OOH",
        "primary_role_id": "RO177",
        "role_ids": [
            "RO80",
            "RO177"
        ],
        "status": "Active",
        "post_code": "CV11 6RU",
        "uprn": "10007772270"
    },
    {
        "org_id": "Y00707",
        "name": "PCEC",
        "primary_role_id": "RO177",
        "role_ids": [
            "RO72",
            "RO87",
            "RO177"
        ],
        "status": "Active",
        "post_code": "M13 9WL",
        "uprn": "77118466"
    },
    {
        "org_id": "Y00714",
        "name": "CUMBRIA HLTH ON CALL (S) OOH",
        "primary_role_id": "RO177",
        "role_ids": [
            "RO80",
            "RO177"
        ],
        "status": "Active",
        "post_code": "LA9 7RG",
        "uprn": "100110697481"
    },
    {
        "org_id": "Y00721",
        "name": "DERMATOLOGY PCT",
        "primary_role_id": "RO177",
        "role_ids": [
            "RO72",
            "RO177",
            "RO247"
        ],
        "status": "Active",
        "post_code": "TN3 8EX",
        "uprn": "10008664490"
    },
    {
        "org_id": "Y00726",
        "name": "THE HIVE HEALTH CENTRE",
        "primary_role_id": "RO177",
        "role_ids": [
            "RO76",
            "RO177"
        ],
        "status": "Active",
        "post_code": "M24 2YJ",
        "uprn": "10023361766"
    },
    {
        "org_id": "Y00729",
        "name": "SAFE TREATMENT SCHEME",
        "primary_role_id": "RO177",
        "role_ids": [
            "RO72",
            "RO177",
            "RO247"
        ],
        "status": "Active",
        "post_code": "LU1 1AR",
        "uprn": "200003275057"
    }
]