[
    {
        "org_id": "X1601",
        "name": "PERINATAL INSTITUTE HQ",
        "primary_role_id": "RO168",
        "role_ids": [
            "RO168"
        ],
        "status": "Active",
        "post_code": "B15 3BE",
        "uprn": "100071430592"
    },
    {
        "org_id": "X2407",
        "name": "DARLINGTON - THE OLD EXCHANGE",
        "primary_role_id": "RO168",
        "role_ids": [
            "RO168"
        ],
        "status": "Active",
        "post_code": "DL3 7DR",
        "uprn": "Unknown"
    },
    {
        "org_id": "X2408",
        "name": "YORK - APHA COURT",
        "primary_role_id": "RO168",
        "role_ids": [
            "RO168"
        ],
        "status": "Active",
        "post_code": "YO32 9WN",
        "uprn": "Unknown"
    },
    {
        "org_id": "X2409",
        "name": "HULL - HEALTH HOUSE",
        "primary_role_id": "RO168",
        "role_ids": [
            "RO168"
        ],
        "status": "Active",
        "post_code": "HU10 6DT",
        "uprn": "Unknown"
    },
    {
        "org_id": "X2411",
        "name": "ROTHERHAM - OAK HOUSE",
        "primary_role_id": "RO168",
        "role_ids": [
            "RO168"
        ],
        "status": "Active",
        "post_code": "S66 1YY",
        "uprn": "Unknown"
    },
    {
        "org_id": "X2413",
        "name": "CHESTER - 1829 BUILDING",
        "primary_role_id": "RO168",
        "role_ids": [
            "RO168"
        ],
        "status": "Active",
        "post_code": "CH2 1HJ",
        "uprn": "Unknown"
    },
    {
        "org_id": "X2414",
        "name": "MANCHESTER - PICCADILLY PLACE",
        "primary_role_id": "RO168",
        "role_ids": [
            "RO168"
        ],
        "status": "Active",
        "post_code": "M1 3BN",
        "uprn": "10090240669"
    },
    {
        "org_id": "X2415",
        "name": "PRESTON - PRESTON BUSINESS CENTER",
        "primary_role_id": "RO168",
        "role_ids": [
            "RO168"
        ],
        "status": "Active",
        "post_code": "PR2 8DY",
        "uprn": "100010577680"
    },
    {
        "org_id": "X2416",
        "name": "LIVERPOOL - REGATTA PLACE",
        "primary_role_id": "RO168",
        "role_ids": [
            "RO168"
        ],
        "status": "Active",
        "post_code": "L3 4BL",
        "uprn": "Unknown"
    },
    {
        "org_id": "X2417",
        "name": "CAMBRIDGE - VICTORIA HOUSE",
        "primary_role_id": "RO168",
        "role_ids": [
            "RO168"
        ],
        "status": "Active",
        "post_code": "CB21 5XB",
        "uprn": "Unknown"
    },
    {
        "org_id": "X2426",
        "name": "WELWYN GARDEN CITY - CHARTER HOUSE",
        "primary_role_id": "RO168",
        "role_ids": [
            "RO168"
        ],
        "status": "Active",
        "post_code": "AL8 6JL",
        "uprn": "100081157584"
    },
    {
        "org_id": "X2427",
        "name": "NORTHAMPTON - FRANCIS CRICK HOUSE",
        "primary_role_id": "RO168",
        "role_ids": [
            "RO168"
        ],
        "status": "Active",
        "post_code": "NN3 6BF",
        "uprn": "Unknown"
    },
    {
        "org_id": "X2429",
        "name": "READING - PREMIER HOUSE",
        "primary_role_id": "RO168",
        "role_ids": [
            "RO168"
        ],
        "status": "Active",
        "post_code": "RG1 7EB",
        "uprn": "310024603"
    },
    {
        "org_id": "X2432",
        "name": "BRISTOL - SOUTH PLAZA",
        "primary_role_id": "RO168",
        "role_ids": [
            "RO168"
        ],
        "status": "Active",
        "post_code": "BS1 3NX",
        "uprn": "300299"
    },
    {
        "org_id": "X2433",
        "name": "TAUNTON - SOUTH WEST HOUSE",
        "primary_role_id": "RO168",
        "role_ids": [
            "RO168"
        ],
        "status": "Active",
        "post_code": "TA1 2PX",
        "uprn": "10014264897"
    },
    {
        "org_id": "X2437",
        "name": "OXFORD - JUBILEE HOUSE",
        "primary_role_id": "RO168",
        "role_ids": [
            "RO168"
        ],
        "status": "Active",
        "post_code": "OX4 2LH",
        "uprn": "200004675793"
    },
    {
        "org_id": "X2438",
        "name": "HORLEY - YORK HOUSE",
        "primary_role_id": "RO168",
        "role_ids": [
            "RO168"
        ],
        "status": "Active",
        "post_code": "RH6 7DE",
        "uprn": "68159068"
    },
    {
        "org_id": "X2401",
        "name": "NHS ENGLAND (MAPLE STREET)",
        "primary_role_id": "RO168",
        "role_ids": [
            "RO168"
        ],
        "status": "Active",
        "post_code": "W1T 5HD",
        "uprn": "Unknown"
    },
    {
        "org_id": "X2402",
        "name": "LEEDS - QUARRY HOUSE",
        "primary_role_id": "RO168",
        "role_ids": [
            "RO168"
        ],
        "status": "Active",
        "post_code": "LS2 7UE",
        "uprn": "Unknown"
    },
    {
        "org_id": "X8001",
        "name": "NATIONAL INSTITUTE FOR HEALTH AND CARE EXCELLENCE (LONDON OFFICE)",
        "primary_role_id": "RO168",
        "role_ids": [
            "RO168"
        ],
        "status": "Active",
        "post_code": "E20 1JQ",
        "uprn": "Unknown"
    },
    {
        "org_id": "X8002",
        "name": "NATIONAL INSTITUTE FOR HEALTH AND CARE EXCELLENCE (MANCHESTER)",
        "primary_role_id": "RO168",
        "role_ids": [
            "RO168"
        ],
        "status": "Active",
        "post_code": "M1 3BN",
        "uprn": "Unknown"
    },
    {
        "org_id": "X8003",
        "name": "NATIONAL CLINICAL ASSESSMENT SERVICE",
        "primary_role_id": "RO168",
        "role_ids": [
            "RO168"
        ],
        "status": "Active",
        "post_code": "SE1 6LH",
        "uprn": "Unknown"
    },
    {
        "org_id": "X2458",
        "name": "NHS ENGLAND (LANCASHIRE AREA TEAM) - EAST LANCS CHILD HEALTH",
        "primary_role_id": "RO168",
        "role_ids": [
            "RO168"
        ],
        "status": "Active",
        "post_code": "BB1 2EE",
        "uprn": "Unknown"
    },
    {
        "org_id": "X2459",
        "name": "NHS ENGLAND (LANCASHIRE AREA TEAM) - CENTRAL LANCASHIRE CHILD HEALTH",
        "primary_role_id": "RO168",
        "role_ids": [
            "RO168"
        ],
        "status": "Active",
        "post_code": "L39 2JW",
        "uprn": "Unknown"
    },
    {
        "org_id": "X2460",
        "name": "NHS ENGLAND (LANCASHIRE AREA TEAM) - BLACKPOOL CHILD HEALTH",
        "primary_role_id": "RO168",
        "role_ids": [
            "RO168"
        ],
        "status": "Active",
        "post_code": "PR4 3AL",
        "uprn": "Unknown"
    },
    {
        "org_id": "X2461",
        "name": "NHS ENGLAND (LANCASHIRE AREA TEAM) - LANCASHIRE NORTH CHILD HEALTH",
        "primary_role_id": "RO168",
        "role_ids": [
            "RO168"
        ],
        "status": "Active",
        "post_code": "LA1 1QD",
        "uprn": "Unknown"
    },
    {
        "org_id": "X2463",
        "name": "REDDITCH - PROSPECT HOUSE",
        "primary_role_id": "RO168",
        "role_ids": [
            "RO168"
        ],
        "status": "Active",
        "post_code": "B97 6EW",
        "uprn": "10009653470"
    },
    {
        "org_id": "X2465",
        "name": "RUNCORN - RUTLAND HOUSE",
        "primary_role_id": "RO168",
        "role_ids": [
            "RO168"
        ],
        "status": "Active",
        "post_code": "WA7 2ES",
        "uprn": "Unknown"
    },
    {
        "org_id": "X2474",
        "name": "DERBY - CARDINAL SQUARE",
        "primary_role_id": "RO168",
        "role_ids": [
            "RO168"
        ],
        "status": "Active",
        "post_code": "DE1 3QT",
        "uprn": "Unknown"
    },
    {
        "org_id": "R1V2O",
        "name": "COVENTRY - CHEYLESMORE HOUSE",
        "primary_role_id": "RO168",
        "role_ids": [
            "RO168"
        ],
        "status": "Active",
        "post_code": "CV1 2WT",
        "uprn": "10091954712"
    },
    {
        "org_id": "X2471",
        "name": "CROWN HOSTING CODY PARK",
        "primary_role_id": "RO168",
        "role_ids": [
            "RO168"
        ],
        "status": "Active",
        "post_code": "GU14 0LH",
        "uprn": "10008961667"
    },
    {
        "org_id": "X2472",
        "name": "CROWN HOSTING CORSHAM",
        "primary_role_id": "RO168",
        "role_ids": [
            "RO168"
        ],
        "status": "Active",
        "post_code": "SN13 9GB",
        "uprn": "10014607929"
    },
    {
        "org_id": "X2473",
        "name": "LONDON - WELLINGTON HOUSE",
        "primary_role_id": "RO168",
        "role_ids": [
            "RO168"
        ],
        "status": "Active",
        "post_code": "SE1 8UG",
        "uprn": "100023226264"
    },
    {
        "org_id": "H2N8X",
        "name": "NOTTINGHAM - SEATON HOUSE",
        "primary_role_id": "RO168",
        "role_ids": [
            "RO168"
        ],
        "status": "Active",
        "post_code": "NG2 4LA",
        "uprn": "Unknown"
    },
    {
        "org_id": "N6H3J",
        "name": "PRESTON COUNTY HALL",
        "primary_role_id": "RO168",
        "role_ids": [
            "RO168"
        ],
        "status": "Active",
        "post_code": "PR1 8XB",
        "uprn": "Unknown"
    },
    {
        "org_id": "H2C8P",
        "name": "CUNARD BUILDING",
        "primary_role_id": "RO168",
        "role_ids": [
            "RO168"
        ],
        "status": "Active",
        "post_code": "L3 1DS",
        "uprn": "Unknown"
    },
    {
        "org_id": "X7A9F",
        "name": "BIRMINGHAM - STEPHENSON STREET",
        "primary_role_id": "RO168",
        "role_ids": [
            "RO168"
        ],
        "status": "Active",
        "post_code": "B2 4BH",
        "uprn": "Unknown"
    },
    {
        "org_id": "R1Y3B",
        "name": "DOVER ROAD",
        "primary_role_id": "RO168",
        "role_ids": [
            "RO168"
        ],
        "status": "Active",
        "post_code": "CT20 1JY",
        "uprn": "Unknown"
    },
    {
        "org_id": "F7Y7Q",
        "name": "MANCHESTER - BARLOW HOUSE",
        "primary_role_id": "RO168",
        "role_ids": [
            "RO168"
        ],
        "status": "Active",
        "post_code": "M1 3DZ",
        "uprn": "Unknown"
    },
    {
        "org_id": "D4I2Y",
        "name": "NEWCASTLE - HOLLAND DRIVE",
        "primary_role_id": "RO168",
        "role_ids": [
            "RO168"
        ],
        "status": "Active",
        "post_code": "NE2 4NQ",
        "uprn": "4510118139"
    },
    {
        "org_id": "N1F9L",
        "name": "LEICESTER COUNTY HALL",
        "primary_role_id": "RO168",
        "role_ids": [
            "RO168"
        ],
        "status": "Active",
        "post_code": "LE3 8RA",
        "uprn": "Unknown"
    },
    {
        "org_id": "U1O4A",
        "name": "WORCESTER COUNTY HALL",
        "primary_role_id": "RO168",
        "role_ids": [
            "RO168"
        ],
        "status": "Active",
        "post_code": "WR5 2NP",
        "uprn": "100121275521"
    },
    {
        "org_id": "D8I9O",
        "name": "EXPLORER HOUSE",
        "primary_role_id": "RO168",
        "role_ids": [
            "RO168"
        ],
        "status": "Active",
        "post_code": "SO16 0AS",
        "uprn": "Unknown"
    },
    {
        "org_id": "D8F2I",
        "name": "ROTHERHAM - RIVERSIDE HOUSE",
        "primary_role_id": "RO168",
        "role_ids": [
            "RO168"
        ],
        "status": "Active",
        "post_code": "S60 1QY",
        "uprn": "200000567335"
    },
    {
        "org_id": "B0I6R",
        "name": "BRISTOL - TEMPLE STREET",
        "primary_role_id": "RO168",
        "role_ids": [
            "RO168"
        ],
        "status": "Active",
        "post_code": "BS1 6AG",
        "uprn": "111206"
    },
    {
        "org_id": "Q3E7A",
        "name": "YORK - WEST OFFICES",
        "primary_role_id": "RO168",
        "role_ids": [
            "RO168"
        ],
        "status": "Active",
        "post_code": "YO1 6GA",
        "uprn": "200004775857"
    },
    {
        "org_id": "Y4L9J",
        "name": "NEWCASTLE - STELLA HOUSE",
        "primary_role_id": "RO168",
        "role_ids": [
            "RO168"
        ],
        "status": "Active",
        "post_code": "NE15 8NY",
        "uprn": "4510705776"
    }
]