[
    {
        "org_id": "YGM30",
        "name": "EDS HEALTHCARE",
        "primary_role_id": "RO92",
        "role_ids": [
            "RO92"
        ],
        "status": "Active",
        "post_code": "BS2 9AP",
        "uprn": "Unknown"
    },
    {
        "org_id": "YGM34",
        "name": "IUVO LIMITED",
        "primary_role_id": "RO92",
        "role_ids": [
            "RO92"
        ],
        "status": "Active",
        "post_code": "B97 4BT",
        "uprn": "Unknown"
    },
    {
        "org_id": "YGM08",
        "name": "HEALTHY SOFTWARE",
        "primary_role_id": "RO92",
        "role_ids": [
            "RO92"
        ],
        "status": "Active",
        "post_code": "DE21 6BF",
        "uprn": "Unknown"
    },
    {
        "org_id": "YGM14",
        "name": "MARACIS",
        "primary_role_id": "RO92",
        "role_ids": [
            "RO92"
        ],
        "status": "Active",
        "post_code": "BR3 3JN",
        "uprn": "100022894323"
    },
    {
        "org_id": "YGM44",
        "name": "PHARMASYS LTD",
        "primary_role_id": "RO92",
        "role_ids": [
            "RO92"
        ],
        "status": "Active",
        "post_code": "SW6 6AW",
        "uprn": "Unknown"
    },
    {
        "org_id": "YGM45",
        "name": "MISYS HEALTHCARE SYSTEMS INTERNATIONAL LTD",
        "primary_role_id": "RO92",
        "role_ids": [
            "RO92"
        ],
        "status": "Active",
        "post_code": "W2 6BL",
        "uprn": "Unknown"
    },
    {
        "org_id": "YGM52",
        "name": "PHARMACY 2 U LTD (APPLICATION PROVIDER)",
        "primary_role_id": "RO92",
        "role_ids": [
            "RO92"
        ],
        "status": "Active",
        "post_code": "LS14 1PQ",
        "uprn": "Unknown"
    },
    {
        "org_id": "YGM48",
        "name": "ALLIANCE MEDICAL (APPLICATION PROVIDER)",
        "primary_role_id": "RO92",
        "role_ids": [
            "RO92"
        ],
        "status": "Active",
        "post_code": "CV34 6DA",
        "uprn": "Unknown"
    },
    {
        "org_id": "YGM51",
        "name": "TESCO PLC (APPLICATION PROVIDER)",
        "primary_role_id": "RO92",
        "role_ids": [
            "RO92"
        ],
        "status": "Active",
        "post_code": "EN8 9SL",
        "uprn": "Unknown"
    },
    {
        "org_id": "YGM76",
        "name": "ASPEN HEALTHCARE LIMITED",
        "primary_role_id": "RO92",
        "role_ids": [
            "RO92"
        ],
        "status": "Active",
        "post_code": "EC3N 2ER",
        "uprn": "Unknown"
    },
    {
        "org_id": "YGM59",
        "name": "SHEFFIELD HEALTH AND SOCIAL CARE NHS FOUNDATION TRUST (APPLICATION PROVIDER)",
        "primary_role_id": "RO92",
        "role_ids": [
            "RO92"
        ],
        "status": "Active",
        "post_code": "S10 3TH",
        "uprn": "Unknown"
    },
    {
        "org_id": "YGM63",
        "name": "ESPRIT LIMITED",
        "primary_role_id": "RO92",
        "role_ids": [
            "RO92"
        ],
        "status": "Active",
        "post_code": "DE24 8GX",
        "uprn": "Unknown"
    },
    {
        "org_id": "YGM67",
        "name": "CIVICA UK LTD",
        "primary_role_id": "RO92",
        "role_ids": [
            "RO92"
        ],
        "status": "Active",
        "post_code": "WA14 1HB",
        "uprn": "100012797621"
    },
    {
        "org_id": "YGM70",
        "name": "OLM GROUP LTD",
        "primary_role_id": "RO92",
        "role_ids": [
            "RO92"
        ],
        "status": "Active",
        "post_code": "TW11 9AA",
        "uprn": "Unknown"
    },
    {
        "org_id": "YGM69",
        "name": "NORTHGATE INFORMATION SOLUTIONS",
        "primary_role_id": "RO92",
        "role_ids": [
            "RO92"
        ],
        "status": "Active",
        "post_code": "HP2 4NW",
        "uprn": "Unknown"
    },
    {
        "org_id": "YGM04",
        "name": "CEGEDIM RX LTD",
        "primary_role_id": "RO92",
        "role_ids": [
            "RO92"
        ],
        "status": "Active",
        "post_code": "PR7 7NR",
        "uprn": "10094692287"
    },
    {
        "org_id": "YGM60",
        "name": "ULTRAGENDA",
        "primary_role_id": "RO92",
        "role_ids": [
            "RO92"
        ],
        "status": "Active",
        "post_code": "M41 5SL",
        "uprn": "Unknown"
    },
    {
        "org_id": "YGM05",
        "name": "CERNER CORPORATION",
        "primary_role_id": "RO92",
        "role_ids": [
            "RO92"
        ],
        "status": "Active",
        "post_code": "W2 1AF",
        "uprn": "Unknown"
    },
    {
        "org_id": "YGM23",
        "name": "SYSTEM C HEALTHCARE PLC",
        "primary_role_id": "RO92",
        "role_ids": [
            "RO92"
        ],
        "status": "Active",
        "post_code": "CV37 6NT",
        "uprn": "200001488559"
    },
    {
        "org_id": "YGM91",
        "name": "ORION HEALTH LIMITED",
        "primary_role_id": "RO92",
        "role_ids": [
            "RO92"
        ],
        "status": "Active",
        "post_code": "EC3N 1LS",
        "uprn": "10091782158"
    },
    {
        "org_id": "YGM62",
        "name": "SEVEN OAKS DATA CENTRE",
        "primary_role_id": "RO92",
        "role_ids": [
            "RO92"
        ],
        "status": "Active",
        "post_code": "TN13 2TL",
        "uprn": "Unknown"
    },
    {
        "org_id": "YGM01",
        "name": "SUNQUEST INFORMATION SYSTEMS",
        "primary_role_id": "RO92",
        "role_ids": [
            "RO92"
        ],
        "status": "Active",
        "post_code": "NR13 5FH",
        "uprn": "Unknown"
    },
    {
        "org_id": "YGM17",
        "name": "POSITIVE SOLUTIONS LTD",
        "primary_role_id": "RO92",
        "role_ids": [
            "RO92"
        ],
        "status": "Active",
        "post_code": "PR7 6TE",
        "uprn": "Unknown"
    },
    {
        "org_id": "YGM19",
        "name": "RX SYSTEMS",
        "primary_role_id": "RO92",
        "role_ids": [
            "RO92"
        ],
        "status": "Active",
        "post_code": "WD24 4WH",
        "uprn": "Unknown"
    },
    {
        "org_id": "YGM35",
        "name": "CARE UK",
        "primary_role_id": "RO92",
        "role_ids": [
            "RO92"
        ],
        "status": "Active",
        "post_code": "CM2 6QZ",
        "uprn": "Unknown"
    },
    {
        "org_id": "YGM36",
        "name": "THE COMPUTER ROOM",
        "primary_role_id": "RO92",
        "role_ids": [
            "RO92"
        ],
        "status": "Active",
        "post_code": "NG16 4BS",
        "uprn": "Unknown"
    },
    {
        "org_id": "YGM71",
        "name": "CORELOGIC LIMITED",
        "primary_role_id": "RO92",
        "role_ids": [
            "RO92"
        ],
        "status": "Active",
        "post_code": "N1 8LN",
        "uprn": "Unknown"
    },
    {
        "org_id": "YGM68",
        "name": "QUICKSILVA LTD",
        "primary_role_id": "RO92",
        "role_ids": [
            "RO92"
        ],
        "status": "Active",
        "post_code": "SN15 1JW",
        "uprn": "Unknown"
    },
    {
        "org_id": "YGM64",
        "name": "BT GLOBAL SERVICES (ASP)",
        "primary_role_id": "RO92",
        "role_ids": [
            "RO92"
        ],
        "status": "Active",
        "post_code": "EC1A 7AJ",
        "uprn": "Unknown"
    },
    {
        "org_id": "YGM06",
        "name": "EGTON MEDICAL INFORMATION SYSTEMS LTD (FULFORD GRANGE)",
        "primary_role_id": "RO92",
        "role_ids": [
            "RO92"
        ],
        "status": "Active",
        "post_code": "LS19 6BA",
        "uprn": "Unknown"
    },
    {
        "org_id": "YGM02",
        "name": "ATOS ORIGIN",
        "primary_role_id": "RO92",
        "role_ids": [
            "RO92"
        ],
        "status": "Active",
        "post_code": "CB24 9ZR",
        "uprn": "Unknown"
    },
    {
        "org_id": "YGM09",
        "name": "IMS MAXIMS LTD",
        "primary_role_id": "RO92",
        "role_ids": [
            "RO92"
        ],
        "status": "Active",
        "post_code": "MK17 8RR",
        "uprn": "Unknown"
    },
    {
        "org_id": "YGM11",
        "name": "IN PRACTICE SYSTEMS LTD (INPS)",
        "primary_role_id": "RO92",
        "role_ids": [
            "RO92"
        ],
        "status": "Active",
        "post_code": "SW8 3HE",
        "uprn": "Unknown"
    },
    {
        "org_id": "YGM12",
        "name": "ISOFT LTD",
        "primary_role_id": "RO92",
        "role_ids": [
            "RO92"
        ],
        "status": "Active",
        "post_code": "OX16 3JT",
        "uprn": "Unknown"
    },
    {
        "org_id": "YGM13",
        "name": "LLOYDS PHARMACY",
        "primary_role_id": "RO92",
        "role_ids": [
            "RO92"
        ],
        "status": "Active",
        "post_code": "CV2 2TX",
        "uprn": "Unknown"
    },
    {
        "org_id": "YGM20",
        "name": "SEETEC GROUP",
        "primary_role_id": "RO92",
        "role_ids": [
            "RO92"
        ],
        "status": "Active",
        "post_code": "SS5 4RG",
        "uprn": "Unknown"
    },
    {
        "org_id": "YGM22",
        "name": "STREETS HEAVER COMPUTER SYSTEMS",
        "primary_role_id": "RO92",
        "role_ids": [
            "RO92"
        ],
        "status": "Active",
        "post_code": "LN6 3QN",
        "uprn": "10006531500"
    },
    {
        "org_id": "YGM24",
        "name": "THE PHOENIX PARTNERSHIP LTD",
        "primary_role_id": "RO92",
        "role_ids": [
            "RO92"
        ],
        "status": "Active",
        "post_code": "LS18 5PX",
        "uprn": "72307872"
    },
    {
        "org_id": "YGM72",
        "name": "AGILISYS LTD",
        "primary_role_id": "RO92",
        "role_ids": [
            "RO92"
        ],
        "status": "Active",
        "post_code": "W12 7RZ",
        "uprn": "Unknown"
    },
    {
        "org_id": "YGM87",
        "name": "VANGENT LTD",
        "primary_role_id": "RO92",
        "role_ids": [
            "RO92"
        ],
        "status": "Active",
        "post_code": "GU21 3BA",
        "uprn": "Unknown"
    },
    {
        "org_id": "YGM82",
        "name": "HELIX HEALTH",
        "primary_role_id": "RO92",
        "role_ids": [
            "RO92"
        ],
        "status": "Active",
        "post_code": "MK18 1RQ",
        "uprn": "Unknown"
    },
    {
        "org_id": "YGM75",
        "name": "INTERSYSTEMS",
        "primary_role_id": "RO92",
        "role_ids": [
            "RO92"
        ],
        "status": "Active",
        "post_code": "SL4 6BB",
        "uprn": "100081271585"
    },
    {
        "org_id": "YGM21",
        "name": "SILVERLINK SOFTWARE LTD",
        "primary_role_id": "RO92",
        "role_ids": [
            "RO92"
        ],
        "status": "Active",
        "post_code": "NE28 9NZ",
        "uprn": "Unknown"
    },
    {
        "org_id": "YGM29",
        "name": "CAMBIO LTD",
        "primary_role_id": "RO92",
        "role_ids": [
            "RO92"
        ],
        "status": "Active",
        "post_code": "CB23 8AR",
        "uprn": "Unknown"
    },
    {
        "org_id": "YGM31",
        "name": "HADLEY HEALTHCARE SOLUTIONS LTD",
        "primary_role_id": "RO92",
        "role_ids": [
            "RO92"
        ],
        "status": "Active",
        "post_code": "WR14 1NY",
        "uprn": "100121348803"
    },
    {
        "org_id": "YGM32",
        "name": "HEALTHCARE SOFTWARE SYSTEMS (HSS)",
        "primary_role_id": "RO92",
        "role_ids": [
            "RO92"
        ],
        "status": "Active",
        "post_code": "NG18 5FB",
        "uprn": "10012818999"
    },
    {
        "org_id": "YGM83",
        "name": "SECURICARE [MEDICAL] LTD",
        "primary_role_id": "RO92",
        "role_ids": [
            "RO92"
        ],
        "status": "Active",
        "post_code": "HP10 9QY",
        "uprn": "Unknown"
    },
    {
        "org_id": "YGM41",
        "name": "EMIS HEALTH SECONDARY CARE",
        "primary_role_id": "RO92",
        "role_ids": [
            "RO92"
        ],
        "status": "Active",
        "post_code": "BL6 6QQ",
        "uprn": "Unknown"
    },
    {
        "org_id": "YGM38",
        "name": "COLOPLAST LTD",
        "primary_role_id": "RO92",
        "role_ids": [
            "RO92"
        ],
        "status": "Active",
        "post_code": "PE2 6FX",
        "uprn": "Unknown"
    },
    {
        "org_id": "YGM43",
        "name": "SPHERE HEALTH",
        "primary_role_id": "RO92",
        "role_ids": [
            "RO92"
        ],
        "status": "Active",
        "post_code": "LS6 4BR",
        "uprn": "Unknown"
    },
    {
        "org_id": "YGM77",
        "name": "CAPITA ENTERPRISE SERVICES HEALTH",
        "primary_role_id": "RO92",
        "role_ids": [
            "RO92"
        ],
        "status": "Active",
        "post_code": "RG22 4BS",
        "uprn": "Unknown"
    },
    {
        "org_id": "YGM46",
        "name": "IQVIA TECHNOLOGY SERVICES LTD",
        "primary_role_id": "RO92",
        "role_ids": [
            "RO92"
        ],
        "status": "Active",
        "post_code": "RG1 3JH",
        "uprn": "310075816"
    },
    {
        "org_id": "YGM47",
        "name": "NETCARE HEALTHCARE UK (APPLICATION PROVIDER)",
        "primary_role_id": "RO92",
        "role_ids": [
            "RO92"
        ],
        "status": "Active",
        "post_code": "W1S 1TD",
        "uprn": "Unknown"
    },
    {
        "org_id": "YGM81",
        "name": "QUADRAMED",
        "primary_role_id": "RO92",
        "role_ids": [
            "RO92"
        ],
        "status": "Active",
        "post_code": "SO23 9EH",
        "uprn": "100062521521"
    },
    {
        "org_id": "YGM88",
        "name": "INTEGRATED CARE 24",
        "primary_role_id": "RO92",
        "role_ids": [
            "RO92"
        ],
        "status": "Active",
        "post_code": "TN24 0GP",
        "uprn": "Unknown"
    },
    {
        "org_id": "YGM84",
        "name": "CLINICAL SOLUTIONS INTERNATIONAL LTD",
        "primary_role_id": "RO92",
        "role_ids": [
            "RO92"
        ],
        "status": "Active",
        "post_code": "SL1 4NB",
        "uprn": "10002339565"
    },
    {
        "org_id": "YGM89",
        "name": "KONETIC",
        "primary_role_id": "RO92",
        "role_ids": [
            "RO92"
        ],
        "status": "Active",
        "post_code": "EC4Y 0HA",
        "uprn": "Unknown"
    },
    {
        "org_id": "YGM90",
        "name": "LIQUIDLOGIC LIMITED",
        "primary_role_id": "RO92",
        "role_ids": [
            "RO92"
        ],
        "status": "Active",
        "post_code": "LS25 1NB",
        "uprn": "Unknown"
    },
    {
        "org_id": "YGM85",
        "name": "CIVICA UK LTD (MANCHESTER)",
        "primary_role_id": "RO92",
        "role_ids": [
            "RO92"
        ],
        "status": "Active",
        "post_code": "M15 5RN",
        "uprn": "Unknown"
    },
    {
        "org_id": "YGM86",
        "name": "CIVICA UK LTD (DORKING)",
        "primary_role_id": "RO92",
        "role_ids": [
            "RO92"
        ],
        "status": "Active",
        "post_code": "RH4 1HJ",
        "uprn": "Unknown"
    },
    {
        "org_id": "YGM66",
        "name": "NHS WALES INFORMATICS SERVICE",
        "primary_role_id": "RO92",
        "role_ids": [
            "RO92"
        ],
        "status": "Active",
        "post_code": "CF24 0HA",
        "uprn": "Unknown"
    },
    {
        "org_id": "YGM03",
        "name": "OASIS MEDICAL SOLUTIONS",
        "primary_role_id": "RO92",
        "role_ids": [
            "RO92"
        ],
        "status": "Active",
        "post_code": "ST15 0LT",
        "uprn": "Unknown"
    },
    {
        "org_id": "YGM79",
        "name": "LUMEON LTD",
        "primary_role_id": "RO92",
        "role_ids": [
            "RO92"
        ],
        "status": "Active",
        "post_code": "SW11 8BZ",
        "uprn": "Unknown"
    },
    {
        "org_id": "YGM50",
        "name": "PHARMACY PLUS LTD (APPLICATION PROVIDER)",
        "primary_role_id": "RO92",
        "role_ids": [
            "RO92"
        ],
        "status": "Active",
        "post_code": "BS5 6NR",
        "uprn": "Unknown"
    },
    {
        "org_id": "YGM49",
        "name": "BOOTS GROUP PLC (APPLICATION PROVIDER)",
        "primary_role_id": "RO92",
        "role_ids": [
            "RO92"
        ],
        "status": "Active",
        "post_code": "NG90 1BS",
        "uprn": "Unknown"
    },
    {
        "org_id": "YGM53",
        "name": "THE ROYAL NATIONAL HOSPITAL FOR RHEUMATIC DISEASES NHS FOUNDATION TRUST (APPLICATION PROVIDER)",
        "primary_role_id": "RO92",
        "role_ids": [
            "RO92"
        ],
        "status": "Active",
        "post_code": "BA1 1RL",
        "uprn": "Unknown"
    },
    {
        "org_id": "YGM54",
        "name": "YORK HOSPITALS NHS TRUST (APPLICATION PROVIDER)",
        "primary_role_id": "RO92",
        "role_ids": [
            "RO92"
        ],
        "status": "Active",
        "post_code": "YO31 8HE",
        "uprn": "Unknown"
    },
    {
        "org_id": "YGM55",
        "name": "ROYAL DEVON & EXETER NHS FOUNDATION TRUST (APPLICATION PROVIDER)",
        "primary_role_id": "RO92",
        "role_ids": [
            "RO92"
        ],
        "status": "Active",
        "post_code": "EX2 5DW",
        "uprn": "Unknown"
    },
    {
        "org_id": "YGM56",
        "name": "NORFOLK AND NORWICH UNIVERSITY HOSPITAL NHS TRUST (APPLICATION PROVIDER)",
        "primary_role_id": "RO92",
        "role_ids": [
            "RO92"
        ],
        "status": "Active",
        "post_code": "NR4 7UY",
        "uprn": "Unknown"
    },
    {
        "org_id": "YGM57",
        "name": "THE ROYAL MARSDEN NHS FOUNDATION TRUST (APPLICATION PROVIDER)",
        "primary_role_id": "RO92",
        "role_ids": [
            "RO92"
        ],
        "status": "Active",
        "post_code": "SW3 6JJ",
        "uprn": "Unknown"
    },
    {
        "org_id": "YGM58",
        "name": "CALDERDALE AND HUDDERSFIELD NHS FOUNDATION TRUST (APPLICATION PROVIDER)",
        "primary_role_id": "RO92",
        "role_ids": [
            "RO92"
        ],
        "status": "Active",
        "post_code": "HD3 3EA",
        "uprn": "Unknown"
    },
    {
        "org_id": "YGM73",
        "name": "NEWCASTLE UPON TYNE HOSPITALS NHS FOUNDATION TRUST (ASP)",
        "primary_role_id": "RO92",
        "role_ids": [
            "RO92"
        ],
        "status": "Active",
        "post_code": "NE7 7DN",
        "uprn": "4510115978"
    },
    {
        "org_id": "YGM16",
        "name": "MICROTEST LTD",
        "primary_role_id": "RO92",
        "role_ids": [
            "RO92"
        ],
        "status": "Active",
        "post_code": "PL31 1EX",
        "uprn": "100041026401"
    },
    {
        "org_id": "YGM25",
        "name": "AAH PHARMACEUTICALS",
        "primary_role_id": "RO92",
        "role_ids": [
            "RO92"
        ],
        "status": "Active",
        "post_code": "CV2 2TX",
        "uprn": "Unknown"
    },
    {
        "org_id": "YGM26",
        "name": "NATIONAL PHARMACEUTICAL ASSOCIATION",
        "primary_role_id": "RO92",
        "role_ids": [
            "RO92"
        ],
        "status": "Active",
        "post_code": "SN15 5SE",
        "uprn": "Unknown"
    },
    {
        "org_id": "YGM27",
        "name": "TPP SYSTMONE DISASTER RECOVERY",
        "primary_role_id": "RO92",
        "role_ids": [
            "RO92"
        ],
        "status": "Active",
        "post_code": "DE21 7BX",
        "uprn": "Unknown"
    },
    {
        "org_id": "YGM28",
        "name": "IMS HEALTH LTD",
        "primary_role_id": "RO92",
        "role_ids": [
            "RO92"
        ],
        "status": "Active",
        "post_code": "NW1 6JB",
        "uprn": "100023072589"
    },
    {
        "org_id": "YGM15",
        "name": "MCKESSON LTD",
        "primary_role_id": "RO92",
        "role_ids": [
            "RO92"
        ],
        "status": "Active",
        "post_code": "CV34 6NZ",
        "uprn": "Unknown"
    },
    {
        "org_id": "YGM37",
        "name": "WELLSPECT HEALTHCARE",
        "primary_role_id": "RO92",
        "role_ids": [
            "RO92"
        ],
        "status": "Active",
        "post_code": "GL10 3SX",
        "uprn": "Unknown"
    },
    {
        "org_id": "YGM40",
        "name": "IQ SYSTEMS SERVICES LTD",
        "primary_role_id": "RO92",
        "role_ids": [
            "RO92"
        ],
        "status": "Active",
        "post_code": "BH21 7SH",
        "uprn": "Unknown"
    },
    {
        "org_id": "YGM42",
        "name": "MEDITECH UK LTD",
        "primary_role_id": "RO92",
        "role_ids": [
            "RO92"
        ],
        "status": "Active",
        "post_code": "WC2N 5BW",
        "uprn": "Unknown"
    },
    {
        "org_id": "YGM78",
        "name": "PERKIN ELMER LTD",
        "primary_role_id": "RO92",
        "role_ids": [
            "RO92"
        ],
        "status": "Active",
        "post_code": "HP9 2FX",
        "uprn": "100081188745"
    },
    {
        "org_id": "YGM74",
        "name": "HEALTH & SOCIAL CARE INFORMATION CENTRE",
        "primary_role_id": "RO92",
        "role_ids": [
            "RO92"
        ],
        "status": "Active",
        "post_code": "LS1 4AP",
        "uprn": "72766088"
    },
    {
        "org_id": "YGM80",
        "name": "X-LAB LTD",
        "primary_role_id": "RO92",
        "role_ids": [
            "RO92"
        ],
        "status": "Active",
        "post_code": "LS3 1AB",
        "uprn": "Unknown"
    },
    {
        "org_id": "YGM65",
        "name": "ADVANCED COMPUTER SOFTWARE GROUP PLC",
        "primary_role_id": "RO92",
        "role_ids": [
            "RO92"
        ],
        "status": "Active",
        "post_code": "TN25 4AZ",
        "uprn": "Unknown"
    },
    {
        "org_id": "YGM92",
        "name": "MAYDEN",
        "primary_role_id": "RO92",
        "role_ids": [
            "RO92"
        ],
        "status": "Active",
        "post_code": "BA2 3LR",
        "uprn": "10023113040"
    },
    {
        "org_id": "YGM93",
        "name": "ACCENDA LIMITED",
        "primary_role_id": "RO92",
        "role_ids": [
            "RO92"
        ],
        "status": "Active",
        "post_code": "SK5 7DL",
        "uprn": "Unknown"
    },
    {
        "org_id": "YGM94",
        "name": "ACUO TECHNOLOGIES",
        "primary_role_id": "RO92",
        "role_ids": [
            "RO92"
        ],
        "status": "Active",
        "post_code": "RG21 7PP",
        "uprn": "Unknown"
    },
    {
        "org_id": "YGM98",
        "name": "RUSHCLIFF LTD",
        "primary_role_id": "RO92",
        "role_ids": [
            "RO92"
        ],
        "status": "Active",
        "post_code": "DE14 1DU",
        "uprn": "Unknown"
    },
    {
        "org_id": "YGMAF",
        "name": "EPIC SYSTEMS CORPORATION",
        "primary_role_id": "RO92",
        "role_ids": [
            "RO92"
        ],
        "status": "Active",
        "post_code": "BS1 6AD",
        "uprn": "342996"
    },
    {
        "org_id": "YGMAK",
        "name": "INTERGRAPH (UK) LTD",
        "primary_role_id": "RO92",
        "role_ids": [
            "RO92"
        ],
        "status": "Active",
        "post_code": "SN5 7XP",
        "uprn": "Unknown"
    },
    {
        "org_id": "YGMAL",
        "name": "INNOVISE SOFTWARE LTD TA: TEAM SOFTWARE INC",
        "primary_role_id": "RO92",
        "role_ids": [
            "RO92"
        ],
        "status": "Active",
        "post_code": "DY5 1XL",
        "uprn": "Unknown"
    },
    {
        "org_id": "YGM99",
        "name": "CONCENTRA",
        "primary_role_id": "RO92",
        "role_ids": [
            "RO92"
        ],
        "status": "Active",
        "post_code": "SE1 9EQ",
        "uprn": "Unknown"
    },
    {
        "org_id": "YGMAA",
        "name": "ETHICAL TECHNOLOGY LIMITED",
        "primary_role_id": "RO92",
        "role_ids": [
            "RO92"
        ],
        "status": "Active",
        "post_code": "LE1 5JN",
        "uprn": "2465059990"
    },
    {
        "org_id": "YGMAC",
        "name": "CAREMOTIVE LIMITED",
        "primary_role_id": "RO92",
        "role_ids": [
            "RO92"
        ],
        "status": "Active",
        "post_code": "CB4 3DR",
        "uprn": "200004163146"
    },
    {
        "org_id": "YGMAD",
        "name": "FCO SERVICES",
        "primary_role_id": "RO92",
        "role_ids": [
            "RO92"
        ],
        "status": "Active",
        "post_code": "MK19 7BH",
        "uprn": "Unknown"
    },
    {
        "org_id": "YGM95",
        "name": "SAP UKI LTD",
        "primary_role_id": "RO92",
        "role_ids": [
            "RO92"
        ],
        "status": "Active",
        "post_code": "TW14 8HD",
        "uprn": "Unknown"
    },
    {
        "org_id": "YGM96",
        "name": "ELSEVIER LIMITED",
        "primary_role_id": "RO92",
        "role_ids": [
            "RO92"
        ],
        "status": "Active",
        "post_code": "EC2Y 5AS",
        "uprn": "100022934459"
    },
    {
        "org_id": "YGMAM",
        "name": "CAPITA BUSINESS SERVICES LTD",
        "primary_role_id": "RO92",
        "role_ids": [
            "RO92"
        ],
        "status": "Active",
        "post_code": "SN13 9GB",
        "uprn": "Unknown"
    },
    {
        "org_id": "YGMAN",
        "name": "CAPITA ARK FARNBOROUGH",
        "primary_role_id": "RO92",
        "role_ids": [
            "RO92"
        ],
        "status": "Active",
        "post_code": "GU14 0LL",
        "uprn": "Unknown"
    },
    {
        "org_id": "YGMAP",
        "name": "REDCENTRIC PLC (CENTRAL HOUSE)",
        "primary_role_id": "RO92",
        "role_ids": [
            "RO92"
        ],
        "status": "Active",
        "post_code": "HG3 1UG",
        "uprn": "Unknown"
    },
    {
        "org_id": "YGM97",
        "name": "CAREWORKS (UK) LIMITED",
        "primary_role_id": "RO92",
        "role_ids": [
            "RO92"
        ],
        "status": "Active",
        "post_code": "CV34 6LG",
        "uprn": "Unknown"
    },
    {
        "org_id": "YGMAG",
        "name": "SERVELEC HEALTHCARE",
        "primary_role_id": "RO92",
        "role_ids": [
            "RO92"
        ],
        "status": "Active",
        "post_code": "S2 5SY",
        "uprn": "100052218106"
    },
    {
        "org_id": "YGMAH",
        "name": "CLEVERMED LTD",
        "primary_role_id": "RO92",
        "role_ids": [
            "RO92"
        ],
        "status": "Active",
        "post_code": "CV37 6NT",
        "uprn": "Unknown"
    },
    {
        "org_id": "YGMAE",
        "name": "K2 MEDICAL SYSTEMS",
        "primary_role_id": "RO92",
        "role_ids": [
            "RO92"
        ],
        "status": "Active",
        "post_code": "PL6 5FL",
        "uprn": "Unknown"
    },
    {
        "org_id": "YGMAJ",
        "name": "EUROKING MATERNITY SOFTWARE SOLUTIONS",
        "primary_role_id": "RO92",
        "role_ids": [
            "RO92"
        ],
        "status": "Active",
        "post_code": "NG18 5FB",
        "uprn": "10012818999"
    },
    {
        "org_id": "YGMAQ",
        "name": "KESTROS LTD",
        "primary_role_id": "RO92",
        "role_ids": [
            "RO92"
        ],
        "status": "Active",
        "post_code": "KA1 5LA",
        "uprn": "Unknown"
    },
    {
        "org_id": "YGMAR",
        "name": "ALLSCRIPTS HEALTHCARE (IT) UK LTD",
        "primary_role_id": "RO92",
        "role_ids": [
            "RO92"
        ],
        "status": "Active",
        "post_code": "SW8 3HE",
        "uprn": "Unknown"
    },
    {
        "org_id": "YGMX7",
        "name": "AOOLA GLOBAL",
        "primary_role_id": "RO92",
        "role_ids": [
            "RO92"
        ],
        "status": "Active",
        "post_code": "EN5 2RL",
        "uprn": "200102111"
    },
    {
        "org_id": "YGMX5",
        "name": "DATAPHILES LTD",
        "primary_role_id": "RO92",
        "role_ids": [
            "RO92"
        ],
        "status": "Active",
        "post_code": "LS21 1BD",
        "uprn": "Unknown"
    },
    {
        "org_id": "YGMCA",
        "name": "SHEFFIELD TEACHING HOSPITALS NHS FOUNDATION TRUST ASP",
        "primary_role_id": "RO92",
        "role_ids": [
            "RO92"
        ],
        "status": "Active",
        "post_code": "S5 7AU",
        "uprn": "Unknown"
    },
    {
        "org_id": "YGMX8",
        "name": "NTT EUROPE LIMITED",
        "primary_role_id": "RO92",
        "role_ids": [
            "RO92"
        ],
        "status": "Active",
        "post_code": "SL1 4BG",
        "uprn": "10022917938"
    },
    {
        "org_id": "YGMX9",
        "name": "OFFICE FOR NATIONAL STATISTICS",
        "primary_role_id": "RO92",
        "role_ids": [
            "RO92"
        ],
        "status": "Active",
        "post_code": "PO15 5RR",
        "uprn": "10012133622"
    },
    {
        "org_id": "YGMDA",
        "name": "INHEALTHCARE LTD",
        "primary_role_id": "RO92",
        "role_ids": [
            "RO92"
        ],
        "status": "Active",
        "post_code": "HG1 2PW",
        "uprn": "10091798087"
    },
    {
        "org_id": "YGMDC",
        "name": "GLOBAL PACIFIC CORPORATION",
        "primary_role_id": "RO92",
        "role_ids": [
            "RO92"
        ],
        "status": "Active",
        "post_code": "TR4 8UN",
        "uprn": "Unknown"
    },
    {
        "org_id": "YGMDD",
        "name": "TAGRA MANAGEMENT SYSTEMS LTD",
        "primary_role_id": "RO92",
        "role_ids": [
            "RO92"
        ],
        "status": "Active",
        "post_code": "WA12 9UY",
        "uprn": "Unknown"
    },
    {
        "org_id": "YGMDE",
        "name": "SENTINEL PARTNERS LIMITED",
        "primary_role_id": "RO92",
        "role_ids": [
            "RO92"
        ],
        "status": "Active",
        "post_code": "SL9 8EL",
        "uprn": "Unknown"
    },
    {
        "org_id": "YGMDF",
        "name": "MEDCURA TECHNOLOGIES LIMITED",
        "primary_role_id": "RO92",
        "role_ids": [
            "RO92"
        ],
        "status": "Active",
        "post_code": "GU2 7YB",
        "uprn": "Unknown"
    },
    {
        "org_id": "YGMDG",
        "name": "SOUTH DEVON HEALTHCARE NHS FOUNDATION TRUST",
        "primary_role_id": "RO92",
        "role_ids": [
            "RO92"
        ],
        "status": "Active",
        "post_code": "TQ2 7AA",
        "uprn": "Unknown"
    },
    {
        "org_id": "YGMAX",
        "name": "CIVICA VANGUARD HOUSE",
        "primary_role_id": "RO92",
        "role_ids": [
            "RO92"
        ],
        "status": "Active",
        "post_code": "LS11 5DD",
        "uprn": "Unknown"
    },
    {
        "org_id": "YGMAY",
        "name": "REDCENTRIC PLC (WORTON DRIVE)",
        "primary_role_id": "RO92",
        "role_ids": [
            "RO92"
        ],
        "status": "Active",
        "post_code": "RG2 0TG",
        "uprn": "Unknown"
    },
    {
        "org_id": "YGMDH",
        "name": "INTELERAD UK LTD",
        "primary_role_id": "RO92",
        "role_ids": [
            "RO92"
        ],
        "status": "Active",
        "post_code": "M3 3EB",
        "uprn": "10091146310"
    },
    {
        "org_id": "YGMDJ",
        "name": "AIMEDIACOMMS LTD",
        "primary_role_id": "RO92",
        "role_ids": [
            "RO92"
        ],
        "status": "Active",
        "post_code": "EC1M 6EH",
        "uprn": "Unknown"
    },
    {
        "org_id": "YGMDK",
        "name": "SSENTIF LIMITED",
        "primary_role_id": "RO92",
        "role_ids": [
            "RO92"
        ],
        "status": "Active",
        "post_code": "LS17 6QE",
        "uprn": "Unknown"
    },
    {
        "org_id": "YGMDL",
        "name": "INNOV8 PARTNERSHIP LTD",
        "primary_role_id": "RO92",
        "role_ids": [
            "RO92"
        ],
        "status": "Active",
        "post_code": "NG21 0HJ",
        "uprn": "Unknown"
    },
    {
        "org_id": "YGMHD",
        "name": "EUROPEAN ELECTRONIQUE LIMITED",
        "primary_role_id": "RO92",
        "role_ids": [
            "RO92"
        ],
        "status": "Active",
        "post_code": "OX29 4TT",
        "uprn": "Unknown"
    },
    {
        "org_id": "YGMAT",
        "name": "INTECHNOLOGY PLC",
        "primary_role_id": "RO92",
        "role_ids": [
            "RO92"
        ],
        "status": "Active",
        "post_code": "HG3 1RY",
        "uprn": "Unknown"
    },
    {
        "org_id": "YGMAV",
        "name": "HD CLINICAL LTD",
        "primary_role_id": "RO92",
        "role_ids": [
            "RO92"
        ],
        "status": "Active",
        "post_code": "CM22 7WE",
        "uprn": "Unknown"
    },
    {
        "org_id": "YGMX6",
        "name": "REDWOOD TECHNOLOGIES GROUP",
        "primary_role_id": "RO92",
        "role_ids": [
            "RO92"
        ],
        "status": "Active",
        "post_code": "RG12 2UP",
        "uprn": "Unknown"
    },
    {
        "org_id": "YGMDP",
        "name": "INHEALTH GROUP LTD.",
        "primary_role_id": "RO92",
        "role_ids": [
            "RO92"
        ],
        "status": "Active",
        "post_code": "HP11 1JL",
        "uprn": "Unknown"
    },
    {
        "org_id": "YGMDQ",
        "name": "IPROOV LIMITED",
        "primary_role_id": "RO92",
        "role_ids": [
            "RO92"
        ],
        "status": "Active",
        "post_code": "WC1V 7HP",
        "uprn": "Unknown"
    },
    {
        "org_id": "YGMA8",
        "name": "HUMA THERAPEUTICS LIMITED",
        "primary_role_id": "RO92",
        "role_ids": [
            "RO92"
        ],
        "status": "Active",
        "post_code": "SW1P 4QP",
        "uprn": "Unknown"
    },
    {
        "org_id": "YGMXG",
        "name": "AMPLITUDE CLINICAL SERVICES LTD",
        "primary_role_id": "RO92",
        "role_ids": [
            "RO92"
        ],
        "status": "Active",
        "post_code": "WR9 8QT",
        "uprn": "Unknown"
    },
    {
        "org_id": "YGMCC",
        "name": "IBM UNITED KINGDOM LIMITED",
        "primary_role_id": "RO92",
        "role_ids": [
            "RO92"
        ],
        "status": "Active",
        "post_code": "CV34 5JL",
        "uprn": "Unknown"
    },
    {
        "org_id": "YGMDM",
        "name": "CONVERGENCE (GROUP NETWORKS) LIMITED",
        "primary_role_id": "RO92",
        "role_ids": [
            "RO92"
        ],
        "status": "Active",
        "post_code": "B90 4RZ",
        "uprn": "Unknown"
    },
    {
        "org_id": "YGMCD",
        "name": "247 TIME LIMITED",
        "primary_role_id": "RO92",
        "role_ids": [
            "RO92"
        ],
        "status": "Active",
        "post_code": "LE19 4SD",
        "uprn": "Unknown"
    },
    {
        "org_id": "YGMDN",
        "name": "EVERGREEN HEALTH SOLUTIONS LIMITED",
        "primary_role_id": "RO92",
        "role_ids": [
            "RO92"
        ],
        "status": "Active",
        "post_code": "M3 5NA",
        "uprn": "Unknown"
    },
    {
        "org_id": "YGMXL",
        "name": "ICAREHEALTH UK LTD",
        "primary_role_id": "RO92",
        "role_ids": [
            "RO92"
        ],
        "status": "Active",
        "post_code": "CB9 8DD",
        "uprn": "Unknown"
    },
    {
        "org_id": "YGMDR",
        "name": "SH24 C.I.C.",
        "primary_role_id": "RO92",
        "role_ids": [
            "RO92"
        ],
        "status": "Active",
        "post_code": "SE1 7JB",
        "uprn": "10092043432"
    },
    {
        "org_id": "YGMXK",
        "name": "KING'S COLLEGE HOSPITAL NHS FOUNDATION TRUST (APPLICATION PROVIDER)",
        "primary_role_id": "RO92",
        "role_ids": [
            "RO92"
        ],
        "status": "Active",
        "post_code": "SE5 9NY",
        "uprn": "Unknown"
    },
    {
        "org_id": "YGMFW",
        "name": "BLUETEQ LTD",
        "primary_role_id": "RO92",
        "role_ids": [
            "RO92"
        ],
        "status": "Active",
        "post_code": "PO9 1QN",
        "uprn": "10013683755"
    },
    {
        "org_id": "YGMXM",
        "name": "DIABETACARE LIMITED",
        "primary_role_id": "RO92",
        "role_ids": [
            "RO92"
        ],
        "status": "Active",
        "post_code": "HA1 3EX",
        "uprn": "Unknown"
    },
    {
        "org_id": "YGM6Y",
        "name": "DALES WEB DESIGN & MARKETING",
        "primary_role_id": "RO92",
        "role_ids": [
            "RO92"
        ],
        "status": "Active",
        "post_code": "HG3 5PG",
        "uprn": "Unknown"
    },
    {
        "org_id": "YGMR2",
        "name": "SOCIALDOM LTD",
        "primary_role_id": "RO92",
        "role_ids": [
            "RO92"
        ],
        "status": "Active",
        "post_code": "M14 7LQ",
        "uprn": "Unknown"
    },
    {
        "org_id": "YGMR4",
        "name": "HUMAN FACE LTD",
        "primary_role_id": "RO92",
        "role_ids": [
            "RO92"
        ],
        "status": "Active",
        "post_code": "B7 4BP",
        "uprn": "Unknown"
    },
    {
        "org_id": "YGMFP",
        "name": "MULTIMEDIA INTERNATIONAL SERVICES LIMITED",
        "primary_role_id": "RO92",
        "role_ids": [
            "RO92"
        ],
        "status": "Active",
        "post_code": "FY6 8JP",
        "uprn": "Unknown"
    },
    {
        "org_id": "YGMWM",
        "name": "4SECURE",
        "primary_role_id": "RO92",
        "role_ids": [
            "RO92"
        ],
        "status": "Active",
        "post_code": "NN3 6WL",
        "uprn": "Unknown"
    },
    {
        "org_id": "YGMF1",
        "name": "PSHEALTH",
        "primary_role_id": "RO92",
        "role_ids": [
            "RO92"
        ],
        "status": "Active",
        "post_code": "SE1 8RT",
        "uprn": "Unknown"
    },
    {
        "org_id": "YGMT7",
        "name": "HUMMINGBIRDS MEDICAL LIMITED",
        "primary_role_id": "RO92",
        "role_ids": [
            "RO92"
        ],
        "status": "Active",
        "post_code": "LS14 6FQ",
        "uprn": "Unknown"
    },
    {
        "org_id": "YGM6H",
        "name": "ARCUS GLOBAL LTD",
        "primary_role_id": "RO92",
        "role_ids": [
            "RO92"
        ],
        "status": "Active",
        "post_code": "CB4 2HY",
        "uprn": "Unknown"
    },
    {
        "org_id": "YGMRQ",
        "name": "ASKDOC",
        "primary_role_id": "RO92",
        "role_ids": [
            "RO92"
        ],
        "status": "Active",
        "post_code": "W1G 0PW",
        "uprn": "Unknown"
    },
    {
        "org_id": "YGM6Q",
        "name": "ADAM HTT LTD",
        "primary_role_id": "RO92",
        "role_ids": [
            "RO92"
        ],
        "status": "Active",
        "post_code": "MK9 1BP",
        "uprn": "10090358569"
    },
    {
        "org_id": "YGMY4",
        "name": "ACCESS UK LTD",
        "primary_role_id": "RO92",
        "role_ids": [
            "RO92"
        ],
        "status": "Active",
        "post_code": "CO7 6LZ",
        "uprn": "200002463606"
    },
    {
        "org_id": "YGMY7",
        "name": "AXSYS TECHNOLOGY LTD",
        "primary_role_id": "RO92",
        "role_ids": [
            "RO92"
        ],
        "status": "Active",
        "post_code": "HG3 1UG",
        "uprn": "Unknown"
    },
    {
        "org_id": "YGMY8",
        "name": "COORDINATE MY CARE",
        "primary_role_id": "RO92",
        "role_ids": [
            "RO92"
        ],
        "status": "Active",
        "post_code": "SE1 7TL",
        "uprn": "Unknown"
    },
    {
        "org_id": "YGMR1",
        "name": "CAPITA HEALTHCARE DECISIONS",
        "primary_role_id": "RO92",
        "role_ids": [
            "RO92"
        ],
        "status": "Active",
        "post_code": "EC2V 7NQ",
        "uprn": "10092023677"
    },
    {
        "org_id": "YGMY9",
        "name": "MY PERSONAL HEALTH RECORD EXPRESS LIMITED",
        "primary_role_id": "RO92",
        "role_ids": [
            "RO92"
        ],
        "status": "Active",
        "post_code": "WC2H 9JQ",
        "uprn": "Unknown"
    },
    {
        "org_id": "YGMCF",
        "name": "REFERO",
        "primary_role_id": "RO92",
        "role_ids": [
            "RO92"
        ],
        "status": "Active",
        "post_code": "GU15 3DP",
        "uprn": "Unknown"
    },
    {
        "org_id": "YGMCE",
        "name": "CEPHEID UK LTD",
        "primary_role_id": "RO92",
        "role_ids": [
            "RO92"
        ],
        "status": "Active",
        "post_code": "HP11 1JU",
        "uprn": "Unknown"
    },
    {
        "org_id": "YGMY5",
        "name": "Q-NOMY UK LIMITED",
        "primary_role_id": "RO92",
        "role_ids": [
            "RO92"
        ],
        "status": "Active",
        "post_code": "GU21 6LE",
        "uprn": "Unknown"
    },
    {
        "org_id": "YGMY6",
        "name": "DIMEC",
        "primary_role_id": "RO92",
        "role_ids": [
            "RO92"
        ],
        "status": "Active",
        "post_code": "M60 0AG",
        "uprn": "Unknown"
    },
    {
        "org_id": "YGMC3",
        "name": "VIVUM HEALTH LTD",
        "primary_role_id": "RO92",
        "role_ids": [
            "RO92"
        ],
        "status": "Active",
        "post_code": "WC2B 4BG",
        "uprn": "100023430329"
    },
    {
        "org_id": "YGMRE",
        "name": "PATIENT.WEBCAM",
        "primary_role_id": "RO92",
        "role_ids": [
            "RO92"
        ],
        "status": "Active",
        "post_code": "BN11 1XT",
        "uprn": "Unknown"
    },
    {
        "org_id": "YGMXN",
        "name": "BEHOLD.AI TECHNOLOGIES LIMITED",
        "primary_role_id": "RO92",
        "role_ids": [
            "RO92"
        ],
        "status": "Active",
        "post_code": "TN39 5ES",
        "uprn": "Unknown"
    },
    {
        "org_id": "YGMCG",
        "name": "QARDIO EUROPE LIMITED",
        "primary_role_id": "RO92",
        "role_ids": [
            "RO92"
        ],
        "status": "Active",
        "post_code": "EC4R 2SU",
        "uprn": "Unknown"
    },
    {
        "org_id": "YGM6A",
        "name": "FENDIX",
        "primary_role_id": "RO92",
        "role_ids": [
            "RO92"
        ],
        "status": "Active",
        "post_code": "BN1 9SB",
        "uprn": "Unknown"
    },
    {
        "org_id": "YGM6C",
        "name": "INTEROPERABILITY HEALTH (UK) LIMITED",
        "primary_role_id": "RO92",
        "role_ids": [
            "RO92"
        ],
        "status": "Active",
        "post_code": "BS1 2NT",
        "uprn": "Unknown"
    },
    {
        "org_id": "YGMY1",
        "name": "ABICA LIMITED",
        "primary_role_id": "RO92",
        "role_ids": [
            "RO92"
        ],
        "status": "Active",
        "post_code": "M15 5RN",
        "uprn": "Unknown"
    },
    {
        "org_id": "YGMYA",
        "name": "ELU.AI",
        "primary_role_id": "RO92",
        "role_ids": [
            "RO92"
        ],
        "status": "Active",
        "post_code": "N7 8BW",
        "uprn": "10023223558"
    },
    {
        "org_id": "YGMYC",
        "name": "ELISIAN LIMITED",
        "primary_role_id": "RO92",
        "role_ids": [
            "RO92"
        ],
        "status": "Active",
        "post_code": "NE27 0QJ",
        "uprn": "47236724"
    },
    {
        "org_id": "YGMYD",
        "name": "ACTIPATH",
        "primary_role_id": "RO92",
        "role_ids": [
            "RO92"
        ],
        "status": "Active",
        "post_code": "BH14 9BY",
        "uprn": "100041093074"
    },
    {
        "org_id": "YGMYE",
        "name": "NTTDATA UK LTD",
        "primary_role_id": "RO92",
        "role_ids": [
            "RO92"
        ],
        "status": "Active",
        "post_code": "EC3V 3DG",
        "uprn": "Unknown"
    },
    {
        "org_id": "YGMYF",
        "name": "X-TENTION LIMITED",
        "primary_role_id": "RO92",
        "role_ids": [
            "RO92"
        ],
        "status": "Active",
        "post_code": "ME14 5DA",
        "uprn": "Unknown"
    },
    {
        "org_id": "YGMYH",
        "name": "MEDICALDIRECTOR LIMITED",
        "primary_role_id": "RO92",
        "role_ids": [
            "RO92"
        ],
        "status": "Active",
        "post_code": "SE1 0TA",
        "uprn": "10013527933"
    },
    {
        "org_id": "YGMYG",
        "name": "MEDECON HEALTHCARE UK LIMITED",
        "primary_role_id": "RO92",
        "role_ids": [
            "RO92"
        ],
        "status": "Active",
        "post_code": "HP13 6PW",
        "uprn": "100080550540"
    },
    {
        "org_id": "YGMYJ",
        "name": "CELO",
        "primary_role_id": "RO92",
        "role_ids": [
            "RO92"
        ],
        "status": "Active",
        "post_code": "SW1W 0AU",
        "uprn": "Unknown"
    },
    {
        "org_id": "YGMYK",
        "name": "MINDLIFE",
        "primary_role_id": "RO92",
        "role_ids": [
            "RO92"
        ],
        "status": "Active",
        "post_code": "NW11 0SA",
        "uprn": "200096974"
    },
    {
        "org_id": "YGMM3",
        "name": "STADN LIMITED (TALK TO A DOCTOR)",
        "primary_role_id": "RO92",
        "role_ids": [
            "RO92"
        ],
        "status": "Active",
        "post_code": "HA5 5PW",
        "uprn": "100023037239"
    },
    {
        "org_id": "YGMMC",
        "name": "EGTON MEDICAL INFORMATION SYSTEMS LIMITED (STAFFORD HOUSE)",
        "primary_role_id": "RO92",
        "role_ids": [
            "RO92"
        ],
        "status": "Active",
        "post_code": "LS10 1BG",
        "uprn": "Unknown"
    },
    {
        "org_id": "YGMYP",
        "name": "FUTR AI LIMITED",
        "primary_role_id": "RO92",
        "role_ids": [
            "RO92"
        ],
        "status": "Active",
        "post_code": "SW1A 2HU",
        "uprn": "Unknown"
    },
    {
        "org_id": "YGMYL",
        "name": "PIPE & PIPER LTD",
        "primary_role_id": "RO92",
        "role_ids": [
            "RO92"
        ],
        "status": "Active",
        "post_code": "S7 1LE",
        "uprn": "Unknown"
    },
    {
        "org_id": "YGMYM",
        "name": "CLIENTSHIP UK",
        "primary_role_id": "RO92",
        "role_ids": [
            "RO92"
        ],
        "status": "Active",
        "post_code": "CM23 2ND",
        "uprn": "Unknown"
    },
    {
        "org_id": "YGMYN",
        "name": "MEDINTU LIMITED",
        "primary_role_id": "RO92",
        "role_ids": [
            "RO92"
        ],
        "status": "Active",
        "post_code": "SR5 2TP",
        "uprn": "Unknown"
    },
    {
        "org_id": "YGMYV",
        "name": "METHODS ANALYTICS LIMITED",
        "primary_role_id": "RO92",
        "role_ids": [
            "RO92"
        ],
        "status": "Active",
        "post_code": "EC1N 8TS",
        "uprn": "Unknown"
    },
    {
        "org_id": "YGMYQ",
        "name": "PATIENT PASS",
        "primary_role_id": "RO92",
        "role_ids": [
            "RO92"
        ],
        "status": "Active",
        "post_code": "M50 2AB",
        "uprn": "Unknown"
    },
    {
        "org_id": "YGMYT",
        "name": "WEBDEB LIMITED",
        "primary_role_id": "RO92",
        "role_ids": [
            "RO92"
        ],
        "status": "Active",
        "post_code": "IG11 8RR",
        "uprn": "100105549"
    },
    {
        "org_id": "YGMQJ",
        "name": "BLINX SOLUTIONS LTD",
        "primary_role_id": "RO92",
        "role_ids": [
            "RO92"
        ],
        "status": "Active",
        "post_code": "WA4 4AB",
        "uprn": "Unknown"
    },
    {
        "org_id": "YGMXA",
        "name": "NURTUREY LIMITED",
        "primary_role_id": "RO92",
        "role_ids": [
            "RO92"
        ],
        "status": "Active",
        "post_code": "BR5 1QB",
        "uprn": "100020482139"
    },
    {
        "org_id": "YGM6D",
        "name": "SOCIAL RX LIMITED",
        "primary_role_id": "RO92",
        "role_ids": [
            "RO92"
        ],
        "status": "Active",
        "post_code": "LS6 3HN",
        "uprn": "72020074"
    },
    {
        "org_id": "YGMJF",
        "name": "MEDLOGIC LTD",
        "primary_role_id": "RO92",
        "role_ids": [
            "RO92"
        ],
        "status": "Active",
        "post_code": "PE27 3DP",
        "uprn": "Unknown"
    },
    {
        "org_id": "YGMV6",
        "name": "WESSEX RAPID DIAGNOSTIC SERVICE",
        "primary_role_id": "RO92",
        "role_ids": [
            "RO92"
        ],
        "status": "Active",
        "post_code": "SO21 2RU",
        "uprn": "Unknown"
    },
    {
        "org_id": "YGM5A",
        "name": "CANLEY DIGITAL HEALTHCARE LTD",
        "primary_role_id": "RO92",
        "role_ids": [
            "RO92"
        ],
        "status": "Active",
        "post_code": "N1 7GU",
        "uprn": "Unknown"
    },
    {
        "org_id": "YGMYW",
        "name": "MEDICUS HEALTH LTD",
        "primary_role_id": "RO92",
        "role_ids": [
            "RO92"
        ],
        "status": "Active",
        "post_code": "WC2H 9JQ",
        "uprn": "Unknown"
    },
    {
        "org_id": "YGMCH",
        "name": "SYCLE.NET",
        "primary_role_id": "RO92",
        "role_ids": [
            "RO92"
        ],
        "status": "Active",
        "post_code": "KT15 2HJ",
        "uprn": "Unknown"
    },
    {
        "org_id": "YGM3M",
        "name": "TOUKANEYES LIMITED TRADING AS TOUKANLABS",
        "primary_role_id": "RO92",
        "role_ids": [
            "RO92"
        ],
        "status": "Active",
        "post_code": "IG8 8EY",
        "uprn": "Unknown"
    },
    {
        "org_id": "YGM3A",
        "name": "ISOSEC",
        "primary_role_id": "RO92",
        "role_ids": [
            "RO92"
        ],
        "status": "Active",
        "post_code": "M17 1HH",
        "uprn": "Unknown"
    },
    {
        "org_id": "YGM2A",
        "name": "THE PIXALPOINT COMPANY",
        "primary_role_id": "RO92",
        "role_ids": [
            "RO92"
        ],
        "status": "Active",
        "post_code": "EC1A 2BN",
        "uprn": "Unknown"
    },
    {
        "org_id": "YGM1H",
        "name": "KINSEED LIMITED",
        "primary_role_id": "RO92",
        "role_ids": [
            "RO92"
        ],
        "status": "Active",
        "post_code": "UB8 1QG",
        "uprn": "Unknown"
    },
    {
        "org_id": "YGM1J",
        "name": "PERFEXIA HEALTH TECHNOLOGIES LTD",
        "primary_role_id": "RO92",
        "role_ids": [
            "RO92"
        ],
        "status": "Active",
        "post_code": "EC1V 9BD",
        "uprn": "Unknown"
    },
    {
        "org_id": "YGM1K",
        "name": "SIDQAM LTD",
        "primary_role_id": "RO92",
        "role_ids": [
            "RO92"
        ],
        "status": "Active",
        "post_code": "WA14 3NB",
        "uprn": "100011624087"
    },
    {
        "org_id": "YGM1L",
        "name": "TRIATICA UK LTD",
        "primary_role_id": "RO92",
        "role_ids": [
            "RO92"
        ],
        "status": "Active",
        "post_code": "TW18 3BA",
        "uprn": "Unknown"
    },
    {
        "org_id": "YGM1M",
        "name": "DOCTRIN",
        "primary_role_id": "RO92",
        "role_ids": [
            "RO92"
        ],
        "status": "Active",
        "post_code": "HX7 6AD",
        "uprn": "10035031765"
    },
    {
        "org_id": "YGM1N",
        "name": "B-WELL HEALTH & SOCIAL CARE GROUP LTD",
        "primary_role_id": "RO92",
        "role_ids": [
            "RO92"
        ],
        "status": "Active",
        "post_code": "MK14 6GD",
        "uprn": "Unknown"
    },
    {
        "org_id": "U7Y4D",
        "name": "NEW COMPANY SERVICES LTD",
        "primary_role_id": "RO92",
        "role_ids": [
            "RO92"
        ],
        "status": "Active",
        "post_code": "DY4 8GD",
        "uprn": "32041338"
    },
    {
        "org_id": "YGM1A",
        "name": "SENSEDATA-INSIGHTS",
        "primary_role_id": "RO92",
        "role_ids": [
            "RO92"
        ],
        "status": "Active",
        "post_code": "SN1 3LJ",
        "uprn": "Unknown"
    },
    {
        "org_id": "YGM1C",
        "name": "EVERBRIDGE",
        "primary_role_id": "RO92",
        "role_ids": [
            "RO92"
        ],
        "status": "Active",
        "post_code": "CO4 5YQ",
        "uprn": "10034898789"
    },
    {
        "org_id": "YGM1D",
        "name": "AGILE WORKFORCE",
        "primary_role_id": "RO92",
        "role_ids": [
            "RO92"
        ],
        "status": "Active",
        "post_code": "BD23 1FJ",
        "uprn": "Unknown"
    },
    {
        "org_id": "U8V9P",
        "name": "CLINIC.CO",
        "primary_role_id": "RO92",
        "role_ids": [
            "RO92"
        ],
        "status": "Active",
        "post_code": "EC2A 3JX",
        "uprn": "Unknown"
    },
    {
        "org_id": "T3C4Z",
        "name": "GOODSAM",
        "primary_role_id": "RO92",
        "role_ids": [
            "RO92"
        ],
        "status": "Active",
        "post_code": "EC2A 3JX",
        "uprn": "Unknown"
    },
    {
        "org_id": "O1N5R",
        "name": "PATIENTNARRATIVE LIMITED",
        "primary_role_id": "RO92",
        "role_ids": [
            "RO92"
        ],
        "status": "Active",
        "post_code": "WC2A 2JR",
        "uprn": "Unknown"
    },
    {
        "org_id": "YGM1E",
        "name": "PHARMACY X",
        "primary_role_id": "RO92",
        "role_ids": [
            "RO92"
        ],
        "status": "Active",
        "post_code": "NP12 1AA",
        "uprn": "Unknown"
    },
    {
        "org_id": "YGM1F",
        "name": "FRIENDS MEDICAL SERVICE",
        "primary_role_id": "RO92",
        "role_ids": [
            "RO92"
        ],
        "status": "Active",
        "post_code": "WD3 1RE",
        "uprn": "Unknown"
    },
    {
        "org_id": "YGM1G",
        "name": "SORTCOM",
        "primary_role_id": "RO92",
        "role_ids": [
            "RO92"
        ],
        "status": "Active",
        "post_code": "L17 4JG",
        "uprn": "38210708"
    },
    {
        "org_id": "E0Q0U",
        "name": "SHIFT PARTNER LTD",
        "primary_role_id": "RO92",
        "role_ids": [
            "RO92"
        ],
        "status": "Active",
        "post_code": "E11 2RJ",
        "uprn": "100023583286"
    },
    {
        "org_id": "B2G6E",
        "name": "YDK TECHNOLOGIES LIMITED",
        "primary_role_id": "RO92",
        "role_ids": [
            "RO92"
        ],
        "status": "Active",
        "post_code": "GU30 7DX",
        "uprn": "Unknown"
    },
    {
        "org_id": "E2Z7C",
        "name": "APPII",
        "primary_role_id": "RO92",
        "role_ids": [
            "RO92"
        ],
        "status": "Active",
        "post_code": "SW20 9HF",
        "uprn": "48055716"
    },
    {
        "org_id": "K2W6A",
        "name": "NETCOMPANY UK LIMITED",
        "primary_role_id": "RO92",
        "role_ids": [
            "RO92"
        ],
        "status": "Active",
        "post_code": "EC1V 0AT",
        "uprn": "Unknown"
    },
    {
        "org_id": "H2L3G",
        "name": "KAINOS GROUP PLC",
        "primary_role_id": "RO92",
        "role_ids": [
            "RO92"
        ],
        "status": "Active",
        "post_code": "EC1M 3HA",
        "uprn": "Unknown"
    },
    {
        "org_id": "U4E8Y",
        "name": "EHEALTH INNOVATIONS LTD",
        "primary_role_id": "RO92",
        "role_ids": [
            "RO92"
        ],
        "status": "Active",
        "post_code": "NG18 5FB",
        "uprn": "10012818999"
    },
    {
        "org_id": "N8H2Q",
        "name": "QUADIENT UK LIMITED",
        "primary_role_id": "RO92",
        "role_ids": [
            "RO92"
        ],
        "status": "Active",
        "post_code": "E15 2GW",
        "uprn": "Unknown"
    },
    {
        "org_id": "L2R0J",
        "name": "INFOTEX.IO LTD",
        "primary_role_id": "RO92",
        "role_ids": [
            "RO92"
        ],
        "status": "Active",
        "post_code": "IP2 0EH",
        "uprn": "10035051417"
    },
    {
        "org_id": "R3U6M",
        "name": "CONTINUUM HEALTH LIMITED",
        "primary_role_id": "RO92",
        "role_ids": [
            "RO92"
        ],
        "status": "Active",
        "post_code": "WC2H 9JQ",
        "uprn": "Unknown"
    },
    {
        "org_id": "E7P7I",
        "name": "CIPTEX LTD",
        "primary_role_id": "RO92",
        "role_ids": [
            "RO92"
        ],
        "status": "Active",
        "post_code": "GU21 7SA",
        "uprn": "Unknown"
    },
    {
        "org_id": "Q9C2N",
        "name": "BLUEBERRY HEALTHCARE LTD",
        "primary_role_id": "RO92",
        "role_ids": [
            "RO92"
        ],
        "status": "Active",
        "post_code": "GL2 2AT",
        "uprn": "Unknown"
    },
    {
        "org_id": "D7K8P",
        "name": "APOTEC LTD",
        "primary_role_id": "RO92",
        "role_ids": [
            "RO92"
        ],
        "status": "Active",
        "post_code": "WC2H 9JQ",
        "uprn": "Unknown"
    },
    {
        "org_id": "G6N1K",
        "name": "EHEALTHCOMPASS LTD",
        "primary_role_id": "RO92",
        "role_ids": [
            "RO92"
        ],
        "status": "Active",
        "post_code": "DN40 1JW",
        "uprn": "Unknown"
    },
    {
        "org_id": "E2C5H",
        "name": "INGEUS",
        "primary_role_id": "RO92",
        "role_ids": [
            "RO92"
        ],
        "status": "Active",
        "post_code": "WV10 9TJ",
        "uprn": "Unknown"
    },
    {
        "org_id": "I5L1E",
        "name": "DEDALUS",
        "primary_role_id": "RO92",
        "role_ids": [
            "RO92"
        ],
        "status": "Active",
        "post_code": "LS1 4BA",
        "uprn": "Unknown"
    },
    {
        "org_id": "T5D9R",
        "name": "ALERT CASCADE LIMITED",
        "primary_role_id": "RO92",
        "role_ids": [
            "RO92"
        ],
        "status": "Active",
        "post_code": "PE2 8AN",
        "uprn": "Unknown"
    },
    {
        "org_id": "S7R4T",
        "name": "PHARMAPP LTD",
        "primary_role_id": "RO92",
        "role_ids": [
            "RO92"
        ],
        "status": "Active",
        "post_code": "SP6 1AX",
        "uprn": "Unknown"
    },
    {
        "org_id": "A2N1V",
        "name": "CYFERD LTD",
        "primary_role_id": "RO92",
        "role_ids": [
            "RO92"
        ],
        "status": "Active",
        "post_code": "EC1V 2NX",
        "uprn": "5300019988"
    },
    {
        "org_id": "C6H1K",
        "name": "CARDIO-PHOENIX LIMITED",
        "primary_role_id": "RO92",
        "role_ids": [
            "RO92"
        ],
        "status": "Active",
        "post_code": "WC2A 2JR",
        "uprn": "Unknown"
    },
    {
        "org_id": "Q6R4W",
        "name": "SONAR CMS LTD",
        "primary_role_id": "RO92",
        "role_ids": [
            "RO92"
        ],
        "status": "Active",
        "post_code": "CM1 1HT",
        "uprn": "Unknown"
    },
    {
        "org_id": "Y0Q0P",
        "name": "BEARINGPOINT",
        "primary_role_id": "RO92",
        "role_ids": [
            "RO92"
        ],
        "status": "Active",
        "post_code": "EC3R 6DL",
        "uprn": "10091899407"
    },
    {
        "org_id": "R3J3B",
        "name": "LUCID UX",
        "primary_role_id": "RO92",
        "role_ids": [
            "RO92"
        ],
        "status": "Active",
        "post_code": "EC3V 3QQ",
        "uprn": "Unknown"
    },
    {
        "org_id": "F2K9B",
        "name": "OPNOTE LIMITED",
        "primary_role_id": "RO92",
        "role_ids": [
            "RO92"
        ],
        "status": "Active",
        "post_code": "LE11 4SU",
        "uprn": "100030439439"
    },
    {
        "org_id": "G6G4W",
        "name": "OPTO HEALTH LTD",
        "primary_role_id": "RO92",
        "role_ids": [
            "RO92"
        ],
        "status": "Active",
        "post_code": "WC2H 9JQ",
        "uprn": "Unknown"
    },
    {
        "org_id": "R6J3F",
        "name": "BT HEALTH",
        "primary_role_id": "RO92",
        "role_ids": [
            "RO92"
        ],
        "status": "Active",
        "post_code": "E1 8EE",
        "uprn": "6002487"
    },
    {
        "org_id": "Q3R3Z",
        "name": "NEURORESPONSE CIC",
        "primary_role_id": "RO92",
        "role_ids": [
            "RO92"
        ],
        "status": "Active",
        "post_code": "BN3 2JD",
        "uprn": "Unknown"
    },
    {
        "org_id": "K4J3J",
        "name": "NHS VACCINE",
        "primary_role_id": "RO92",
        "role_ids": [
            "RO92"
        ],
        "status": "Active",
        "post_code": "LS1 4AP",
        "uprn": "Unknown"
    },
    {
        "org_id": "O2K9S",
        "name": "SUKH PHARMA LTD",
        "primary_role_id": "RO92",
        "role_ids": [
            "RO92"
        ],
        "status": "Active",
        "post_code": "LE5 5TZ",
        "uprn": "2465115314"
    },
    {
        "org_id": "Y9J7H",
        "name": "MATILLION LTD",
        "primary_role_id": "RO92",
        "role_ids": [
            "RO92"
        ],
        "status": "Active",
        "post_code": "WA14 1EP",
        "uprn": "10091960105"
    },
    {
        "org_id": "U0Y1W",
        "name": "EYEV LIMITED",
        "primary_role_id": "RO92",
        "role_ids": [
            "RO92"
        ],
        "status": "Active",
        "post_code": "NG1 5FS",
        "uprn": "Unknown"
    },
    {
        "org_id": "C1I1U",
        "name": "CAMTEC CONSULTING LTD",
        "primary_role_id": "RO92",
        "role_ids": [
            "RO92"
        ],
        "status": "Active",
        "post_code": "EC1V 2NX",
        "uprn": "Unknown"
    },
    {
        "org_id": "Y6N1L",
        "name": "ARVI",
        "primary_role_id": "RO92",
        "role_ids": [
            "RO92"
        ],
        "status": "Active",
        "post_code": "SW1Y 4LB",
        "uprn": "Unknown"
    },
    {
        "org_id": "M5M5E",
        "name": "CAREBERRY SOFTWARE",
        "primary_role_id": "RO92",
        "role_ids": [
            "RO92"
        ],
        "status": "Active",
        "post_code": "HP19 8TE",
        "uprn": "Unknown"
    },
    {
        "org_id": "B9T7O",
        "name": "FUSION ECARE SOLUTIONS LTD",
        "primary_role_id": "RO92",
        "role_ids": [
            "RO92"
        ],
        "status": "Active",
        "post_code": "LS25 1AA",
        "uprn": "72524829"
    },
    {
        "org_id": "C4X3H",
        "name": "MAZIK GLOBAL LIMITED",
        "primary_role_id": "RO92",
        "role_ids": [
            "RO92"
        ],
        "status": "Active",
        "post_code": "EC1V 2NX",
        "uprn": "Unknown"
    },
    {
        "org_id": "Y0E3J",
        "name": "NHS APP",
        "primary_role_id": "RO92",
        "role_ids": [
            "RO92"
        ],
        "status": "Active",
        "post_code": "LS1 4AP",
        "uprn": "Unknown"
    },
    {
        "org_id": "W9C7O",
        "name": "TEKNOLINK LTD",
        "primary_role_id": "RO92",
        "role_ids": [
            "RO92"
        ],
        "status": "Active",
        "post_code": "B70 7EA",
        "uprn": "10093001293"
    },
    {
        "org_id": "O2G5U",
        "name": "TORTUS AI LTD",
        "primary_role_id": "RO92",
        "role_ids": [
            "RO92"
        ],
        "status": "Active",
        "post_code": "E1 0SG",
        "uprn": "Unknown"
    },
    {
        "org_id": "D3V0E",
        "name": "CLINICAL DIAGNOSTIC SERVICES LTD",
        "primary_role_id": "RO92",
        "role_ids": [
            "RO92"
        ],
        "status": "Active",
        "post_code": "SK8 4QB",
        "uprn": "Unknown"
    },
    {
        "org_id": "M8C2H",
        "name": "ISANSYS LIFECARE LTD",
        "primary_role_id": "RO92",
        "role_ids": [
            "RO92"
        ],
        "status": "Active",
        "post_code": "OX14 4RR",
        "uprn": "10093196806"
    },
    {
        "org_id": "V1L1S",
        "name": "MALAM HEALTH",
        "primary_role_id": "RO92",
        "role_ids": [
            "RO92"
        ],
        "status": "Active",
        "post_code": "B13 9DQ",
        "uprn": "100070276210"
    },
    {
        "org_id": "Z4B8C",
        "name": "MEDIWALLETS LTD.",
        "primary_role_id": "RO92",
        "role_ids": [
            "RO92"
        ],
        "status": "Active",
        "post_code": "S12 2FR",
        "uprn": "100051039580"
    },
    {
        "org_id": "G1A4Z",
        "name": "NOVAMAP HEALTH",
        "primary_role_id": "RO92",
        "role_ids": [
            "RO92"
        ],
        "status": "Active",
        "post_code": "CB4 0WS",
        "uprn": "10091763120"
    },
    {
        "org_id": "M3R8L",
        "name": "HEALTHCARE DIGITAL TWIN LIMITED",
        "primary_role_id": "RO92",
        "role_ids": [
            "RO92"
        ],
        "status": "Active",
        "post_code": "CO7 7PD",
        "uprn": "100091270615"
    },
    {
        "org_id": "X6V6L",
        "name": "MESH CIS2 MFA",
        "primary_role_id": "RO92",
        "role_ids": [
            "RO92"
        ],
        "status": "Active",
        "post_code": "LS1 4AP",
        "uprn": "Unknown"
    },
    {
        "org_id": "N4R1S",
        "name": "PHARMASTRAT LTD",
        "primary_role_id": "RO92",
        "role_ids": [
            "RO92"
        ],
        "status": "Active",
        "post_code": "AL4 9LA",
        "uprn": "100080865722"
    },
    {
        "org_id": "O1X2L",
        "name": "HUDSON CONSULTING GROUP",
        "primary_role_id": "RO92",
        "role_ids": [
            "RO92"
        ],
        "status": "Active",
        "post_code": "LA1 5AT",
        "uprn": "100010471896"
    },
    {
        "org_id": "P2F6R",
        "name": "CHIEF AI",
        "primary_role_id": "RO92",
        "role_ids": [
            "RO92"
        ],
        "status": "Active",
        "post_code": "M15 6SE",
        "uprn": "Unknown"
    },
    {
        "org_id": "G4K4J",
        "name": "MOLGENICS",
        "primary_role_id": "RO92",
        "role_ids": [
            "RO92"
        ],
        "status": "Active",
        "post_code": "M15 6SE",
        "uprn": "10091974857"
    },
    {
        "org_id": "R0Y0Z",
        "name": "PHARMLOGIC GROUP LIMITED",
        "primary_role_id": "RO92",
        "role_ids": [
            "RO92"
        ],
        "status": "Active",
        "post_code": "KT19 9FG",
        "uprn": "10013955123"
    },
    {
        "org_id": "I3Q2Y",
        "name": "AUTOMATING HEALTHCARE LIMITED",
        "primary_role_id": "RO92",
        "role_ids": [
            "RO92"
        ],
        "status": "Active",
        "post_code": "S9 4EU",
        "uprn": "10092049305"
    },
    {
        "org_id": "S7X4L",
        "name": "BEEBOT AI LTD",
        "primary_role_id": "RO92",
        "role_ids": [
            "RO92"
        ],
        "status": "Active",
        "post_code": "M33 7DF",
        "uprn": "200000335446"
    },
    {
        "org_id": "H7H3U",
        "name": "MEDIVYS LTD",
        "primary_role_id": "RO92",
        "role_ids": [
            "RO92"
        ],
        "status": "Active",
        "post_code": "SN13 9BL",
        "uprn": "Unknown"
    },
    {
        "org_id": "S8S8G",
        "name": "SMARTLIFE HEALTH LTD",
        "primary_role_id": "RO92",
        "role_ids": [
            "RO92"
        ],
        "status": "Active",
        "post_code": "UB3 1NY",
        "uprn": "Unknown"
    },
    {
        "org_id": "Y2X5W",
        "name": "ALTERA HEALTHCARE (IT) UK LTD",
        "primary_role_id": "RO92",
        "role_ids": [
            "RO92"
        ],
        "status": "Active",
        "post_code": "B2 5DB",
        "uprn": "Unknown"
    },
    {
        "org_id": "A0Z7M",
        "name": "NEWBRID LTD",
        "primary_role_id": "RO92",
        "role_ids": [
            "RO92"
        ],
        "status": "Active",
        "post_code": "HD7 6LE",
        "uprn": "83001784"
    },
    {
        "org_id": "X9S5G",
        "name": "DXO LTD",
        "primary_role_id": "RO92",
        "role_ids": [
            "RO92"
        ],
        "status": "Active",
        "post_code": "JE3 5JE",
        "uprn": "Unknown"
    },
    {
        "org_id": "D2L9A",
        "name": "INTERWEAVE DIGITAL",
        "primary_role_id": "RO92",
        "role_ids": [
            "RO92"
        ],
        "status": "Active",
        "post_code": "HU10 6ED",
        "uprn": "200000641045"
    },
    {
        "org_id": "U1C3V",
        "name": "MEDIEASE LTD",
        "primary_role_id": "RO92",
        "role_ids": [
            "RO92"
        ],
        "status": "Active",
        "post_code": "B62 9HT",
        "uprn": "90215912"
    },
    {
        "org_id": "X4N7B",
        "name": "TWINS FOR IPOUCH & STOMA PATIENTS LTD",
        "primary_role_id": "RO92",
        "role_ids": [
            "RO92"
        ],
        "status": "Active",
        "post_code": "NW10 7AL",
        "uprn": "202231686"
    },
    {
        "org_id": "Y1P3F",
        "name": "AUTUMNA LTD.",
        "primary_role_id": "RO92",
        "role_ids": [
            "RO92"
        ],
        "status": "Active",
        "post_code": "TN2 5ET",
        "uprn": "100061216715"
    },
    {
        "org_id": "G5S5Z",
        "name": "VIRTUAL OPERATIONS LTD",
        "primary_role_id": "RO92",
        "role_ids": [
            "RO92"
        ],
        "status": "Active",
        "post_code": "MK9 1NA",
        "uprn": "Unknown"
    },
    {
        "org_id": "E5M0P",
        "name": "AURIGA MAGNUS CARE LIMITED",
        "primary_role_id": "RO92",
        "role_ids": [
            "RO92"
        ],
        "status": "Active",
        "post_code": "SR5 2TA",
        "uprn": "Unknown"
    },
    {
        "org_id": "M8D5U",
        "name": "EVOLVE HEALTHTECH",
        "primary_role_id": "RO92",
        "role_ids": [
            "RO92"
        ],
        "status": "Active",
        "post_code": "LS18 5LT",
        "uprn": "72313553"
    },
    {
        "org_id": "Y3K5E",
        "name": "ENCON PHARMA",
        "primary_role_id": "RO92",
        "role_ids": [
            "RO92"
        ],
        "status": "Active",
        "post_code": "BD8 7HB",
        "uprn": "100051954955"
    },
    {
        "org_id": "C1E0X",
        "name": "GENERAL PRACTICE SOLUTIONS",
        "primary_role_id": "RO92",
        "role_ids": [
            "RO92"
        ],
        "status": "Active",
        "post_code": "WC2H 9JQ",
        "uprn": "Unknown"
    },
    {
        "org_id": "S0W3R",
        "name": "SKY UK LIMITED",
        "primary_role_id": "RO92",
        "role_ids": [
            "RO92"
        ],
        "status": "Active",
        "post_code": "TW7 5QD",
        "uprn": "Unknown"
    },
    {
        "org_id": "G2F9E",
        "name": "AKN ASSOCIATES LIMITED",
        "primary_role_id": "RO92",
        "role_ids": [
            "RO92"
        ],
        "status": "Active",
        "post_code": "M24 1RU",
        "uprn": "422000122312"
    },
    {
        "org_id": "X7C2K",
        "name": "PLANTMED CLINIC UK LTD (TRADING AS DISPENSED)",
        "primary_role_id": "RO92",
        "role_ids": [
            "RO92"
        ],
        "status": "Active",
        "post_code": "EC1V 2NX",
        "uprn": "Unknown"
    },
    {
        "org_id": "A8M6C",
        "name": "CLINICAL CARE NETWORK",
        "primary_role_id": "RO92",
        "role_ids": [
            "RO92"
        ],
        "status": "Active",
        "post_code": "HD2 2RB",
        "uprn": "83187148"
    },
    {
        "org_id": "U2C1L",
        "name": "STORIICARE",
        "primary_role_id": "RO92",
        "role_ids": [
            "RO92"
        ],
        "status": "Active",
        "post_code": "EH2 4AN",
        "uprn": "Unknown"
    },
    {
        "org_id": "K3R2W",
        "name": "AVAILABILITY PLANNER LIMITED",
        "primary_role_id": "RO92",
        "role_ids": [
            "RO92"
        ],
        "status": "Active",
        "post_code": "IG1 4PG",
        "uprn": "Unknown"
    },
    {
        "org_id": "W2A2A",
        "name": "AYOZAT LIMITED",
        "primary_role_id": "RO92",
        "role_ids": [
            "RO92"
        ],
        "status": "Active",
        "post_code": "W4 5YA",
        "uprn": "Unknown"
    },
    {
        "org_id": "M8O4F",
        "name": "NOVARI HEALTH UK LIMITED",
        "primary_role_id": "RO92",
        "role_ids": [
            "RO92"
        ],
        "status": "Active",
        "post_code": "EC4N 8AF",
        "uprn": "10091966527"
    },
    {
        "org_id": "K9J5N",
        "name": "LOUISCOMM NETWORKS LTD",
        "primary_role_id": "RO92",
        "role_ids": [
            "RO92"
        ],
        "status": "Active",
        "post_code": "BN26 6GG",
        "uprn": "10094618684"
    }
]