[
    {
        "org_id": "XDE01",
        "name": "NHS NEWBORN HEARING SCREENING PROGRAMME",
        "primary_role_id": "RO131",
        "role_ids": [
            "RO131"
        ],
        "status": "Active",
        "post_code": "M13 9PL",
        "uprn": "Unknown"
    },
    {
        "org_id": "XDH05",
        "name": "NATIONAL INFORMATION GOVERNANCE BOARD (NIGB)",
        "primary_role_id": "RO131",
        "role_ids": [
            "RO131"
        ],
        "status": "Active",
        "post_code": "SE1 9BW",
        "uprn": "Unknown"
    },
    {
        "org_id": "XDD01",
        "name": "HMRC - STANSTED",
        "primary_role_id": "RO131",
        "role_ids": [
            "RO131"
        ],
        "status": "Active",
        "post_code": "CM24 1QW",
        "uprn": "Unknown"
    },
    {
        "org_id": "XDC02",
        "name": "ONS NEWPORT OFFICE",
        "primary_role_id": "RO131",
        "role_ids": [
            "RO131"
        ],
        "status": "Active",
        "post_code": "NP10 8XG",
        "uprn": "100100963961"
    },
    {
        "org_id": "XDC04",
        "name": "ONS TITCHFIELD OFFICE",
        "primary_role_id": "RO131",
        "role_ids": [
            "RO131"
        ],
        "status": "Active",
        "post_code": "PO15 5RR",
        "uprn": "Unknown"
    },
    {
        "org_id": "XDA01",
        "name": "AUDIT COMMISSION - THURMASTON",
        "primary_role_id": "RO131",
        "role_ids": [
            "RO131"
        ],
        "status": "Active",
        "post_code": "LE4 8BL",
        "uprn": "Unknown"
    },
    {
        "org_id": "XDA02",
        "name": "AUDIT COMMISSION - STEVENAGE",
        "primary_role_id": "RO131",
        "role_ids": [
            "RO131"
        ],
        "status": "Active",
        "post_code": "SG1 3HG",
        "uprn": "Unknown"
    },
    {
        "org_id": "XDA03",
        "name": "AUDIT COMMISSION - ECKINGTON",
        "primary_role_id": "RO131",
        "role_ids": [
            "RO131"
        ],
        "status": "Active",
        "post_code": "S21 4EF",
        "uprn": "100032177976"
    },
    {
        "org_id": "XDA04",
        "name": "AUDIT COMMISSION - GATESHEAD",
        "primary_role_id": "RO131",
        "role_ids": [
            "RO131"
        ],
        "status": "Active",
        "post_code": "NE11 9NH",
        "uprn": "Unknown"
    },
    {
        "org_id": "XDA05",
        "name": "AUDIT COMMISSION - MIDDLEBROOK",
        "primary_role_id": "RO131",
        "role_ids": [
            "RO131"
        ],
        "status": "Active",
        "post_code": "BL6 6QQ",
        "uprn": "Unknown"
    },
    {
        "org_id": "XDA07",
        "name": "AUDIT COMMISSION - SOLIHULL",
        "primary_role_id": "RO131",
        "role_ids": [
            "RO131"
        ],
        "status": "Active",
        "post_code": "B90 4BN",
        "uprn": "200003834852"
    },
    {
        "org_id": "XDA08",
        "name": "AUDIT COMMISSION - SEVENOAKS",
        "primary_role_id": "RO131",
        "role_ids": [
            "RO131"
        ],
        "status": "Active",
        "post_code": "TN13 1AN",
        "uprn": "Unknown"
    },
    {
        "org_id": "XDA09",
        "name": "AUDIT COMMISSION - OTTERBOURNE",
        "primary_role_id": "RO131",
        "role_ids": [
            "RO131"
        ],
        "status": "Active",
        "post_code": "SO21 2RU",
        "uprn": "Unknown"
    },
    {
        "org_id": "XDH01",
        "name": "RICHMOND HOUSE",
        "primary_role_id": "RO131",
        "role_ids": [
            "RO131"
        ],
        "status": "Active",
        "post_code": "SW1A 2NL",
        "uprn": "Unknown"
    },
    {
        "org_id": "XDH03",
        "name": "WELLINGTON HOUSE",
        "primary_role_id": "RO131",
        "role_ids": [
            "RO131"
        ],
        "status": "Active",
        "post_code": "SE1 8UG",
        "uprn": "100023226264"
    },
    {
        "org_id": "XDH02",
        "name": "SKIPTON HOUSE",
        "primary_role_id": "RO131",
        "role_ids": [
            "RO131"
        ],
        "status": "Active",
        "post_code": "SE1 6LH",
        "uprn": "200003372428"
    },
    {
        "org_id": "XDA06",
        "name": "AUDIT COMMISSION - LEEDS",
        "primary_role_id": "RO131",
        "role_ids": [
            "RO131"
        ],
        "status": "Active",
        "post_code": "LS11 5BD",
        "uprn": "Unknown"
    },
    {
        "org_id": "XDA10",
        "name": "AUDIT COMMISSION - EXETER",
        "primary_role_id": "RO131",
        "role_ids": [
            "RO131"
        ],
        "status": "Active",
        "post_code": "EX2 8PW",
        "uprn": "Unknown"
    },
    {
        "org_id": "XDF02",
        "name": "DEPARTMENT FOR WORK & PENSIONS [LONDON]",
        "primary_role_id": "RO131",
        "role_ids": [
            "RO131"
        ],
        "status": "Active",
        "post_code": "SW1H 9NA",
        "uprn": "Unknown"
    },
    {
        "org_id": "XDF01",
        "name": "DEPARTMENT FOR WORK & PENSIONS (LEEDS)",
        "primary_role_id": "RO131",
        "role_ids": [
            "RO131"
        ],
        "status": "Active",
        "post_code": "LS16 5PU",
        "uprn": "Unknown"
    },
    {
        "org_id": "XDH04",
        "name": "QUARRY HOUSE",
        "primary_role_id": "RO131",
        "role_ids": [
            "RO131"
        ],
        "status": "Active",
        "post_code": "LS2 7UE",
        "uprn": "Unknown"
    },
    {
        "org_id": "XDM01",
        "name": "DASA HEALTH INFORMATION",
        "primary_role_id": "RO131",
        "role_ids": [
            "RO131"
        ],
        "status": "Active",
        "post_code": "BS34 8JH",
        "uprn": "Unknown"
    },
    {
        "org_id": "XDH06",
        "name": "SUNGARD",
        "primary_role_id": "RO131",
        "role_ids": [
            "RO131"
        ],
        "status": "Active",
        "post_code": "TW4 6NW",
        "uprn": "Unknown"
    },
    {
        "org_id": "XDM02",
        "name": "DMRC",
        "primary_role_id": "RO131",
        "role_ids": [
            "RO131"
        ],
        "status": "Active",
        "post_code": "KT18 6JW",
        "uprn": "Unknown"
    },
    {
        "org_id": "XDH07",
        "name": "DEPARTMENT OF HEALTH AND SOCIAL CARE (BULWELL) DATACENTRE",
        "primary_role_id": "RO131",
        "role_ids": [
            "RO131"
        ],
        "status": "Active",
        "post_code": "NG6 8UY",
        "uprn": "Unknown"
    },
    {
        "org_id": "XDH08",
        "name": "DEPARTMENT OF HEALTH AND SOCIAL CARE (EXPERIAN) DATACENTRE",
        "primary_role_id": "RO131",
        "role_ids": [
            "RO131"
        ],
        "status": "Active",
        "post_code": "NG80 1DP",
        "uprn": "Unknown"
    },
    {
        "org_id": "XWP01",
        "name": "EQUINIX DATA CENTRE - HARBOUR EXCHANGE",
        "primary_role_id": "RO131",
        "role_ids": [
            "RO131"
        ],
        "status": "Active",
        "post_code": "E14 9GE",
        "uprn": "Unknown"
    },
    {
        "org_id": "XWP02",
        "name": "EQUINIX DATA CENTRE - SLOUGH TRADING ESTATE",
        "primary_role_id": "RO131",
        "role_ids": [
            "RO131"
        ],
        "status": "Active",
        "post_code": "SL1 4PF",
        "uprn": "Unknown"
    },
    {
        "org_id": "XDC05",
        "name": "ARK DATA CENTRE",
        "primary_role_id": "RO131",
        "role_ids": [
            "RO131"
        ],
        "status": "Active",
        "post_code": "SN13 9GB",
        "uprn": "Unknown"
    },
    {
        "org_id": "XAC00",
        "name": "MANX DATA CENTRE",
        "primary_role_id": "RO131",
        "role_ids": [
            "RO131"
        ],
        "status": "Active",
        "post_code": "IM2 6ED",
        "uprn": "Unknown"
    },
    {
        "org_id": "XAC01",
        "name": "GREENHILL DATA CENTRE",
        "primary_role_id": "RO131",
        "role_ids": [
            "RO131"
        ],
        "status": "Active",
        "post_code": "IM1 3PZ",
        "uprn": "Unknown"
    },
    {
        "org_id": "XDM04",
        "name": "GMSC COCHRANE HOUSE",
        "primary_role_id": "RO131",
        "role_ids": [
            "RO131"
        ],
        "status": "Active",
        "post_code": "WS14 9PY",
        "uprn": "10002771016"
    },
    {
        "org_id": "D7V1F",
        "name": "OHID - EAST MIDLANDS",
        "primary_role_id": "RO131",
        "role_ids": [
            "RO131"
        ],
        "status": "Active",
        "post_code": "NG2 4LA",
        "uprn": "200001412701"
    },
    {
        "org_id": "X6R0O",
        "name": "OHID - EAST OF ENGLAND",
        "primary_role_id": "RO131",
        "role_ids": [
            "RO131"
        ],
        "status": "Active",
        "post_code": "CB21 5XA",
        "uprn": "10003196626"
    },
    {
        "org_id": "O8Y1S",
        "name": "OHID - NORTH WEST (MANCHESTER)",
        "primary_role_id": "RO131",
        "role_ids": [
            "RO131"
        ],
        "status": "Active",
        "post_code": "M1 3BN",
        "uprn": "Unknown"
    },
    {
        "org_id": "T4B8K",
        "name": "OHID - NORTH WEST (LIVERPOOL)",
        "primary_role_id": "RO131",
        "role_ids": [
            "RO131"
        ],
        "status": "Active",
        "post_code": "L3 1DS",
        "uprn": "Unknown"
    },
    {
        "org_id": "X0J0K",
        "name": "OHID - NORTH WEST (PRESTON)",
        "primary_role_id": "RO131",
        "role_ids": [
            "RO131"
        ],
        "status": "Active",
        "post_code": "PR1 8XB",
        "uprn": "10007610149"
    },
    {
        "org_id": "W2L6C",
        "name": "OHID - SOUTH EAST (KENT)",
        "primary_role_id": "RO131",
        "role_ids": [
            "RO131"
        ],
        "status": "Active",
        "post_code": "TN23 1PL",
        "uprn": "Unknown"
    },
    {
        "org_id": "N3C9F",
        "name": "OHID - SOUTH EAST (SURREY AND SUSSEX)",
        "primary_role_id": "RO131",
        "role_ids": [
            "RO131"
        ],
        "status": "Active",
        "post_code": "RH12 1XH",
        "uprn": "200004788710"
    },
    {
        "org_id": "P3J6V",
        "name": "OHID - WEST MIDLANDS",
        "primary_role_id": "RO131",
        "role_ids": [
            "RO131"
        ],
        "status": "Active",
        "post_code": "B2 4BH",
        "uprn": "Unknown"
    },
    {
        "org_id": "C8K6M",
        "name": "OHID - NORTH EAST",
        "primary_role_id": "RO131",
        "role_ids": [
            "RO131"
        ],
        "status": "Active",
        "post_code": "NE15 8NY",
        "uprn": "Unknown"
    },
    {
        "org_id": "L5Q7V",
        "name": "OHID - SOUTH EAST (THAMES VALLEY)",
        "primary_role_id": "RO131",
        "role_ids": [
            "RO131"
        ],
        "status": "Active",
        "post_code": "OX11 0RQ",
        "uprn": "Unknown"
    },
    {
        "org_id": "H7C4E",
        "name": "OHID - SOUTH WEST",
        "primary_role_id": "RO131",
        "role_ids": [
            "RO131"
        ],
        "status": "Active",
        "post_code": "BS1 6EH",
        "uprn": "10091761033"
    },
    {
        "org_id": "C1Y3D",
        "name": "OHID - SOUTH EAST (HAMPSHIRE AND ISLE OF WIGHT)",
        "primary_role_id": "RO131",
        "role_ids": [
            "RO131"
        ],
        "status": "Active",
        "post_code": "PO16 7AZ",
        "uprn": "10012130398"
    },
    {
        "org_id": "V9J5F",
        "name": "OHID - YORKSHIRE AND THE HUMBER",
        "primary_role_id": "RO131",
        "role_ids": [
            "RO131"
        ],
        "status": "Active",
        "post_code": "LS1 4PL",
        "uprn": "72547599"
    },
    {
        "org_id": "J1Y1P",
        "name": "DHSC - VICTORIA STREET",
        "primary_role_id": "RO131",
        "role_ids": [
            "RO131"
        ],
        "status": "Active",
        "post_code": "SW1H 0EU",
        "uprn": "100023337655"
    },
    {
        "org_id": "J3M1Q",
        "name": "FIVE OAKS HOSPITAL STORES (PHARMACY)",
        "primary_role_id": "RO131",
        "role_ids": [
            "RO131"
        ],
        "status": "Active",
        "post_code": "JE2 7GS",
        "uprn": "10095006616"
    }
]