[
    {
        "org_id": "VT7",
        "name": "HMP KIRKLEVINGTON GRANGE",
        "primary_role_id": "RO175",
        "role_ids": [
            "RO175"
        ],
        "status": "Active",
        "post_code": "TS15 9PA",
        "uprn": "Unknown"
    },
    {
        "org_id": "WCC",
        "name": "HMP KIRKHAM",
        "primary_role_id": "RO175",
        "role_ids": [
            "RO175"
        ],
        "status": "Active",
        "post_code": "PR4 2RN",
        "uprn": "Unknown"
    },
    {
        "org_id": "WVX",
        "name": "HMP LEEDS",
        "primary_role_id": "RO175",
        "role_ids": [
            "RO175"
        ],
        "status": "Active",
        "post_code": "LS12 2TJ",
        "uprn": "Unknown"
    },
    {
        "org_id": "WR8",
        "name": "HMP LEICESTER",
        "primary_role_id": "RO175",
        "role_ids": [
            "RO175"
        ],
        "status": "Active",
        "post_code": "LE2 7AJ",
        "uprn": "2465057785"
    },
    {
        "org_id": "VQE",
        "name": "HMP LEYHILL",
        "primary_role_id": "RO175",
        "role_ids": [
            "RO175"
        ],
        "status": "Active",
        "post_code": "GL12 8BT",
        "uprn": "Unknown"
    },
    {
        "org_id": "VH7",
        "name": "HMP LINDHOLME",
        "primary_role_id": "RO175",
        "role_ids": [
            "RO175"
        ],
        "status": "Active",
        "post_code": "DN7 6EE",
        "uprn": "Unknown"
    },
    {
        "org_id": "VWE",
        "name": "HMP LIVERPOOL",
        "primary_role_id": "RO175",
        "role_ids": [
            "RO175"
        ],
        "status": "Active",
        "post_code": "L9 3DF",
        "uprn": "38079136"
    },
    {
        "org_id": "VQY",
        "name": "HMP MAIDSTONE",
        "primary_role_id": "RO175",
        "role_ids": [
            "RO175"
        ],
        "status": "Active",
        "post_code": "ME14 1UZ",
        "uprn": "200003717305"
    },
    {
        "org_id": "WM6",
        "name": "HMP MANCHESTER",
        "primary_role_id": "RO175",
        "role_ids": [
            "RO175"
        ],
        "status": "Active",
        "post_code": "M60 9AH",
        "uprn": "Unknown"
    },
    {
        "org_id": "VYG",
        "name": "HMP NOTTINGHAM",
        "primary_role_id": "RO175",
        "role_ids": [
            "RO175"
        ],
        "status": "Active",
        "post_code": "NG5 3AG",
        "uprn": "200001412499"
    },
    {
        "org_id": "WAH",
        "name": "HMP PENTONVILLE",
        "primary_role_id": "RO175",
        "role_ids": [
            "RO175"
        ],
        "status": "Active",
        "post_code": "N7 8TT",
        "uprn": "Unknown"
    },
    {
        "org_id": "VN4",
        "name": "HMP PRESTON",
        "primary_role_id": "RO175",
        "role_ids": [
            "RO175"
        ],
        "status": "Active",
        "post_code": "PR1 5AB",
        "uprn": "Unknown"
    },
    {
        "org_id": "VF7",
        "name": "HMP RANBY",
        "primary_role_id": "RO175",
        "role_ids": [
            "RO175"
        ],
        "status": "Active",
        "post_code": "DN22 8EU",
        "uprn": "Unknown"
    },
    {
        "org_id": "WPT",
        "name": "HMP RISLEY",
        "primary_role_id": "RO175",
        "role_ids": [
            "RO175"
        ],
        "status": "Active",
        "post_code": "WA3 6BP",
        "uprn": "Unknown"
    },
    {
        "org_id": "VF2",
        "name": "HMP SEND",
        "primary_role_id": "RO175",
        "role_ids": [
            "RO175"
        ],
        "status": "Active",
        "post_code": "GU23 7LJ",
        "uprn": "Unknown"
    },
    {
        "org_id": "VV6",
        "name": "HMP STAFFORD",
        "primary_role_id": "RO175",
        "role_ids": [
            "RO175"
        ],
        "status": "Active",
        "post_code": "ST16 3AW",
        "uprn": "200001335547"
    },
    {
        "org_id": "VP9",
        "name": "HMP STANDFORD HILL",
        "primary_role_id": "RO175",
        "role_ids": [
            "RO175"
        ],
        "status": "Active",
        "post_code": "ME12 4AA",
        "uprn": "200002533135"
    },
    {
        "org_id": "VMW",
        "name": "HMP STOCKEN",
        "primary_role_id": "RO175",
        "role_ids": [
            "RO175"
        ],
        "status": "Active",
        "post_code": "LE15 7RD",
        "uprn": "10008626900"
    },
    {
        "org_id": "VJC",
        "name": "HMP THE MOUNT",
        "primary_role_id": "RO175",
        "role_ids": [
            "RO175"
        ],
        "status": "Active",
        "post_code": "HP3 0NZ",
        "uprn": "Unknown"
    },
    {
        "org_id": "VRD",
        "name": "HMP WAKEFIELD",
        "primary_role_id": "RO175",
        "role_ids": [
            "RO175"
        ],
        "status": "Active",
        "post_code": "WF2 9AG",
        "uprn": "63131104"
    },
    {
        "org_id": "WP5",
        "name": "HMP WANDSWORTH",
        "primary_role_id": "RO175",
        "role_ids": [
            "RO175"
        ],
        "status": "Active",
        "post_code": "SW18 3HS",
        "uprn": "Unknown"
    },
    {
        "org_id": "WA5",
        "name": "HMP WAYLAND",
        "primary_role_id": "RO175",
        "role_ids": [
            "RO175"
        ],
        "status": "Active",
        "post_code": "IP25 6RL",
        "uprn": "10011970324"
    },
    {
        "org_id": "WVP",
        "name": "HMP WINCHESTER",
        "primary_role_id": "RO175",
        "role_ids": [
            "RO175"
        ],
        "status": "Active",
        "post_code": "SO22 5DF",
        "uprn": "Unknown"
    },
    {
        "org_id": "WJ8",
        "name": "HMP NORTHUMBERLAND",
        "primary_role_id": "RO175",
        "role_ids": [
            "RO175"
        ],
        "status": "Active",
        "post_code": "NE65 9XG",
        "uprn": "10024651947"
    },
    {
        "org_id": "VGN",
        "name": "HMP ISLE OF WIGHT",
        "primary_role_id": "RO175",
        "role_ids": [
            "RO175"
        ],
        "status": "Active",
        "post_code": "PO30 5RS",
        "uprn": "Unknown"
    },
    {
        "org_id": "VFH",
        "name": "HMP BELMARSH",
        "primary_role_id": "RO175",
        "role_ids": [
            "RO175"
        ],
        "status": "Active",
        "post_code": "SE28 0EB",
        "uprn": "100023266926"
    },
    {
        "org_id": "VQF",
        "name": "HMP BLANTYRE HOUSE",
        "primary_role_id": "RO175",
        "role_ids": [
            "RO175"
        ],
        "status": "Active",
        "post_code": "TN17 2NH",
        "uprn": "Unknown"
    },
    {
        "org_id": "VX7",
        "name": "HMP BRISTOL",
        "primary_role_id": "RO175",
        "role_ids": [
            "RO175"
        ],
        "status": "Active",
        "post_code": "BS7 8PS",
        "uprn": "Unknown"
    },
    {
        "org_id": "VPR",
        "name": "HMP WORMWOOD SCRUBS",
        "primary_role_id": "RO175",
        "role_ids": [
            "RO175"
        ],
        "status": "Active",
        "post_code": "W12 0AE",
        "uprn": "Unknown"
    },
    {
        "org_id": "WQC",
        "name": "HMP THAMESIDE",
        "primary_role_id": "RO175",
        "role_ids": [
            "RO175"
        ],
        "status": "Active",
        "post_code": "SE28 0FJ",
        "uprn": "10010227695"
    },
    {
        "org_id": "VY3",
        "name": "HMP OAKWOOD",
        "primary_role_id": "RO175",
        "role_ids": [
            "RO175"
        ],
        "status": "Active",
        "post_code": "WV10 7QD",
        "uprn": "10090090220"
    },
    {
        "org_id": "WV9",
        "name": "HMP ASHFIELD",
        "primary_role_id": "RO175",
        "role_ids": [
            "RO175"
        ],
        "status": "Active",
        "post_code": "BS16 9QJ",
        "uprn": "Unknown"
    },
    {
        "org_id": "VXC",
        "name": "HMP BULLINGDON",
        "primary_role_id": "RO175",
        "role_ids": [
            "RO175"
        ],
        "status": "Active",
        "post_code": "OX25 1PZ",
        "uprn": "Unknown"
    },
    {
        "org_id": "WWT",
        "name": "HMP SWANSEA",
        "primary_role_id": "RO175",
        "role_ids": [
            "RO175"
        ],
        "status": "Active",
        "post_code": "SA1 3SR",
        "uprn": "100100986762"
    },
    {
        "org_id": "VR6",
        "name": "HMP CARDIFF",
        "primary_role_id": "RO175",
        "role_ids": [
            "RO175"
        ],
        "status": "Active",
        "post_code": "CF24 0UG",
        "uprn": "Unknown"
    },
    {
        "org_id": "WG6",
        "name": "HMP COLDINGLEY",
        "primary_role_id": "RO175",
        "role_ids": [
            "RO175"
        ],
        "status": "Active",
        "post_code": "GU24 9EX",
        "uprn": "Unknown"
    },
    {
        "org_id": "VRH",
        "name": "HMP YOI COOKHAM WOOD",
        "primary_role_id": "RO175",
        "role_ids": [
            "RO175"
        ],
        "status": "Active",
        "post_code": "ME1 3LU",
        "uprn": "Unknown"
    },
    {
        "org_id": "VTH",
        "name": "HMP DARTMOOR",
        "primary_role_id": "RO175",
        "role_ids": [
            "RO175"
        ],
        "status": "Active",
        "post_code": "PL20 6RR",
        "uprn": "Unknown"
    },
    {
        "org_id": "WP3",
        "name": "HMP DURHAM",
        "primary_role_id": "RO175",
        "role_ids": [
            "RO175"
        ],
        "status": "Active",
        "post_code": "DH1 3HU",
        "uprn": "Unknown"
    },
    {
        "org_id": "VN7",
        "name": "HMP ERLESTOKE",
        "primary_role_id": "RO175",
        "role_ids": [
            "RO175"
        ],
        "status": "Active",
        "post_code": "SN10 5TU",
        "uprn": "Unknown"
    },
    {
        "org_id": "VK3",
        "name": "HMP FEATHERSTONE",
        "primary_role_id": "RO175",
        "role_ids": [
            "RO175"
        ],
        "status": "Active",
        "post_code": "WV10 7PU",
        "uprn": "Unknown"
    },
    {
        "org_id": "WFF",
        "name": "HMP LOW NEWTON",
        "primary_role_id": "RO175",
        "role_ids": [
            "RO175"
        ],
        "status": "Active",
        "post_code": "DH1 5YA",
        "uprn": "Unknown"
    },
    {
        "org_id": "WHP",
        "name": "HMP ONLEY",
        "primary_role_id": "RO175",
        "role_ids": [
            "RO175"
        ],
        "status": "Active",
        "post_code": "CV23 8AP",
        "uprn": "28013722"
    },
    {
        "org_id": "WHV",
        "name": "HMP HIGHPOINT NORTH",
        "primary_role_id": "RO175",
        "role_ids": [
            "RO175"
        ],
        "status": "Active",
        "post_code": "CB8 9YN",
        "uprn": "10023127022"
    },
    {
        "org_id": "WTX",
        "name": "HMP FORD",
        "primary_role_id": "RO175",
        "role_ids": [
            "RO175"
        ],
        "status": "Active",
        "post_code": "BN18 0BX",
        "uprn": "Unknown"
    },
    {
        "org_id": "WMX",
        "name": "HMP FRANKLAND",
        "primary_role_id": "RO175",
        "role_ids": [
            "RO175"
        ],
        "status": "Active",
        "post_code": "DH1 5YD",
        "uprn": "Unknown"
    },
    {
        "org_id": "VGT",
        "name": "HMP FULL SUTTON",
        "primary_role_id": "RO175",
        "role_ids": [
            "RO175"
        ],
        "status": "Active",
        "post_code": "YO41 1PS",
        "uprn": "Unknown"
    },
    {
        "org_id": "VN2",
        "name": "HMP GARTH",
        "primary_role_id": "RO175",
        "role_ids": [
            "RO175"
        ],
        "status": "Active",
        "post_code": "PR26 8NE",
        "uprn": "Unknown"
    },
    {
        "org_id": "WMM",
        "name": "HMP GARTREE",
        "primary_role_id": "RO175",
        "role_ids": [
            "RO175"
        ],
        "status": "Active",
        "post_code": "LE16 7RP",
        "uprn": "Unknown"
    },
    {
        "org_id": "WG3",
        "name": "HMP BRONZEFIELD",
        "primary_role_id": "RO175",
        "role_ids": [
            "RO175"
        ],
        "status": "Active",
        "post_code": "TW15 3JZ",
        "uprn": "Unknown"
    },
    {
        "org_id": "VQ4",
        "name": "HMP PETERBOROUGH",
        "primary_role_id": "RO175",
        "role_ids": [
            "RO175"
        ],
        "status": "Active",
        "post_code": "PE3 7PD",
        "uprn": "10008051379"
    },
    {
        "org_id": "VG2",
        "name": "HMP HEWELL",
        "primary_role_id": "RO175",
        "role_ids": [
            "RO175"
        ],
        "status": "Active",
        "post_code": "B97 6QS",
        "uprn": "Unknown"
    },
    {
        "org_id": "WQW",
        "name": "HMP HOLME HOUSE",
        "primary_role_id": "RO175",
        "role_ids": [
            "RO175"
        ],
        "status": "Active",
        "post_code": "TS18 2QU",
        "uprn": "Unknown"
    },
    {
        "org_id": "VD8",
        "name": "HMP HULL",
        "primary_role_id": "RO175",
        "role_ids": [
            "RO175"
        ],
        "status": "Active",
        "post_code": "HU9 5LS",
        "uprn": "Unknown"
    },
    {
        "org_id": "WRF",
        "name": "HMP WEALSTUN",
        "primary_role_id": "RO175",
        "role_ids": [
            "RO175"
        ],
        "status": "Active",
        "post_code": "LS23 7AZ",
        "uprn": "Unknown"
    },
    {
        "org_id": "WVD",
        "name": "HMP SUDBURY",
        "primary_role_id": "RO175",
        "role_ids": [
            "RO175"
        ],
        "status": "Active",
        "post_code": "DE6 5HW",
        "uprn": "Unknown"
    },
    {
        "org_id": "VXL",
        "name": "HMP FOSTON HALL",
        "primary_role_id": "RO175",
        "role_ids": [
            "RO175"
        ],
        "status": "Active",
        "post_code": "DE65 5DN",
        "uprn": "10000819194"
    },
    {
        "org_id": "WG4",
        "name": "HMP ROCHESTER",
        "primary_role_id": "RO175",
        "role_ids": [
            "RO175"
        ],
        "status": "Active",
        "post_code": "ME1 3QS",
        "uprn": "44010823"
    },
    {
        "org_id": "VPA",
        "name": "WARREN HILL",
        "primary_role_id": "RO175",
        "role_ids": [
            "RO175"
        ],
        "status": "Active",
        "post_code": "IP12 3BF",
        "uprn": "10008620969"
    },
    {
        "org_id": "WLV",
        "name": "HMP LINCOLN",
        "primary_role_id": "RO175",
        "role_ids": [
            "RO175"
        ],
        "status": "Active",
        "post_code": "LN2 4BD",
        "uprn": "Unknown"
    },
    {
        "org_id": "WXX",
        "name": "HMP CHANNINGS WOOD",
        "primary_role_id": "RO175",
        "role_ids": [
            "RO175"
        ],
        "status": "Active",
        "post_code": "TQ12 6DW",
        "uprn": "Unknown"
    },
    {
        "org_id": "WQP",
        "name": "HMP WOODHILL",
        "primary_role_id": "RO175",
        "role_ids": [
            "RO175"
        ],
        "status": "Active",
        "post_code": "MK4 4DA",
        "uprn": "Unknown"
    },
    {
        "org_id": "VLL",
        "name": "HMP BURE",
        "primary_role_id": "RO175",
        "role_ids": [
            "RO175"
        ],
        "status": "Active",
        "post_code": "NR10 5GB",
        "uprn": "Unknown"
    },
    {
        "org_id": "VYQ",
        "name": "HMP CANTERBURY",
        "primary_role_id": "RO175",
        "role_ids": [
            "RO175"
        ],
        "status": "Active",
        "post_code": "CT1 1PJ",
        "uprn": "Unknown"
    },
    {
        "org_id": "WGC",
        "name": "HMP DOWNVIEW",
        "primary_role_id": "RO175",
        "role_ids": [
            "RO175"
        ],
        "status": "Active",
        "post_code": "SM2 5PD",
        "uprn": "68136669"
    },
    {
        "org_id": "VR8",
        "name": "HMP LEWES",
        "primary_role_id": "RO175",
        "role_ids": [
            "RO175"
        ],
        "status": "Active",
        "post_code": "BN7 1EA",
        "uprn": "100062273779"
    },
    {
        "org_id": "VE4",
        "name": "HMP BEDFORD",
        "primary_role_id": "RO175",
        "role_ids": [
            "RO175"
        ],
        "status": "Active",
        "post_code": "MK40 1HG",
        "uprn": "Unknown"
    },
    {
        "org_id": "VPY",
        "name": "HMP RYE HILL",
        "primary_role_id": "RO175",
        "role_ids": [
            "RO175"
        ],
        "status": "Active",
        "post_code": "CV23 8SZ",
        "uprn": "28042679"
    },
    {
        "org_id": "VDN",
        "name": "HMP ELMLEY",
        "primary_role_id": "RO175",
        "role_ids": [
            "RO175"
        ],
        "status": "Active",
        "post_code": "ME12 4DZ",
        "uprn": "100062087837"
    },
    {
        "org_id": "WW0",
        "name": "HMP HUMBER",
        "primary_role_id": "RO175",
        "role_ids": [
            "RO175"
        ],
        "status": "Active",
        "post_code": "HU15 2JZ",
        "uprn": "Unknown"
    },
    {
        "org_id": "WJ9",
        "name": "HMP WYMOTT",
        "primary_role_id": "RO175",
        "role_ids": [
            "RO175"
        ],
        "status": "Active",
        "post_code": "PR26 8LW",
        "uprn": "Unknown"
    },
    {
        "org_id": "WEC",
        "name": "HMP LONG LARTIN",
        "primary_role_id": "RO175",
        "role_ids": [
            "RO175"
        ],
        "status": "Active",
        "post_code": "WR11 8TZ",
        "uprn": "10013943723"
    },
    {
        "org_id": "WHY",
        "name": "HMP DOVEGATE",
        "primary_role_id": "RO175",
        "role_ids": [
            "RO175"
        ],
        "status": "Active",
        "post_code": "ST14 8XR",
        "uprn": "Unknown"
    },
    {
        "org_id": "VGC",
        "name": "HMP WHITEMOOR",
        "primary_role_id": "RO175",
        "role_ids": [
            "RO175"
        ],
        "status": "Active",
        "post_code": "PE15 0PR",
        "uprn": "Unknown"
    },
    {
        "org_id": "WL4",
        "name": "HMP SWALESIDE",
        "primary_role_id": "RO175",
        "role_ids": [
            "RO175"
        ],
        "status": "Active",
        "post_code": "ME12 4AX",
        "uprn": "100062087838"
    },
    {
        "org_id": "WJ6",
        "name": "HMP USK",
        "primary_role_id": "RO175",
        "role_ids": [
            "RO175"
        ],
        "status": "Active",
        "post_code": "NP15 1XP",
        "uprn": "200000955803"
    },
    {
        "org_id": "VTD",
        "name": "HMP HAVERIGG",
        "primary_role_id": "RO175",
        "role_ids": [
            "RO175"
        ],
        "status": "Active",
        "post_code": "LA18 4NA",
        "uprn": "100110755872"
    },
    {
        "org_id": "WFY",
        "name": "HMP WHATTON",
        "primary_role_id": "RO175",
        "role_ids": [
            "RO175"
        ],
        "status": "Active",
        "post_code": "NG13 9FQ",
        "uprn": "Unknown"
    },
    {
        "org_id": "VRN",
        "name": "HMP BRIXTON",
        "primary_role_id": "RO175",
        "role_ids": [
            "RO175"
        ],
        "status": "Active",
        "post_code": "SW2 5XF",
        "uprn": "Unknown"
    },
    {
        "org_id": "WFV",
        "name": "HMP KENNET",
        "primary_role_id": "RO175",
        "role_ids": [
            "RO175"
        ],
        "status": "Active",
        "post_code": "L31 1HX",
        "uprn": "Unknown"
    },
    {
        "org_id": "WPJ",
        "name": "HMP ALTCOURSE",
        "primary_role_id": "RO175",
        "role_ids": [
            "RO175"
        ],
        "status": "Active",
        "post_code": "L9 7LH",
        "uprn": "Unknown"
    },
    {
        "org_id": "VJ0",
        "name": "HMP BIRMINGHAM",
        "primary_role_id": "RO175",
        "role_ids": [
            "RO175"
        ],
        "status": "Active",
        "post_code": "B18 4AS",
        "uprn": "Unknown"
    },
    {
        "org_id": "WXA",
        "name": "HMP LITTLEHEY",
        "primary_role_id": "RO175",
        "role_ids": [
            "RO175"
        ],
        "status": "Active",
        "post_code": "PE28 0SR",
        "uprn": "Unknown"
    },
    {
        "org_id": "WW1",
        "name": "HMP HIGH DOWN",
        "primary_role_id": "RO175",
        "role_ids": [
            "RO175"
        ],
        "status": "Active",
        "post_code": "SM2 5PJ",
        "uprn": "100062499824"
    },
    {
        "org_id": "WT3",
        "name": "HMP GRENDON",
        "primary_role_id": "RO175",
        "role_ids": [
            "RO175"
        ],
        "status": "Active",
        "post_code": "HP18 0TL",
        "uprn": "Unknown"
    },
    {
        "org_id": "WNV",
        "name": "HMP BUCKLEY HALL",
        "primary_role_id": "RO175",
        "role_ids": [
            "RO175"
        ],
        "status": "Active",
        "post_code": "OL12 9DP",
        "uprn": "Unknown"
    },
    {
        "org_id": "VPW",
        "name": "HMP LOWDHAM GRANGE",
        "primary_role_id": "RO175",
        "role_ids": [
            "RO175"
        ],
        "status": "Active",
        "post_code": "NG14 7DA",
        "uprn": "10008170171"
    },
    {
        "org_id": "WGW",
        "name": "HMP NORTH SEA CAMP",
        "primary_role_id": "RO175",
        "role_ids": [
            "RO175"
        ],
        "status": "Active",
        "post_code": "PE22 0QX",
        "uprn": "Unknown"
    },
    {
        "org_id": "VVR",
        "name": "HMP SPRING HILL",
        "primary_role_id": "RO175",
        "role_ids": [
            "RO175"
        ],
        "status": "Active",
        "post_code": "HP18 0TL",
        "uprn": "Unknown"
    },
    {
        "org_id": "WJK",
        "name": "HMP BERWYN",
        "primary_role_id": "RO175",
        "role_ids": [
            "RO175"
        ],
        "status": "Active",
        "post_code": "LL13 9QE",
        "uprn": "Unknown"
    },
    {
        "org_id": "WTV",
        "name": "HMP THE VERNE",
        "primary_role_id": "RO175",
        "role_ids": [
            "RO175"
        ],
        "status": "Active",
        "post_code": "DT5 1EQ",
        "uprn": "Unknown"
    },
    {
        "org_id": "O8O1A",
        "name": "HMP PRESCOED",
        "primary_role_id": "RO175",
        "role_ids": [
            "RO175"
        ],
        "status": "Active",
        "post_code": "NP4 0TB",
        "uprn": "10033348129"
    },
    {
        "org_id": "M4M6Z",
        "name": "HMP FIVE WELLS",
        "primary_role_id": "RO175",
        "role_ids": [
            "RO175"
        ],
        "status": "Active",
        "post_code": "NN8 2NG",
        "uprn": "Unknown"
    },
    {
        "org_id": "C9D2H",
        "name": "MORTON HALL PRISON",
        "primary_role_id": "RO175",
        "role_ids": [
            "RO175"
        ],
        "status": "Active",
        "post_code": "LN6 9PT",
        "uprn": "10006531346"
    },
    {
        "org_id": "R6S8H",
        "name": "HMP EXETER",
        "primary_role_id": "RO175",
        "role_ids": [
            "RO175"
        ],
        "status": "Active",
        "post_code": "EX4 4EX",
        "uprn": "100041142520"
    },
    {
        "org_id": "B0R2C",
        "name": "HMP GUYS MARSH",
        "primary_role_id": "RO175",
        "role_ids": [
            "RO175"
        ],
        "status": "Active",
        "post_code": "SP7 0AH",
        "uprn": "10013217671"
    },
    {
        "org_id": "C0L4M",
        "name": "HMP FOSSE WAY",
        "primary_role_id": "RO175",
        "role_ids": [
            "RO175"
        ],
        "status": "Active",
        "post_code": "LE18 4WS",
        "uprn": "10010146566"
    },
    {
        "org_id": "W2I2K",
        "name": "HMP FELTHAM B",
        "primary_role_id": "RO175",
        "role_ids": [
            "RO175"
        ],
        "status": "Active",
        "post_code": "TW13 4NP",
        "uprn": "Unknown"
    },
    {
        "org_id": "N8N0K",
        "name": "HMP COOKHAM WOOD",
        "primary_role_id": "RO175",
        "role_ids": [
            "RO175"
        ],
        "status": "Active",
        "post_code": "ME1 3LU",
        "uprn": "100062374701"
    },
    {
        "org_id": "P2J2Z",
        "name": "HMP MILLSIKE",
        "primary_role_id": "RO175",
        "role_ids": [
            "RO175"
        ],
        "status": "Active",
        "post_code": "YO41 1PS",
        "uprn": "200000641988"
    }
]