[
    {
        "org_id": "VX8",
        "name": "THE HARBOUR CENTRE",
        "primary_role_id": "RO236",
        "role_ids": [
            "RO236"
        ],
        "status": "Active",
        "post_code": "NR6 5QH",
        "uprn": "Unknown"
    },
    {
        "org_id": "WT7",
        "name": "THE FERNS",
        "primary_role_id": "RO236",
        "role_ids": [
            "RO236"
        ],
        "status": "Active",
        "post_code": "IP3 9FH",
        "uprn": "Unknown"
    },
    {
        "org_id": "VG5",
        "name": "THE SUNFLOWER CENTRE",
        "primary_role_id": "RO236",
        "role_ids": [
            "RO236"
        ],
        "status": "Active",
        "post_code": "HP1 1JQ",
        "uprn": "Unknown"
    },
    {
        "org_id": "WP1",
        "name": "THE OASIS CENTRE",
        "primary_role_id": "RO236",
        "role_ids": [
            "RO236"
        ],
        "status": "Active",
        "post_code": "PE1 1ES",
        "uprn": "Unknown"
    },
    {
        "org_id": "WLR",
        "name": "THE EMERALD CENTRE",
        "primary_role_id": "RO236",
        "role_ids": [
            "RO236"
        ],
        "status": "Active",
        "post_code": "MK40 2NT",
        "uprn": "Unknown"
    },
    {
        "org_id": "VFC",
        "name": "OAKWOOD PLACE",
        "primary_role_id": "RO236",
        "role_ids": [
            "RO236"
        ],
        "status": "Active",
        "post_code": "CM15 8DR",
        "uprn": "Unknown"
    },
    {
        "org_id": "VT0",
        "name": "THE ELMS",
        "primary_role_id": "RO236",
        "role_ids": [
            "RO236"
        ],
        "status": "Active",
        "post_code": "PE29 6NT",
        "uprn": "Unknown"
    },
    {
        "org_id": "VFF",
        "name": "BIRMINGHAM (HORIZON SARC)",
        "primary_role_id": "RO236",
        "role_ids": [
            "RO236"
        ],
        "status": "Active",
        "post_code": "B36 8GH",
        "uprn": "10090256861"
    },
    {
        "org_id": "WP0",
        "name": "LEICESTERSHIRE SARC",
        "primary_role_id": "RO236",
        "role_ids": [
            "RO236"
        ],
        "status": "Active",
        "post_code": "LE3 6RJ",
        "uprn": "2465011171"
    },
    {
        "org_id": "VRE",
        "name": "NOTTINGHAMSHIRE SARC",
        "primary_role_id": "RO236",
        "role_ids": [
            "RO236"
        ],
        "status": "Active",
        "post_code": "NG1 5LP",
        "uprn": "Unknown"
    },
    {
        "org_id": "WL1",
        "name": "LINCOLNSHIRE SARC",
        "primary_role_id": "RO236",
        "role_ids": [
            "RO236"
        ],
        "status": "Active",
        "post_code": "LN2 4DR",
        "uprn": "235046155"
    },
    {
        "org_id": "WAD",
        "name": "WALSALL SARC",
        "primary_role_id": "RO236",
        "role_ids": [
            "RO236"
        ],
        "status": "Active",
        "post_code": "WS2 9SR",
        "uprn": "100071370829"
    },
    {
        "org_id": "WJW",
        "name": "STOKE ON TRENT SARC",
        "primary_role_id": "RO236",
        "role_ids": [
            "RO236"
        ],
        "status": "Active",
        "post_code": "ST6 2JN",
        "uprn": "3455140146"
    },
    {
        "org_id": "WY5",
        "name": "BRANSFORD SARC",
        "primary_role_id": "RO236",
        "role_ids": [
            "RO236"
        ],
        "status": "Active",
        "post_code": "WR6 5JD",
        "uprn": "10014092133"
    },
    {
        "org_id": "VW8",
        "name": "TELFORD SARC",
        "primary_role_id": "RO236",
        "role_ids": [
            "RO236"
        ],
        "status": "Active",
        "post_code": "TF1 2BB",
        "uprn": "Unknown"
    },
    {
        "org_id": "VXF",
        "name": "NUNEATON SARC",
        "primary_role_id": "RO236",
        "role_ids": [
            "RO236"
        ],
        "status": "Active",
        "post_code": "CV10 7DJ",
        "uprn": "Unknown"
    },
    {
        "org_id": "VJ8",
        "name": "NOTTS PAEDIATRIC SARC",
        "primary_role_id": "RO236",
        "role_ids": [
            "RO236"
        ],
        "status": "Active",
        "post_code": "NG7 2UH",
        "uprn": "Unknown"
    },
    {
        "org_id": "WX9",
        "name": "DERBYSHIRE SARC",
        "primary_role_id": "RO236",
        "role_ids": [
            "RO236"
        ],
        "status": "Active",
        "post_code": "DE5 9QG",
        "uprn": "Unknown"
    },
    {
        "org_id": "R2E6N",
        "name": "SWINDON AND WILTSHIRE SARC",
        "primary_role_id": "RO236",
        "role_ids": [
            "RO236"
        ],
        "status": "Active",
        "post_code": "SN3 4RB",
        "uprn": "Unknown"
    },
    {
        "org_id": "E5D8O",
        "name": "DERBYSHIRE SARC - MOUNTAIN HEALTHCARE LIMITED",
        "primary_role_id": "RO236",
        "role_ids": [
            "RO236"
        ],
        "status": "Active",
        "post_code": "DE55 7BU",
        "uprn": "10094135970"
    },
    {
        "org_id": "U9K3M",
        "name": "THE BRIDGEWAY SARC",
        "primary_role_id": "RO236",
        "role_ids": [
            "RO236"
        ],
        "status": "Active",
        "post_code": "CA11 8JA",
        "uprn": "100110729258"
    },
    {
        "org_id": "A6E8P",
        "name": "SUSSEX CHILDREN'S SARC",
        "primary_role_id": "RO236",
        "role_ids": [
            "RO236"
        ],
        "status": "Active",
        "post_code": "BN2 3EW",
        "uprn": "22088627"
    },
    {
        "org_id": "W4J4D",
        "name": "LANCASHIRE SAFE CENTRE",
        "primary_role_id": "RO236",
        "role_ids": [
            "RO236"
        ],
        "status": "Active",
        "post_code": "PR2 9HT",
        "uprn": "100012750544"
    },
    {
        "org_id": "D6U2U",
        "name": "THE SOLACE - THAMES VALLEY",
        "primary_role_id": "RO236",
        "role_ids": [
            "RO236"
        ],
        "status": "Active",
        "post_code": "SL1 2BJ",
        "uprn": "Unknown"
    },
    {
        "org_id": "Q1U0M",
        "name": "DEVON AND CORNWALL SARCS",
        "primary_role_id": "RO236",
        "role_ids": [
            "RO236"
        ],
        "status": "Active",
        "post_code": "EX2 5AZ",
        "uprn": "100041132283"
    },
    {
        "org_id": "J9M3O",
        "name": "THE BRIDGE SEXUAL ASSAULT REFERRAL CENTRE",
        "primary_role_id": "RO236",
        "role_ids": [
            "RO236"
        ],
        "status": "Active",
        "post_code": "BS2 0JD",
        "uprn": "104252"
    },
    {
        "org_id": "Z4J0U",
        "name": "THE HAVENS",
        "primary_role_id": "RO236",
        "role_ids": [
            "RO236"
        ],
        "status": "Active",
        "post_code": "SE5 9RS",
        "uprn": "100023275065"
    },
    {
        "org_id": "N6N7B",
        "name": "THE SHORES - DORSET SARC",
        "primary_role_id": "RO236",
        "role_ids": [
            "RO236"
        ],
        "status": "Active",
        "post_code": "BH1 1QQ",
        "uprn": "Unknown"
    },
    {
        "org_id": "G5F5J",
        "name": "SAFE PLACE MERSEYSIDE",
        "primary_role_id": "RO236",
        "role_ids": [
            "RO236"
        ],
        "status": "Active",
        "post_code": "L1 4AP",
        "uprn": "38293524"
    },
    {
        "org_id": "P3S5F",
        "name": "SAINT MARY'S MANCHESTER SEXUAL ASSAULT REFERRAL CENTRE",
        "primary_role_id": "RO236",
        "role_ids": [
            "RO236"
        ],
        "status": "Active",
        "post_code": "M13 9WL",
        "uprn": "77118466"
    },
    {
        "org_id": "R3Y5N",
        "name": "THE TREETOPS CENTRE SARC",
        "primary_role_id": "RO236",
        "role_ids": [
            "RO236"
        ],
        "status": "Active",
        "post_code": "PO6 3EP",
        "uprn": "1775107544"
    },
    {
        "org_id": "T7S5F",
        "name": "KENT SARC - MOUNTAIN HEALTHCARE LIMITED",
        "primary_role_id": "RO236",
        "role_ids": [
            "RO236"
        ],
        "status": "Active",
        "post_code": "ME15 6JZ",
        "uprn": "200003716968"
    },
    {
        "org_id": "G1B4W",
        "name": "SURREY SARC - MOUNTAIN HEALTHCARE LIMITED",
        "primary_role_id": "RO236",
        "role_ids": [
            "RO236"
        ],
        "status": "Active",
        "post_code": "KT11 1HT",
        "uprn": "100062356742"
    },
    {
        "org_id": "Y1D3W",
        "name": "SUSSEX SARC - MOUNTAIN HEALTHCARE LIMITED",
        "primary_role_id": "RO236",
        "role_ids": [
            "RO236"
        ],
        "status": "Active",
        "post_code": "RH11 7DH",
        "uprn": "100062475082"
    },
    {
        "org_id": "R9G6B",
        "name": "CLEVELAND SARC - MOUNTAIN HEALTHCARE LIMITED",
        "primary_role_id": "RO236",
        "role_ids": [
            "RO236"
        ],
        "status": "Active",
        "post_code": "TS3 6AL",
        "uprn": "Unknown"
    },
    {
        "org_id": "B6H6R",
        "name": "DURHAM SARC - MOUNTAIN HEALTHCARE LIMITED",
        "primary_role_id": "RO236",
        "role_ids": [
            "RO236"
        ],
        "status": "Active",
        "post_code": "DH3 3UA",
        "uprn": "Unknown"
    },
    {
        "org_id": "R9R4Z",
        "name": "NORTHUMBRIA SARC - MOUNTAIN HEALTHCARE LIMITED",
        "primary_role_id": "RO236",
        "role_ids": [
            "RO236"
        ],
        "status": "Active",
        "post_code": "NE1 6ND",
        "uprn": "Unknown"
    },
    {
        "org_id": "P6H2V",
        "name": "BEDFORDSHIRE SARC - MOUNTAIN HEALTHCARE LIMITED",
        "primary_role_id": "RO236",
        "role_ids": [
            "RO236"
        ],
        "status": "Active",
        "post_code": "MK45 2ND",
        "uprn": "Unknown"
    },
    {
        "org_id": "Q7O3K",
        "name": "HUMBER SARC - MOUNTAIN HEALTHCARE LIMITED",
        "primary_role_id": "RO236",
        "role_ids": [
            "RO236"
        ],
        "status": "Active",
        "post_code": "HU4 6RD",
        "uprn": "10094917726"
    },
    {
        "org_id": "Z3N7F",
        "name": "NORTH YORKSHIRE SARC - MOUNTAIN HEALTHCARE LIMITED",
        "primary_role_id": "RO236",
        "role_ids": [
            "RO236"
        ],
        "status": "Active",
        "post_code": "YO23 2RR",
        "uprn": "Unknown"
    },
    {
        "org_id": "N8Z0Q",
        "name": "DEWSBURY SARC - MOUNTAIN HEALTHCARE LIMITED",
        "primary_role_id": "RO236",
        "role_ids": [
            "RO236"
        ],
        "status": "Active",
        "post_code": "LS27 7LE",
        "uprn": "Unknown"
    },
    {
        "org_id": "L7Y0S",
        "name": "NOTTINGHAMSHIRE SARC - MOUNTAIN HEALTHCARE LIMITED",
        "primary_role_id": "RO236",
        "role_ids": [
            "RO236"
        ],
        "status": "Active",
        "post_code": "NG5 5SS",
        "uprn": "Unknown"
    },
    {
        "org_id": "Q1P2N",
        "name": "WEST MIDLANDS SARC - MOUNTAIN HEALTHCARE LIMITED",
        "primary_role_id": "RO236",
        "role_ids": [
            "RO236"
        ],
        "status": "Active",
        "post_code": "WS10 8SY",
        "uprn": "Unknown"
    },
    {
        "org_id": "X2H9Z",
        "name": "SHEFFIELD SARC",
        "primary_role_id": "RO236",
        "role_ids": [
            "RO236"
        ],
        "status": "Active",
        "post_code": "S12 4PQ",
        "uprn": "200003009860"
    },
    {
        "org_id": "N3Q0S",
        "name": "GLOUCESTERSHIRE RAPE AND SEXUAL ABUSE CENTRE",
        "primary_role_id": "RO236",
        "role_ids": [
            "RO236"
        ],
        "status": "Active",
        "post_code": "GL2 8DN",
        "uprn": "200002914996"
    },
    {
        "org_id": "T6P7Q",
        "name": "THE ANGEL CENTRE, GATESHEAD",
        "primary_role_id": "RO236",
        "role_ids": [
            "RO236"
        ],
        "status": "Active",
        "post_code": "NE11 0NA",
        "uprn": "Unknown"
    },
    {
        "org_id": "R7L7E",
        "name": "SAINT MARY'S CHESHIRE SEXUAL ASSAULT REFERRAL CENTRE",
        "primary_role_id": "RO236",
        "role_ids": [
            "RO236"
        ],
        "status": "Active",
        "post_code": "M13 9WL",
        "uprn": "77118466"
    },
    {
        "org_id": "S6B1S",
        "name": "THE HAZLEHURST CENTRE (PAEDS)",
        "primary_role_id": "RO236",
        "role_ids": [
            "RO236"
        ],
        "status": "Active",
        "post_code": "WF12 7HP",
        "uprn": "Unknown"
    },
    {
        "org_id": "W1I8B",
        "name": "THE SHORES - DORSET SARC",
        "primary_role_id": "RO236",
        "role_ids": [
            "RO236"
        ],
        "status": "Active",
        "post_code": "BH1 1QQ",
        "uprn": "Unknown"
    }
]