[
    {
        "org_id": "X09",
        "name": "NHS CONNECTING FOR HEALTH",
        "primary_role_id": "RO116",
        "role_ids": [
            "RO116"
        ],
        "status": "Active",
        "post_code": "LS1 4HY",
        "uprn": "Unknown"
    },
    {
        "org_id": "X19",
        "name": "HEADQUARTERS SURGEON GENERAL",
        "primary_role_id": "RO116",
        "role_ids": [
            "RO116"
        ],
        "status": "Active",
        "post_code": "WS14 9PY",
        "uprn": "Unknown"
    },
    {
        "org_id": "X14",
        "name": "VETERANS AGENCY",
        "primary_role_id": "RO116",
        "role_ids": [
            "RO116"
        ],
        "status": "Active",
        "post_code": "FY5 3WP",
        "uprn": "Unknown"
    },
    {
        "org_id": "X25",
        "name": "PUBLIC HEALTH ENGLAND",
        "primary_role_id": "RO116",
        "role_ids": [
            "RO116"
        ],
        "status": "Active",
        "post_code": "SE1 8UG",
        "uprn": "Unknown"
    },
    {
        "org_id": "X26",
        "name": "NHS ENGLAND - X26",
        "primary_role_id": "RO116",
        "role_ids": [
            "RO116"
        ],
        "status": "Active",
        "post_code": "LS1 4AP",
        "uprn": "72766088"
    },
    {
        "org_id": "X27",
        "name": "UK BORDER FORCE (SOUTH)",
        "primary_role_id": "RO116",
        "role_ids": [
            "RO116"
        ],
        "status": "Active",
        "post_code": "SO16 4HP",
        "uprn": "Unknown"
    },
    {
        "org_id": "X29",
        "name": "OFFICE OF THE NATIONAL DATA GUARDIAN",
        "primary_role_id": "RO116",
        "role_ids": [
            "RO116"
        ],
        "status": "Active",
        "post_code": "LS1 4AP",
        "uprn": "72766088"
    },
    {
        "org_id": "X31",
        "name": "PHARMACY",
        "primary_role_id": "RO116",
        "role_ids": [
            "RO116"
        ],
        "status": "Active",
        "post_code": "LS1 4AP",
        "uprn": "Unknown"
    },
    {
        "org_id": "X32",
        "name": "UK CALDICOTT GUARDIAN COUNCIL",
        "primary_role_id": "RO116",
        "role_ids": [
            "RO116"
        ],
        "status": "Active",
        "post_code": "LS1 4AP",
        "uprn": "Unknown"
    },
    {
        "org_id": "X33",
        "name": "GP LOCUM",
        "primary_role_id": "RO116",
        "role_ids": [
            "RO116"
        ],
        "status": "Active",
        "post_code": "LS1 4AP",
        "uprn": "Unknown"
    },
    {
        "org_id": "X34",
        "name": "COVID19 RESPONSE TEAM",
        "primary_role_id": "RO116",
        "role_ids": [
            "RO116"
        ],
        "status": "Active",
        "post_code": "LS1 4AP",
        "uprn": "Unknown"
    },
    {
        "org_id": "X36",
        "name": "UK HEALTH SECURITY AGENCY",
        "primary_role_id": "RO116",
        "role_ids": [
            "RO116"
        ],
        "status": "Active",
        "post_code": "E14 5EA",
        "uprn": "Unknown"
    },
    {
        "org_id": "Z1E5K",
        "name": "HEALTH SERVICES SAFETY INVESTIGATIONS BODY",
        "primary_role_id": "RO116",
        "role_ids": [
            "RO116"
        ],
        "status": "Active",
        "post_code": "RG1 7EB",
        "uprn": "310024603"
    },
    {
        "org_id": "V2C6C",
        "name": "CHILDREN'S COMMISSIONER'S OFFICE",
        "primary_role_id": "RO116",
        "role_ids": [
            "RO116"
        ],
        "status": "Active",
        "post_code": "SW1P 3BT",
        "uprn": "10091843700"
    }
]