[
    {
        "org_id": "Z00001",
        "name": "DR. HOEY & PARTNERS",
        "primary_role_id": "RO315",
        "role_ids": [
            "RO315"
        ],
        "status": "Active",
        "post_code": "BT4 1NS",
        "uprn": "Unknown"
    },
    {
        "org_id": "Z00003",
        "name": "DR. MCCUTCHEON & PARTNERS",
        "primary_role_id": "RO315",
        "role_ids": [
            "RO315"
        ],
        "status": "Active",
        "post_code": "BT4 1NS",
        "uprn": "Unknown"
    },
    {
        "org_id": "Z00006",
        "name": "DR. MASON & PARTNERS",
        "primary_role_id": "RO315",
        "role_ids": [
            "RO315"
        ],
        "status": "Active",
        "post_code": "BT8 8HR",
        "uprn": "185068244"
    },
    {
        "org_id": "Z00010",
        "name": "DR. WILSON & PARTNERS",
        "primary_role_id": "RO315",
        "role_ids": [
            "RO315"
        ],
        "status": "Active",
        "post_code": "BT5 4PX",
        "uprn": "185871053"
    },
    {
        "org_id": "Z00014",
        "name": "DR. MILLAR & PARTNERS",
        "primary_role_id": "RO315",
        "role_ids": [
            "RO315"
        ],
        "status": "Active",
        "post_code": "BT4 3HZ",
        "uprn": "185015841"
    },
    {
        "org_id": "Z00015",
        "name": "DR. MCCALLAN & PARTNERS",
        "primary_role_id": "RO315",
        "role_ids": [
            "RO315"
        ],
        "status": "Active",
        "post_code": "BT4 1NT",
        "uprn": "185007410"
    },
    {
        "org_id": "Z00016",
        "name": "DR. MCCANN & PARTNERS",
        "primary_role_id": "RO315",
        "role_ids": [
            "RO315"
        ],
        "status": "Active",
        "post_code": "BT4 3LH",
        "uprn": "187133833"
    },
    {
        "org_id": "Z00017",
        "name": "DR. LARGE & PARTNERS",
        "primary_role_id": "RO315",
        "role_ids": [
            "RO315"
        ],
        "status": "Active",
        "post_code": "BT4 1NS",
        "uprn": "Unknown"
    },
    {
        "org_id": "Z00018",
        "name": "DR. MCCONVILLE & PARTNERS",
        "primary_role_id": "RO315",
        "role_ids": [
            "RO315"
        ],
        "status": "Active",
        "post_code": "BT5 4ES",
        "uprn": "187630721"
    },
    {
        "org_id": "Z00019",
        "name": "DR. MITCHELL & PARTNERS",
        "primary_role_id": "RO315",
        "role_ids": [
            "RO315"
        ],
        "status": "Active",
        "post_code": "BT5 5DY",
        "uprn": "Unknown"
    },
    {
        "org_id": "Z00020",
        "name": "DR. LUA & PARTNERS",
        "primary_role_id": "RO315",
        "role_ids": [
            "RO315"
        ],
        "status": "Active",
        "post_code": "BT4 1NS",
        "uprn": "Unknown"
    },
    {
        "org_id": "Z00024",
        "name": "DR. MCCLOSKEY & PARTNERS",
        "primary_role_id": "RO315",
        "role_ids": [
            "RO315"
        ],
        "status": "Active",
        "post_code": "BT5 4NH",
        "uprn": "Unknown"
    },
    {
        "org_id": "Z00028",
        "name": "DR. GALLAGHER & PARTNERS",
        "primary_role_id": "RO315",
        "role_ids": [
            "RO315"
        ],
        "status": "Active",
        "post_code": "BT4 1NS",
        "uprn": "Unknown"
    },
    {
        "org_id": "Z00029",
        "name": "DR. LEITCH & PARTNERS",
        "primary_role_id": "RO315",
        "role_ids": [
            "RO315"
        ],
        "status": "Active",
        "post_code": "BT5 7LH",
        "uprn": "185033087"
    },
    {
        "org_id": "Z00030",
        "name": "DR. THOMPSON & PARTNER",
        "primary_role_id": "RO315",
        "role_ids": [
            "RO315"
        ],
        "status": "Active",
        "post_code": "BT5 4FT",
        "uprn": "185017658"
    },
    {
        "org_id": "Z00031",
        "name": "DR. COOKE & PARTNERS",
        "primary_role_id": "RO315",
        "role_ids": [
            "RO315"
        ],
        "status": "Active",
        "post_code": "BT16 2LN",
        "uprn": "Unknown"
    },
    {
        "org_id": "Z00032",
        "name": "DR. KELLY & PARTNERS",
        "primary_role_id": "RO315",
        "role_ids": [
            "RO315"
        ],
        "status": "Active",
        "post_code": "BT5 5FP",
        "uprn": "185021853"
    },
    {
        "org_id": "Z00033",
        "name": "DR. RODGERS & PARTNERS",
        "primary_role_id": "RO315",
        "role_ids": [
            "RO315"
        ],
        "status": "Active",
        "post_code": "BT6 9DL",
        "uprn": "185045206"
    },
    {
        "org_id": "Z00037",
        "name": "DR. MONCRIEFF & PARTNERS",
        "primary_role_id": "RO315",
        "role_ids": [
            "RO315"
        ],
        "status": "Active",
        "post_code": "BT5 7BP",
        "uprn": "Unknown"
    },
    {
        "org_id": "Z00038",
        "name": "DR. ABERNETHY",
        "primary_role_id": "RO315",
        "role_ids": [
            "RO315"
        ],
        "status": "Active",
        "post_code": "BT5 7BP",
        "uprn": "Unknown"
    },
    {
        "org_id": "Z00052",
        "name": "DR. SAVAGE & PARTNERS",
        "primary_role_id": "RO315",
        "role_ids": [
            "RO315"
        ],
        "status": "Active",
        "post_code": "BT13 1RU",
        "uprn": "185116854"
    },
    {
        "org_id": "Z00053",
        "name": "DR. COLGAN",
        "primary_role_id": "RO315",
        "role_ids": [
            "RO315"
        ],
        "status": "Active",
        "post_code": "BT12 6DD",
        "uprn": "185104513"
    },
    {
        "org_id": "Z00055",
        "name": "DR. O'KANE",
        "primary_role_id": "RO315",
        "role_ids": [
            "RO315"
        ],
        "status": "Active",
        "post_code": "BT14 6AR",
        "uprn": "Unknown"
    },
    {
        "org_id": "Z00057",
        "name": "DR. CAMPBELL & PARTNER",
        "primary_role_id": "RO315",
        "role_ids": [
            "RO315"
        ],
        "status": "Active",
        "post_code": "BT12 4HL",
        "uprn": "Unknown"
    },
    {
        "org_id": "Z00058",
        "name": "DR. FARNAN & PARTNERS",
        "primary_role_id": "RO315",
        "role_ids": [
            "RO315"
        ],
        "status": "Active",
        "post_code": "BT15 1HS",
        "uprn": "185141458"
    },
    {
        "org_id": "Z00060",
        "name": "DR. BURNS & PARTNERS",
        "primary_role_id": "RO315",
        "role_ids": [
            "RO315"
        ],
        "status": "Active",
        "post_code": "BT15 2GE",
        "uprn": "185748218"
    },
    {
        "org_id": "Z00061",
        "name": "DR. CROSSIN & PARTNERS",
        "primary_role_id": "RO315",
        "role_ids": [
            "RO315"
        ],
        "status": "Active",
        "post_code": "BT1 2JR",
        "uprn": "Unknown"
    },
    {
        "org_id": "Z00062",
        "name": "DR. GARDINER & PARTNER",
        "primary_role_id": "RO315",
        "role_ids": [
            "RO315"
        ],
        "status": "Active",
        "post_code": "BT14 6AR",
        "uprn": "Unknown"
    },
    {
        "org_id": "Z00063",
        "name": "DR. COYLE & PARTNER",
        "primary_role_id": "RO315",
        "role_ids": [
            "RO315"
        ],
        "status": "Active",
        "post_code": "BT11 9EA",
        "uprn": "Unknown"
    },
    {
        "org_id": "Z00064",
        "name": "DR. DONAGHY & PARTNERS",
        "primary_role_id": "RO315",
        "role_ids": [
            "RO315"
        ],
        "status": "Active",
        "post_code": "BT12 4LP",
        "uprn": "185100891"
    },
    {
        "org_id": "Z00066",
        "name": "DR. ALLEN & PARTNERS",
        "primary_role_id": "RO315",
        "role_ids": [
            "RO315"
        ],
        "status": "Active",
        "post_code": "BT15 3HF",
        "uprn": "Unknown"
    },
    {
        "org_id": "Z00068",
        "name": "DR. CARDWELL & PARTNERS",
        "primary_role_id": "RO315",
        "role_ids": [
            "RO315"
        ],
        "status": "Active",
        "post_code": "BT13 2BD",
        "uprn": "185869032"
    },
    {
        "org_id": "Z00070",
        "name": "DR. CHAMBERS & PARTNERS",
        "primary_role_id": "RO315",
        "role_ids": [
            "RO315"
        ],
        "status": "Active",
        "post_code": "BT14 7QR",
        "uprn": "187578099"
    },
    {
        "org_id": "Z00071",
        "name": "DR. LEAVY & PARTNERS",
        "primary_role_id": "RO315",
        "role_ids": [
            "RO315"
        ],
        "status": "Active",
        "post_code": "BT12 7DN",
        "uprn": "185109814"
    },
    {
        "org_id": "Z00072",
        "name": "DR. AGAHI & PARTNERS",
        "primary_role_id": "RO315",
        "role_ids": [
            "RO315"
        ],
        "status": "Active",
        "post_code": "BT14 7GB",
        "uprn": "185133131"
    },
    {
        "org_id": "Z00073",
        "name": "DR. CLULOW & PARTNER",
        "primary_role_id": "RO315",
        "role_ids": [
            "RO315"
        ],
        "status": "Active",
        "post_code": "BT14 6AR",
        "uprn": "Unknown"
    },
    {
        "org_id": "Z00074",
        "name": "DR. BEATTIE",
        "primary_role_id": "RO315",
        "role_ids": [
            "RO315"
        ],
        "status": "Active",
        "post_code": "BT15 2GH",
        "uprn": "185143492"
    },
    {
        "org_id": "Z00075",
        "name": "DR. MCCLOSKEY & PARTNERS",
        "primary_role_id": "RO315",
        "role_ids": [
            "RO315"
        ],
        "status": "Active",
        "post_code": "BT12 5LT",
        "uprn": "185101706"
    },
    {
        "org_id": "Z00079",
        "name": "DR. LOGAN & PARTNERS",
        "primary_role_id": "RO315",
        "role_ids": [
            "RO315"
        ],
        "status": "Active",
        "post_code": "BT12 7AH",
        "uprn": "185108821"
    },
    {
        "org_id": "Z00080",
        "name": "DR. CONWAY & PARTNERS",
        "primary_role_id": "RO315",
        "role_ids": [
            "RO315"
        ],
        "status": "Active",
        "post_code": "BT14 7GB",
        "uprn": "185133131"
    },
    {
        "org_id": "Z00081",
        "name": "DR. MCHUGH & PARTNERS",
        "primary_role_id": "RO315",
        "role_ids": [
            "RO315"
        ],
        "status": "Active",
        "post_code": "BT12 7AH",
        "uprn": "Unknown"
    },
    {
        "org_id": "Z00083",
        "name": "DR. BRANNICK & PARTNERS",
        "primary_role_id": "RO315",
        "role_ids": [
            "RO315"
        ],
        "status": "Active",
        "post_code": "BT15 3HF",
        "uprn": "Unknown"
    },
    {
        "org_id": "Z00084",
        "name": "DR. JOHNSTON & PARTNER",
        "primary_role_id": "RO315",
        "role_ids": [
            "RO315"
        ],
        "status": "Active",
        "post_code": "BT12 6AG",
        "uprn": "185104004"
    },
    {
        "org_id": "Z00085",
        "name": "DR. MCMAHON & PARTNERS",
        "primary_role_id": "RO315",
        "role_ids": [
            "RO315"
        ],
        "status": "Active",
        "post_code": "BT15 3BS",
        "uprn": "185145163"
    },
    {
        "org_id": "Z00086",
        "name": "DR. HARKIN & PARTNERS",
        "primary_role_id": "RO315",
        "role_ids": [
            "RO315"
        ],
        "status": "Active",
        "post_code": "BT15 5GF",
        "uprn": "185154050"
    },
    {
        "org_id": "Z00092",
        "name": "DR. MCFERRAN & PARTNERS",
        "primary_role_id": "RO315",
        "role_ids": [
            "RO315"
        ],
        "status": "Active",
        "post_code": "BT11 9EA",
        "uprn": "Unknown"
    },
    {
        "org_id": "Z00093",
        "name": "DR. CLARKE & PARTNERS",
        "primary_role_id": "RO315",
        "role_ids": [
            "RO315"
        ],
        "status": "Active",
        "post_code": "BT14 6FX",
        "uprn": "Unknown"
    },
    {
        "org_id": "Z00094",
        "name": "DR. CUMMINGS & PARTNERS",
        "primary_role_id": "RO315",
        "role_ids": [
            "RO315"
        ],
        "status": "Active",
        "post_code": "BT12 6AA",
        "uprn": "185103969"
    },
    {
        "org_id": "Z00096",
        "name": "DR. MAGENIS & PARTNERS",
        "primary_role_id": "RO315",
        "role_ids": [
            "RO315"
        ],
        "status": "Active",
        "post_code": "BT13 1FD",
        "uprn": "187328253"
    },
    {
        "org_id": "Z00098",
        "name": "DR. GILMORE & PARTNERS",
        "primary_role_id": "RO315",
        "role_ids": [
            "RO315"
        ],
        "status": "Active",
        "post_code": "BT14 8BY",
        "uprn": "185137901"
    },
    {
        "org_id": "Z00101",
        "name": "DR. KELLY & PARTNER",
        "primary_role_id": "RO315",
        "role_ids": [
            "RO315"
        ],
        "status": "Active",
        "post_code": "BT12 5EY",
        "uprn": "187240753"
    },
    {
        "org_id": "Z00103",
        "name": "DR. MAGUIRE & PARTNERS",
        "primary_role_id": "RO315",
        "role_ids": [
            "RO315"
        ],
        "status": "Active",
        "post_code": "BT13 1AD",
        "uprn": "185114137"
    },
    {
        "org_id": "Z00104",
        "name": "DR. HUTCHINSON & PARTNERS",
        "primary_role_id": "RO315",
        "role_ids": [
            "RO315"
        ],
        "status": "Active",
        "post_code": "BT13 3BW",
        "uprn": "185119848"
    },
    {
        "org_id": "Z00105",
        "name": "DR. DOGGART & PARTNERS",
        "primary_role_id": "RO315",
        "role_ids": [
            "RO315"
        ],
        "status": "Active",
        "post_code": "BT13 1FD",
        "uprn": "187328253"
    },
    {
        "org_id": "Z00111",
        "name": "DR. MCKENNA & PARTNER",
        "primary_role_id": "RO315",
        "role_ids": [
            "RO315"
        ],
        "status": "Active",
        "post_code": "BT12 6AP",
        "uprn": "185104068"
    },
    {
        "org_id": "Z00113",
        "name": "DR. DUGAN & PARTNER",
        "primary_role_id": "RO315",
        "role_ids": [
            "RO315"
        ],
        "status": "Active",
        "post_code": "BT11 9EA",
        "uprn": "185095467"
    },
    {
        "org_id": "Z00114",
        "name": "DR. THOMPSON & PARTNERS",
        "primary_role_id": "RO315",
        "role_ids": [
            "RO315"
        ],
        "status": "Active",
        "post_code": "BT11 9FZ",
        "uprn": "185096258"
    },
    {
        "org_id": "Z00116",
        "name": "DR. CURRAN & PARTNER",
        "primary_role_id": "RO315",
        "role_ids": [
            "RO315"
        ],
        "status": "Active",
        "post_code": "BT12 7AP",
        "uprn": "185108896"
    },
    {
        "org_id": "Z00132",
        "name": "DR. MCGLADE & PARTNERS",
        "primary_role_id": "RO315",
        "role_ids": [
            "RO315"
        ],
        "status": "Active",
        "post_code": "BT9 7HR",
        "uprn": "Unknown"
    },
    {
        "org_id": "Z00136",
        "name": "DR. HAIGNEY & PARTNERS",
        "primary_role_id": "RO315",
        "role_ids": [
            "RO315"
        ],
        "status": "Active",
        "post_code": "BT8 6GR",
        "uprn": "Unknown"
    },
    {
        "org_id": "Z00140",
        "name": "DR. LOGAN & PARTNERS",
        "primary_role_id": "RO315",
        "role_ids": [
            "RO315"
        ],
        "status": "Active",
        "post_code": "BT9 7HR",
        "uprn": "Unknown"
    },
    {
        "org_id": "Z00143",
        "name": "DR. SHERWOOD & PARTNERS",
        "primary_role_id": "RO315",
        "role_ids": [
            "RO315"
        ],
        "status": "Active",
        "post_code": "BT9 7HR",
        "uprn": "Unknown"
    },
    {
        "org_id": "Z00145",
        "name": "DR. KILLINER & PARTNERS",
        "primary_role_id": "RO315",
        "role_ids": [
            "RO315"
        ],
        "status": "Active",
        "post_code": "BT12 5JJ",
        "uprn": "185102642"
    },
    {
        "org_id": "Z00146",
        "name": "DR. HUGHES",
        "primary_role_id": "RO315",
        "role_ids": [
            "RO315"
        ],
        "status": "Active",
        "post_code": "BT9 6GR",
        "uprn": "185076773"
    },
    {
        "org_id": "Z00147",
        "name": "DR. DUNLOP & PARTNERS",
        "primary_role_id": "RO315",
        "role_ids": [
            "RO315"
        ],
        "status": "Active",
        "post_code": "BT7 3GG",
        "uprn": "185057916"
    },
    {
        "org_id": "Z00148",
        "name": "DR. TONER & PARTNERS",
        "primary_role_id": "RO315",
        "role_ids": [
            "RO315"
        ],
        "status": "Active",
        "post_code": "BT6 9EY",
        "uprn": "Unknown"
    },
    {
        "org_id": "Z00151",
        "name": "DR. MONAGHAN & PARTNERS",
        "primary_role_id": "RO315",
        "role_ids": [
            "RO315"
        ],
        "status": "Active",
        "post_code": "BT10 0BX",
        "uprn": "Unknown"
    },
    {
        "org_id": "Z00153",
        "name": "DR. DIAMOND & PARTNERS",
        "primary_role_id": "RO315",
        "role_ids": [
            "RO315"
        ],
        "status": "Active",
        "post_code": "BT7 2EB",
        "uprn": "187285003"
    },
    {
        "org_id": "Z00154",
        "name": "DR. MCCAULEY & PARTNERS",
        "primary_role_id": "RO315",
        "role_ids": [
            "RO315"
        ],
        "status": "Active",
        "post_code": "BT7 1HH",
        "uprn": "185745900"
    },
    {
        "org_id": "Z00156",
        "name": "DR. SAHU & PARTNERS",
        "primary_role_id": "RO315",
        "role_ids": [
            "RO315"
        ],
        "status": "Active",
        "post_code": "BT11 9EA",
        "uprn": "Unknown"
    },
    {
        "org_id": "Z00157",
        "name": "DR. SMILEY & PARTNERS",
        "primary_role_id": "RO315",
        "role_ids": [
            "RO315"
        ],
        "status": "Active",
        "post_code": "BT7 1NP",
        "uprn": "Unknown"
    },
    {
        "org_id": "Z00159",
        "name": "DR. BELL & PARTNERS",
        "primary_role_id": "RO315",
        "role_ids": [
            "RO315"
        ],
        "status": "Active",
        "post_code": "BT7 3GR",
        "uprn": "185058017"
    },
    {
        "org_id": "Z00164",
        "name": "DR. MURDOCK & PARTNER",
        "primary_role_id": "RO315",
        "role_ids": [
            "RO315"
        ],
        "status": "Active",
        "post_code": "BT6 9HL",
        "uprn": "185991637"
    },
    {
        "org_id": "Z00165",
        "name": "DR. COLLINS & PARTNERS",
        "primary_role_id": "RO315",
        "role_ids": [
            "RO315"
        ],
        "status": "Active",
        "post_code": "BT7 2GG",
        "uprn": "185054541"
    },
    {
        "org_id": "Z00166",
        "name": "DR. CULLEN",
        "primary_role_id": "RO315",
        "role_ids": [
            "RO315"
        ],
        "status": "Active",
        "post_code": "BT7 1JL",
        "uprn": "187593156"
    },
    {
        "org_id": "Z00191",
        "name": "DR. WATSON & PARTNERS",
        "primary_role_id": "RO315",
        "role_ids": [
            "RO315"
        ],
        "status": "Active",
        "post_code": "BT24 8AY",
        "uprn": "185242705"
    },
    {
        "org_id": "Z00192",
        "name": "DR. MCGILL & PARTNERS",
        "primary_role_id": "RO315",
        "role_ids": [
            "RO315"
        ],
        "status": "Active",
        "post_code": "BT30 9RG",
        "uprn": "185297789"
    },
    {
        "org_id": "Z00193",
        "name": "DR. GREER & PARTNERS",
        "primary_role_id": "RO315",
        "role_ids": [
            "RO315"
        ],
        "status": "Active",
        "post_code": "BT30 8RD",
        "uprn": "Unknown"
    },
    {
        "org_id": "Z00194",
        "name": "DR. HYLAND & PARTNER",
        "primary_role_id": "RO315",
        "role_ids": [
            "RO315"
        ],
        "status": "Active",
        "post_code": "BT33 0DN",
        "uprn": "185311568"
    },
    {
        "org_id": "Z00195",
        "name": "DR. GILPIN & PARTNER",
        "primary_role_id": "RO315",
        "role_ids": [
            "RO315"
        ],
        "status": "Active",
        "post_code": "BT33 0DN",
        "uprn": "185311568"
    },
    {
        "org_id": "Z00196",
        "name": "DR. MCMINN & PARTNER",
        "primary_role_id": "RO315",
        "role_ids": [
            "RO315"
        ],
        "status": "Active",
        "post_code": "BT30 7SF",
        "uprn": "Unknown"
    },
    {
        "org_id": "Z00198",
        "name": "DR. ROSS & PARTNERS",
        "primary_role_id": "RO315",
        "role_ids": [
            "RO315"
        ],
        "status": "Active",
        "post_code": "BT24 7AD",
        "uprn": "Unknown"
    },
    {
        "org_id": "Z00201",
        "name": "DR. LEGGETT & PARTNERS",
        "primary_role_id": "RO315",
        "role_ids": [
            "RO315"
        ],
        "status": "Active",
        "post_code": "BT33 0AE",
        "uprn": "187144542"
    },
    {
        "org_id": "Z00202",
        "name": "DR. SMALL & PARTNERS",
        "primary_role_id": "RO315",
        "role_ids": [
            "RO315"
        ],
        "status": "Active",
        "post_code": "BT30 6JA",
        "uprn": "Unknown"
    },
    {
        "org_id": "Z00204",
        "name": "DR. BOYLE & PARTNERS",
        "primary_role_id": "RO315",
        "role_ids": [
            "RO315"
        ],
        "status": "Active",
        "post_code": "BT30 6BE",
        "uprn": "185285984"
    },
    {
        "org_id": "Z00205",
        "name": "DR. TRAINOR & PARTNERS",
        "primary_role_id": "RO315",
        "role_ids": [
            "RO315"
        ],
        "status": "Active",
        "post_code": "BT30 9JU",
        "uprn": "187143875"
    },
    {
        "org_id": "Z00206",
        "name": "DR. SHEVLIN & PARTNERS",
        "primary_role_id": "RO315",
        "role_ids": [
            "RO315"
        ],
        "status": "Active",
        "post_code": "BT30 6JA",
        "uprn": "Unknown"
    },
    {
        "org_id": "Z00207",
        "name": "DR. CREANEY & PARTNER",
        "primary_role_id": "RO315",
        "role_ids": [
            "RO315"
        ],
        "status": "Active",
        "post_code": "BT30 6DE",
        "uprn": "185286241"
    },
    {
        "org_id": "Z00221",
        "name": "DR. HALL & PARTNERS",
        "primary_role_id": "RO315",
        "role_ids": [
            "RO315"
        ],
        "status": "Active",
        "post_code": "BT26 6AW",
        "uprn": "187144608"
    },
    {
        "org_id": "Z00222",
        "name": "DR. DEVLIN & PARTNERS",
        "primary_role_id": "RO315",
        "role_ids": [
            "RO315"
        ],
        "status": "Active",
        "post_code": "BT17 0FB",
        "uprn": "Unknown"
    },
    {
        "org_id": "Z00223",
        "name": "DR. CUPPLES & PARTNERS",
        "primary_role_id": "RO315",
        "role_ids": [
            "RO315"
        ],
        "status": "Active",
        "post_code": "BT28 1JP",
        "uprn": "Unknown"
    },
    {
        "org_id": "Z00224",
        "name": "DR. CAIRNS & PARTNERS",
        "primary_role_id": "RO315",
        "role_ids": [
            "RO315"
        ],
        "status": "Active",
        "post_code": "BT28 1JP",
        "uprn": "Unknown"
    },
    {
        "org_id": "Z00226",
        "name": "DR. UREY & PARTNERS",
        "primary_role_id": "RO315",
        "role_ids": [
            "RO315"
        ],
        "status": "Active",
        "post_code": "BT25 2AT",
        "uprn": "Unknown"
    },
    {
        "org_id": "Z00227",
        "name": "DR. ARCHBOLD & PARTNERS",
        "primary_role_id": "RO315",
        "role_ids": [
            "RO315"
        ],
        "status": "Active",
        "post_code": "BT28 1JP",
        "uprn": "Unknown"
    },
    {
        "org_id": "Z00228",
        "name": "DR. ADAMS & PARTNERS",
        "primary_role_id": "RO315",
        "role_ids": [
            "RO315"
        ],
        "status": "Active",
        "post_code": "BT28 1JP",
        "uprn": "Unknown"
    },
    {
        "org_id": "Z00229",
        "name": "DR. RUDDELL & PARTNERS",
        "primary_role_id": "RO315",
        "role_ids": [
            "RO315"
        ],
        "status": "Active",
        "post_code": "BT28 1JP",
        "uprn": "Unknown"
    },
    {
        "org_id": "Z00230",
        "name": "DR. RYAN & PARTNERS",
        "primary_role_id": "RO315",
        "role_ids": [
            "RO315"
        ],
        "status": "Active",
        "post_code": "BT28 1JP",
        "uprn": "Unknown"
    },
    {
        "org_id": "Z00231",
        "name": "DR. KNOX & PARTNERS",
        "primary_role_id": "RO315",
        "role_ids": [
            "RO315"
        ],
        "status": "Active",
        "post_code": "BT28 1JP",
        "uprn": "Unknown"
    },
    {
        "org_id": "Z00232",
        "name": "DR. DICK & PARTNERS",
        "primary_role_id": "RO315",
        "role_ids": [
            "RO315"
        ],
        "status": "Active",
        "post_code": "BT17 9AL",
        "uprn": "185169034"
    },
    {
        "org_id": "Z00233",
        "name": "DR. CHEUNG & PARTNERS",
        "primary_role_id": "RO315",
        "role_ids": [
            "RO315"
        ],
        "status": "Active",
        "post_code": "BT29 4LN",
        "uprn": "187161727"
    },
    {
        "org_id": "Z00252",
        "name": "DR. GLENFIELD & PARTNERS",
        "primary_role_id": "RO315",
        "role_ids": [
            "RO315"
        ],
        "status": "Active",
        "post_code": "BT18 9AD",
        "uprn": "185872064"
    },
    {
        "org_id": "Z00253",
        "name": "DR. HAYES & PARTNERS",
        "primary_role_id": "RO315",
        "role_ids": [
            "RO315"
        ],
        "status": "Active",
        "post_code": "BT20 4LD",
        "uprn": "185865268"
    },
    {
        "org_id": "Z00254",
        "name": "DR. MARSHALL & PARTNERS",
        "primary_role_id": "RO315",
        "role_ids": [
            "RO315"
        ],
        "status": "Active",
        "post_code": "BT23 6AW",
        "uprn": "Unknown"
    },
    {
        "org_id": "Z00255",
        "name": "DR. KENNY & PARTNERS",
        "primary_role_id": "RO315",
        "role_ids": [
            "RO315"
        ],
        "status": "Active",
        "post_code": "BT20 4LD",
        "uprn": "185865268"
    },
    {
        "org_id": "Z00256",
        "name": "DR. CRAIG & PARTNERS",
        "primary_role_id": "RO315",
        "role_ids": [
            "RO315"
        ],
        "status": "Active",
        "post_code": "BT20 5PE",
        "uprn": "185205898"
    },
    {
        "org_id": "Z00257",
        "name": "DR. GOLDRING & PARTNERS",
        "primary_role_id": "RO315",
        "role_ids": [
            "RO315"
        ],
        "status": "Active",
        "post_code": "BT18 9DA",
        "uprn": "185175526"
    },
    {
        "org_id": "Z00258",
        "name": "DR. MANSON & PARTNERS",
        "primary_role_id": "RO315",
        "role_ids": [
            "RO315"
        ],
        "status": "Active",
        "post_code": "BT20 4LD",
        "uprn": "185865268"
    },
    {
        "org_id": "Z00259",
        "name": "DR. DOYLE & PARTNERS",
        "primary_role_id": "RO315",
        "role_ids": [
            "RO315"
        ],
        "status": "Active",
        "post_code": "BT22 1QT",
        "uprn": "185213572"
    },
    {
        "org_id": "Z00260",
        "name": "DR. DOYLE & PARTNERS",
        "primary_role_id": "RO315",
        "role_ids": [
            "RO315"
        ],
        "status": "Active",
        "post_code": "BT20 4LD",
        "uprn": "185865268"
    },
    {
        "org_id": "Z00261",
        "name": "DR. NEOH & PARTNERS",
        "primary_role_id": "RO315",
        "role_ids": [
            "RO315"
        ],
        "status": "Active",
        "post_code": "BT23 4LR",
        "uprn": "Unknown"
    },
    {
        "org_id": "Z00264",
        "name": "DR. KINNEAR",
        "primary_role_id": "RO315",
        "role_ids": [
            "RO315"
        ],
        "status": "Active",
        "post_code": "BT19 6EU",
        "uprn": "185186931"
    },
    {
        "org_id": "Z00265",
        "name": "DR. HYLAND & PARTNERS",
        "primary_role_id": "RO315",
        "role_ids": [
            "RO315"
        ],
        "status": "Active",
        "post_code": "BT23 4FH",
        "uprn": "185219683"
    },
    {
        "org_id": "Z00271",
        "name": "DR. GREER & PARTNERS",
        "primary_role_id": "RO315",
        "role_ids": [
            "RO315"
        ],
        "status": "Active",
        "post_code": "BT23 4AS",
        "uprn": "185218416"
    },
    {
        "org_id": "Z00272",
        "name": "DR. MITCHELL & PARTNERS",
        "primary_role_id": "RO315",
        "role_ids": [
            "RO315"
        ],
        "status": "Active",
        "post_code": "BT23 5DT",
        "uprn": "185225440"
    },
    {
        "org_id": "Z00273",
        "name": "DR. WHITESIDE & PARTNERS",
        "primary_role_id": "RO315",
        "role_ids": [
            "RO315"
        ],
        "status": "Active",
        "post_code": "BT23 5BA",
        "uprn": "185224633"
    },
    {
        "org_id": "Z00274",
        "name": "DR. MCNUTT & PARTNERS",
        "primary_role_id": "RO315",
        "role_ids": [
            "RO315"
        ],
        "status": "Active",
        "post_code": "BT20 4XA",
        "uprn": "185203401"
    },
    {
        "org_id": "Z00275",
        "name": "DR. WEBB & PARTNERS",
        "primary_role_id": "RO315",
        "role_ids": [
            "RO315"
        ],
        "status": "Active",
        "post_code": "BT23 4LR",
        "uprn": "185221033"
    },
    {
        "org_id": "Z00276",
        "name": "DR. HISCOCKS & PARTNERS",
        "primary_role_id": "RO315",
        "role_ids": [
            "RO315"
        ],
        "status": "Active",
        "post_code": "BT21 0BU",
        "uprn": "185207753"
    },
    {
        "org_id": "Z00278",
        "name": "DR. YOUNGS & PARTNERS",
        "primary_role_id": "RO315",
        "role_ids": [
            "RO315"
        ],
        "status": "Active",
        "post_code": "BT23 4FH",
        "uprn": "185219683"
    },
    {
        "org_id": "Z00280",
        "name": "DR. SIMPSON & PARTNERS",
        "primary_role_id": "RO315",
        "role_ids": [
            "RO315"
        ],
        "status": "Active",
        "post_code": "BT20 4LD",
        "uprn": "185865268"
    },
    {
        "org_id": "Z00281",
        "name": "DR. HOWE & PARTNERS",
        "primary_role_id": "RO315",
        "role_ids": [
            "RO315"
        ],
        "status": "Active",
        "post_code": "BT20 3EB",
        "uprn": "Unknown"
    },
    {
        "org_id": "Z00282",
        "name": "DR. HUGHES & PARTNERS",
        "primary_role_id": "RO315",
        "role_ids": [
            "RO315"
        ],
        "status": "Active",
        "post_code": "BT22 2PY",
        "uprn": "Unknown"
    },
    {
        "org_id": "Z00283",
        "name": "DR. FERRIS & PARTNERS",
        "primary_role_id": "RO315",
        "role_ids": [
            "RO315"
        ],
        "status": "Active",
        "post_code": "BT22 2SP",
        "uprn": "Unknown"
    },
    {
        "org_id": "Z00285",
        "name": "DR. GRIMSHAW & PARTNERS",
        "primary_role_id": "RO315",
        "role_ids": [
            "RO315"
        ],
        "status": "Active",
        "post_code": "BT23 7PZ",
        "uprn": "Unknown"
    },
    {
        "org_id": "Z00302",
        "name": "DR. HUEY & PARTNERS",
        "primary_role_id": "RO315",
        "role_ids": [
            "RO315"
        ],
        "status": "Active",
        "post_code": "BT39 0AZ",
        "uprn": "185397449"
    },
    {
        "org_id": "Z00303",
        "name": "DR. BYRNE & PARTNERS",
        "primary_role_id": "RO315",
        "role_ids": [
            "RO315"
        ],
        "status": "Active",
        "post_code": "BT29 4LA",
        "uprn": "187144625"
    },
    {
        "org_id": "Z00304",
        "name": "DR. BUTLER & PARTNERS",
        "primary_role_id": "RO315",
        "role_ids": [
            "RO315"
        ],
        "status": "Active",
        "post_code": "BT42 2PB",
        "uprn": "187686640"
    },
    {
        "org_id": "Z00307",
        "name": "DR. FIELD & PARTNERS",
        "primary_role_id": "RO315",
        "role_ids": [
            "RO315"
        ],
        "status": "Active",
        "post_code": "BT41 4BS",
        "uprn": "Unknown"
    },
    {
        "org_id": "Z00308",
        "name": "DR. THOMPSON & PARTNERS",
        "primary_role_id": "RO315",
        "role_ids": [
            "RO315"
        ],
        "status": "Active",
        "post_code": "BT41 4HR",
        "uprn": "185430976"
    },
    {
        "org_id": "Z00310",
        "name": "DR. MCKELVEY & PARTNERS",
        "primary_role_id": "RO315",
        "role_ids": [
            "RO315"
        ],
        "status": "Active",
        "post_code": "BT42 1NW",
        "uprn": "185436248"
    },
    {
        "org_id": "Z00313",
        "name": "DR. RUSSELL & PARTNERS",
        "primary_role_id": "RO315",
        "role_ids": [
            "RO315"
        ],
        "status": "Active",
        "post_code": "BT43 5BA",
        "uprn": "185446918"
    },
    {
        "org_id": "Z00314",
        "name": "DR. STEVENSON & PARTNERS",
        "primary_role_id": "RO315",
        "role_ids": [
            "RO315"
        ],
        "status": "Active",
        "post_code": "BT43 6HQ",
        "uprn": "Unknown"
    },
    {
        "org_id": "Z00315",
        "name": "DR. BAILIE & PARTNERS",
        "primary_role_id": "RO315",
        "role_ids": [
            "RO315"
        ],
        "status": "Active",
        "post_code": "BT43 6HQ",
        "uprn": "Unknown"
    },
    {
        "org_id": "Z00317",
        "name": "DR. REDMOND & PARTNERS",
        "primary_role_id": "RO315",
        "role_ids": [
            "RO315"
        ],
        "status": "Active",
        "post_code": "BT42 4JA",
        "uprn": "185445438"
    },
    {
        "org_id": "Z00319",
        "name": "DR. BROWNE & PARTNERS",
        "primary_role_id": "RO315",
        "role_ids": [
            "RO315"
        ],
        "status": "Active",
        "post_code": "BT44 8AD",
        "uprn": "185459583"
    },
    {
        "org_id": "Z00321",
        "name": "DR. MCQUILLAN & PARTNERS",
        "primary_role_id": "RO315",
        "role_ids": [
            "RO315"
        ],
        "status": "Active",
        "post_code": "BT43 6HB",
        "uprn": "Unknown"
    },
    {
        "org_id": "Z00323",
        "name": "DR. BROWN & PARTNERS",
        "primary_role_id": "RO315",
        "role_ids": [
            "RO315"
        ],
        "status": "Active",
        "post_code": "BT43 5HB",
        "uprn": "187339048"
    },
    {
        "org_id": "Z00325",
        "name": "DR. GREER & PARTNERS",
        "primary_role_id": "RO315",
        "role_ids": [
            "RO315"
        ],
        "status": "Active",
        "post_code": "BT42 3JU",
        "uprn": "187162204"
    },
    {
        "org_id": "Z00326",
        "name": "DR. MCCULLOUGH & PARTNERS",
        "primary_role_id": "RO315",
        "role_ids": [
            "RO315"
        ],
        "status": "Active",
        "post_code": "BT41 4BS",
        "uprn": "Unknown"
    },
    {
        "org_id": "Z00327",
        "name": "DR. KIDD & PARTNERS",
        "primary_role_id": "RO315",
        "role_ids": [
            "RO315"
        ],
        "status": "Active",
        "post_code": "BT41 4BS",
        "uprn": "Unknown"
    },
    {
        "org_id": "Z00328",
        "name": "DR. JOHNSTON & PARTNERS",
        "primary_role_id": "RO315",
        "role_ids": [
            "RO315"
        ],
        "status": "Active",
        "post_code": "BT42 1GP",
        "uprn": "185434468"
    },
    {
        "org_id": "Z00330",
        "name": "DR. MCKENNA & PARTNERS",
        "primary_role_id": "RO315",
        "role_ids": [
            "RO315"
        ],
        "status": "Active",
        "post_code": "BT41 4BS",
        "uprn": "Unknown"
    },
    {
        "org_id": "Z00333",
        "name": "DR. JOHNSTON & PARTNERS",
        "primary_role_id": "RO315",
        "role_ids": [
            "RO315"
        ],
        "status": "Active",
        "post_code": "BT41 3TF",
        "uprn": "187571241"
    },
    {
        "org_id": "Z00334",
        "name": "DR. O'HANLON & PARTNERS",
        "primary_role_id": "RO315",
        "role_ids": [
            "RO315"
        ],
        "status": "Active",
        "post_code": "BT41 3AE",
        "uprn": "187144890"
    },
    {
        "org_id": "Z00336",
        "name": "DR. MCCLEERY & PARTNERS",
        "primary_role_id": "RO315",
        "role_ids": [
            "RO315"
        ],
        "status": "Active",
        "post_code": "BT36 4PP",
        "uprn": "185351244"
    },
    {
        "org_id": "Z00337",
        "name": "DR. DAVISON & PARTNERS",
        "primary_role_id": "RO315",
        "role_ids": [
            "RO315"
        ],
        "status": "Active",
        "post_code": "BT36 5EQ",
        "uprn": "185863206"
    },
    {
        "org_id": "Z00341",
        "name": "DR. MAXWELL & PARTNERS",
        "primary_role_id": "RO315",
        "role_ids": [
            "RO315"
        ],
        "status": "Active",
        "post_code": "BT51 3HP",
        "uprn": "187572833"
    },
    {
        "org_id": "Z00344",
        "name": "DR. TRACEY & PARTNERS",
        "primary_role_id": "RO315",
        "role_ids": [
            "RO315"
        ],
        "status": "Active",
        "post_code": "BT51 3HP",
        "uprn": "187572833"
    },
    {
        "org_id": "Z00345",
        "name": "DR. JOHNSTON & PARTNERS",
        "primary_role_id": "RO315",
        "role_ids": [
            "RO315"
        ],
        "status": "Active",
        "post_code": "BT53 6HB",
        "uprn": "Unknown"
    },
    {
        "org_id": "Z00346",
        "name": "DR. WALLACE & PARTNERS",
        "primary_role_id": "RO315",
        "role_ids": [
            "RO315"
        ],
        "status": "Active",
        "post_code": "BT52 1JX",
        "uprn": "Unknown"
    },
    {
        "org_id": "Z00349",
        "name": "DR. STERNE & PARTNERS",
        "primary_role_id": "RO315",
        "role_ids": [
            "RO315"
        ],
        "status": "Active",
        "post_code": "BT53 8TY",
        "uprn": "185561151"
    },
    {
        "org_id": "Z00350",
        "name": "DR. JONES & PARTNERS",
        "primary_role_id": "RO315",
        "role_ids": [
            "RO315"
        ],
        "status": "Active",
        "post_code": "BT57 8QP",
        "uprn": "185956297"
    },
    {
        "org_id": "Z00351",
        "name": "DR. BAILIE & PARTNERS",
        "primary_role_id": "RO315",
        "role_ids": [
            "RO315"
        ],
        "status": "Active",
        "post_code": "BT56 8DW",
        "uprn": "185570404"
    },
    {
        "org_id": "Z00352",
        "name": "DR. CONNOR & PARTNERS",
        "primary_role_id": "RO315",
        "role_ids": [
            "RO315"
        ],
        "status": "Active",
        "post_code": "BT51 5AE",
        "uprn": "187618649"
    },
    {
        "org_id": "Z00354",
        "name": "DR. HARLEY & PARTNER",
        "primary_role_id": "RO315",
        "role_ids": [
            "RO315"
        ],
        "status": "Active",
        "post_code": "BT55 7EF",
        "uprn": "185566287"
    },
    {
        "org_id": "Z00355",
        "name": "DR. MCGURK & PARTNERS",
        "primary_role_id": "RO315",
        "role_ids": [
            "RO315"
        ],
        "status": "Active",
        "post_code": "BT51 5QP",
        "uprn": "185543466"
    },
    {
        "org_id": "Z00356",
        "name": "DR. BONNAR & PARTNERS",
        "primary_role_id": "RO315",
        "role_ids": [
            "RO315"
        ],
        "status": "Active",
        "post_code": "BT52 1JB",
        "uprn": "185545368"
    },
    {
        "org_id": "Z00357",
        "name": "DR. MCSPARRAN & PARTNERS",
        "primary_role_id": "RO315",
        "role_ids": [
            "RO315"
        ],
        "status": "Active",
        "post_code": "BT44 0TE",
        "uprn": "185459459"
    },
    {
        "org_id": "Z00358",
        "name": "DR. WHITE",
        "primary_role_id": "RO315",
        "role_ids": [
            "RO315"
        ],
        "status": "Active",
        "post_code": "BT51 4TW",
        "uprn": "185541153"
    },
    {
        "org_id": "Z00360",
        "name": "DR. HENDERSON & PARTNERS",
        "primary_role_id": "RO315",
        "role_ids": [
            "RO315"
        ],
        "status": "Active",
        "post_code": "BT44 8QB",
        "uprn": "185461603"
    },
    {
        "org_id": "Z00366",
        "name": "DR. O'KANE & PARTNERS",
        "primary_role_id": "RO315",
        "role_ids": [
            "RO315"
        ],
        "status": "Active",
        "post_code": "BT54 6BA",
        "uprn": "Unknown"
    },
    {
        "org_id": "Z00367",
        "name": "DR. MCCURDY & PARTNERS",
        "primary_role_id": "RO315",
        "role_ids": [
            "RO315"
        ],
        "status": "Active",
        "post_code": "BT44 9LF",
        "uprn": "187568561"
    },
    {
        "org_id": "Z00368",
        "name": "DR. HASSON & PARTNERS",
        "primary_role_id": "RO315",
        "role_ids": [
            "RO315"
        ],
        "status": "Active",
        "post_code": "BT54 6BA",
        "uprn": "Unknown"
    },
    {
        "org_id": "Z00369",
        "name": "DR. TURKINGTON & PARTNERS",
        "primary_role_id": "RO315",
        "role_ids": [
            "RO315"
        ],
        "status": "Active",
        "post_code": "BT55 7SW",
        "uprn": "185569323"
    },
    {
        "org_id": "Z00382",
        "name": "DR. GORMAN & PARTNERS",
        "primary_role_id": "RO315",
        "role_ids": [
            "RO315"
        ],
        "status": "Active",
        "post_code": "BT38 9TG",
        "uprn": "187261991"
    },
    {
        "org_id": "Z00385",
        "name": "DR. KERNOHAN & PARTNERS",
        "primary_role_id": "RO315",
        "role_ids": [
            "RO315"
        ],
        "status": "Active",
        "post_code": "BT38 8TP",
        "uprn": "185391280"
    },
    {
        "org_id": "Z00387",
        "name": "DR. BAIRD & PARTNERS",
        "primary_role_id": "RO315",
        "role_ids": [
            "RO315"
        ],
        "status": "Active",
        "post_code": "BT38 7HT",
        "uprn": "Unknown"
    },
    {
        "org_id": "Z00388",
        "name": "DR. KIRK & PARTNERS",
        "primary_role_id": "RO315",
        "role_ids": [
            "RO315"
        ],
        "status": "Active",
        "post_code": "BT40 1XH",
        "uprn": "Unknown"
    },
    {
        "org_id": "Z00389",
        "name": "DR. MCILROY & PARTNERS",
        "primary_role_id": "RO315",
        "role_ids": [
            "RO315"
        ],
        "status": "Active",
        "post_code": "BT40 1XH",
        "uprn": "Unknown"
    },
    {
        "org_id": "Z00390",
        "name": "DR. HAMILTON & PARTNERS",
        "primary_role_id": "RO315",
        "role_ids": [
            "RO315"
        ],
        "status": "Active",
        "post_code": "BT38 7HT",
        "uprn": "Unknown"
    },
    {
        "org_id": "Z00391",
        "name": "DR. FERGUSON & PARTNERS",
        "primary_role_id": "RO315",
        "role_ids": [
            "RO315"
        ],
        "status": "Active",
        "post_code": "BT40 1XH",
        "uprn": "Unknown"
    },
    {
        "org_id": "Z00393",
        "name": "DR. BLACK & PARTNERS",
        "primary_role_id": "RO315",
        "role_ids": [
            "RO315"
        ],
        "status": "Active",
        "post_code": "BT40 1PB",
        "uprn": "185408913"
    },
    {
        "org_id": "Z00395",
        "name": "DR. TOBOLSKA & PARTNER",
        "primary_role_id": "RO315",
        "role_ids": [
            "RO315"
        ],
        "status": "Active",
        "post_code": "BT43 6JD",
        "uprn": "185736011"
    },
    {
        "org_id": "Z00396",
        "name": "DR. VERCOE-ROGERS & PARTNERS",
        "primary_role_id": "RO315",
        "role_ids": [
            "RO315"
        ],
        "status": "Active",
        "post_code": "BT43 5BY",
        "uprn": "185447151"
    },
    {
        "org_id": "Z00401",
        "name": "DR. JOHNSTON & PARTNERS",
        "primary_role_id": "RO315",
        "role_ids": [
            "RO315"
        ],
        "status": "Active",
        "post_code": "BT80 8BN",
        "uprn": "185691305"
    },
    {
        "org_id": "Z00402",
        "name": "DR. LOGAN & PARTNERS",
        "primary_role_id": "RO315",
        "role_ids": [
            "RO315"
        ],
        "status": "Active",
        "post_code": "BT45 7AG",
        "uprn": "185856627"
    },
    {
        "org_id": "Z00404",
        "name": "DR. DALZELL & PARTNERS",
        "primary_role_id": "RO315",
        "role_ids": [
            "RO315"
        ],
        "status": "Active",
        "post_code": "BT80 0DP",
        "uprn": "185690063"
    },
    {
        "org_id": "Z00405",
        "name": "DR. MCKEEVER & PARTNERS",
        "primary_role_id": "RO315",
        "role_ids": [
            "RO315"
        ],
        "status": "Active",
        "post_code": "BT80 8PE",
        "uprn": "187145385"
    },
    {
        "org_id": "Z00406",
        "name": "DR. WALLS & PARTNERS",
        "primary_role_id": "RO315",
        "role_ids": [
            "RO315"
        ],
        "status": "Active",
        "post_code": "BT45 5DD",
        "uprn": "187144878"
    },
    {
        "org_id": "Z00407",
        "name": "DR. BROWN & PARTNERS",
        "primary_role_id": "RO315",
        "role_ids": [
            "RO315"
        ],
        "status": "Active",
        "post_code": "BT80 8BH",
        "uprn": "185691272"
    },
    {
        "org_id": "Z00409",
        "name": "DR. FITZSIMONS & PARTNERS",
        "primary_role_id": "RO315",
        "role_ids": [
            "RO315"
        ],
        "status": "Active",
        "post_code": "BT71 5HY",
        "uprn": "185649928"
    },
    {
        "org_id": "Z00410",
        "name": "DR. SHAW & PARTNERS",
        "primary_role_id": "RO315",
        "role_ids": [
            "RO315"
        ],
        "status": "Active",
        "post_code": "BT46 5EA",
        "uprn": "185988876"
    },
    {
        "org_id": "Z00412",
        "name": "DR. MORRIS & PARTNERS",
        "primary_role_id": "RO315",
        "role_ids": [
            "RO315"
        ],
        "status": "Active",
        "post_code": "BT45 6ED",
        "uprn": "Unknown"
    },
    {
        "org_id": "Z00413",
        "name": "DR. POTTER & PARTNER",
        "primary_role_id": "RO315",
        "role_ids": [
            "RO315"
        ],
        "status": "Active",
        "post_code": "BT80 8PE",
        "uprn": "Unknown"
    },
    {
        "org_id": "Z00417",
        "name": "DR. HINDS & PARTNERS",
        "primary_role_id": "RO315",
        "role_ids": [
            "RO315"
        ],
        "status": "Active",
        "post_code": "BT45 8AZ",
        "uprn": "185856928"
    },
    {
        "org_id": "Z00420",
        "name": "DR. MCKAY & PARTNERS",
        "primary_role_id": "RO315",
        "role_ids": [
            "RO315"
        ],
        "status": "Active",
        "post_code": "BT45 7LJ",
        "uprn": "185862100"
    },
    {
        "org_id": "Z00431",
        "name": "DR. CRUICKSHANKS & PARTNERS",
        "primary_role_id": "RO315",
        "role_ids": [
            "RO315"
        ],
        "status": "Active",
        "post_code": "BT37 9UH",
        "uprn": "Unknown"
    },
    {
        "org_id": "Z00433",
        "name": "DR. RAFFERTY & PARTNERS",
        "primary_role_id": "RO315",
        "role_ids": [
            "RO315"
        ],
        "status": "Active",
        "post_code": "BT39 9HL",
        "uprn": "Unknown"
    },
    {
        "org_id": "Z00434",
        "name": "DR. HENDRON & PARTNERS",
        "primary_role_id": "RO315",
        "role_ids": [
            "RO315"
        ],
        "status": "Active",
        "post_code": "BT37 9QW",
        "uprn": "185378974"
    },
    {
        "org_id": "Z00438",
        "name": "DR. FINNEGAN & PARTNERS",
        "primary_role_id": "RO315",
        "role_ids": [
            "RO315"
        ],
        "status": "Active",
        "post_code": "BT36 7XX",
        "uprn": "Unknown"
    },
    {
        "org_id": "Z00440",
        "name": "DR. DORAN & PARTNERS",
        "primary_role_id": "RO315",
        "role_ids": [
            "RO315"
        ],
        "status": "Active",
        "post_code": "BT37 9QN",
        "uprn": "185864091"
    },
    {
        "org_id": "Z00451",
        "name": "DR. WILKINSON & PARTNERS",
        "primary_role_id": "RO315",
        "role_ids": [
            "RO315"
        ],
        "status": "Active",
        "post_code": "BT65 5BE",
        "uprn": "Unknown"
    },
    {
        "org_id": "Z00453",
        "name": "DR. MCCLOSKEY & PARTNERS",
        "primary_role_id": "RO315",
        "role_ids": [
            "RO315"
        ],
        "status": "Active",
        "post_code": "BT32 3GN",
        "uprn": "187301717"
    },
    {
        "org_id": "Z00454",
        "name": "DR. CUPPLES & PARTNERS",
        "primary_role_id": "RO315",
        "role_ids": [
            "RO315"
        ],
        "status": "Active",
        "post_code": "BT32 3NQ",
        "uprn": "185304088"
    },
    {
        "org_id": "Z00455",
        "name": "DR. MAGOWAN & PARTNERS",
        "primary_role_id": "RO315",
        "role_ids": [
            "RO315"
        ],
        "status": "Active",
        "post_code": "BT63 6JS",
        "uprn": "185612944"
    },
    {
        "org_id": "Z00457",
        "name": "DR. DE ALWIS & PARTNERS",
        "primary_role_id": "RO315",
        "role_ids": [
            "RO315"
        ],
        "status": "Active",
        "post_code": "BT66 6BW",
        "uprn": "185941308"
    },
    {
        "org_id": "Z00460",
        "name": "DR. WILLIS & PARTNER",
        "primary_role_id": "RO315",
        "role_ids": [
            "RO315"
        ],
        "status": "Active",
        "post_code": "BT66 7LR",
        "uprn": "185898648"
    },
    {
        "org_id": "Z00461",
        "name": "DR. CLARKE & PARTNERS",
        "primary_role_id": "RO315",
        "role_ids": [
            "RO315"
        ],
        "status": "Active",
        "post_code": "BT62 3BU",
        "uprn": "191007079"
    },
    {
        "org_id": "Z00462",
        "name": "DR. FITZPATRICK & PARTNERS",
        "primary_role_id": "RO315",
        "role_ids": [
            "RO315"
        ],
        "status": "Active",
        "post_code": "BT66 8BA",
        "uprn": "185625551"
    },
    {
        "org_id": "Z00463",
        "name": "DR. PATTERSON & PARTNERS",
        "primary_role_id": "RO315",
        "role_ids": [
            "RO315"
        ],
        "status": "Active",
        "post_code": "BT66 8DW",
        "uprn": "185625908"
    },
    {
        "org_id": "Z00464",
        "name": "DR. O'CONNOR & PARTNERS",
        "primary_role_id": "RO315",
        "role_ids": [
            "RO315"
        ],
        "status": "Active",
        "post_code": "BT62 3NJ",
        "uprn": "Unknown"
    },
    {
        "org_id": "Z00465",
        "name": "DR. HUNTER & PARTNERS",
        "primary_role_id": "RO315",
        "role_ids": [
            "RO315"
        ],
        "status": "Active",
        "post_code": "BT67 9AA",
        "uprn": "185633580"
    },
    {
        "org_id": "Z00467",
        "name": "DR. MCAULEY & PARTNERS",
        "primary_role_id": "RO315",
        "role_ids": [
            "RO315"
        ],
        "status": "Active",
        "post_code": "BT66 6JB",
        "uprn": "185618848"
    },
    {
        "org_id": "Z00469",
        "name": "DR. AULD & PARTNERS",
        "primary_role_id": "RO315",
        "role_ids": [
            "RO315"
        ],
        "status": "Active",
        "post_code": "BT32 3GN",
        "uprn": "187301717"
    },
    {
        "org_id": "Z00470",
        "name": "DR. SHARPE & PARTNERS",
        "primary_role_id": "RO315",
        "role_ids": [
            "RO315"
        ],
        "status": "Active",
        "post_code": "BT62 3BU",
        "uprn": "Unknown"
    },
    {
        "org_id": "Z00471",
        "name": "DR. MCNIFF & PARTNERS",
        "primary_role_id": "RO315",
        "role_ids": [
            "RO315"
        ],
        "status": "Active",
        "post_code": "BT32 3GN",
        "uprn": "187301717"
    },
    {
        "org_id": "Z00472",
        "name": "DR. MULLAN & PARTNERS",
        "primary_role_id": "RO315",
        "role_ids": [
            "RO315"
        ],
        "status": "Active",
        "post_code": "BT32 3NH",
        "uprn": "187144483"
    },
    {
        "org_id": "Z00473",
        "name": "DR. SPENCE & PARTNERS",
        "primary_role_id": "RO315",
        "role_ids": [
            "RO315"
        ],
        "status": "Active",
        "post_code": "BT67 0LQ",
        "uprn": "185631386"
    },
    {
        "org_id": "Z00474",
        "name": "DR. BEATTY & PARTNERS",
        "primary_role_id": "RO315",
        "role_ids": [
            "RO315"
        ],
        "status": "Active",
        "post_code": "BT25 1NB",
        "uprn": "Unknown"
    },
    {
        "org_id": "Z00475",
        "name": "DR. BYRNE & PARTNERS",
        "primary_role_id": "RO315",
        "role_ids": [
            "RO315"
        ],
        "status": "Active",
        "post_code": "BT67 0DD",
        "uprn": "185629731"
    },
    {
        "org_id": "Z00476",
        "name": "DR. LUTTON & PARTNER",
        "primary_role_id": "RO315",
        "role_ids": [
            "RO315"
        ],
        "status": "Active",
        "post_code": "BT31 9TU",
        "uprn": "185301402"
    },
    {
        "org_id": "Z00477",
        "name": "DR. WILLIAMSON & PARTNERS",
        "primary_role_id": "RO315",
        "role_ids": [
            "RO315"
        ],
        "status": "Active",
        "post_code": "BT62 3BU",
        "uprn": "191007079"
    },
    {
        "org_id": "Z00478",
        "name": "DR. HEGARTY & PARTNERS",
        "primary_role_id": "RO315",
        "role_ids": [
            "RO315"
        ],
        "status": "Active",
        "post_code": "BT62 3BU",
        "uprn": "191007079"
    },
    {
        "org_id": "Z00479",
        "name": "DR. BURNETT & PARTNERS",
        "primary_role_id": "RO315",
        "role_ids": [
            "RO315"
        ],
        "status": "Active",
        "post_code": "BT62 3BU",
        "uprn": "Unknown"
    },
    {
        "org_id": "Z00482",
        "name": "DR. MCCLOSKEY & PARTNERS",
        "primary_role_id": "RO315",
        "role_ids": [
            "RO315"
        ],
        "status": "Active",
        "post_code": "BT67 9BW",
        "uprn": "185634337"
    },
    {
        "org_id": "Z00491",
        "name": "DR. MARSHALL & PARTNERS",
        "primary_role_id": "RO315",
        "role_ids": [
            "RO315"
        ],
        "status": "Active",
        "post_code": "BT61 7QG",
        "uprn": "Unknown"
    },
    {
        "org_id": "Z00493",
        "name": "DR. JOHNSTON & PARTNERS",
        "primary_role_id": "RO315",
        "role_ids": [
            "RO315"
        ],
        "status": "Active",
        "post_code": "BT71 4AU",
        "uprn": "185884675"
    },
    {
        "org_id": "Z00494",
        "name": "DR. ELLIOTT & PARTNER",
        "primary_role_id": "RO315",
        "role_ids": [
            "RO315"
        ],
        "status": "Active",
        "post_code": "BT75 0ND",
        "uprn": "185989062"
    },
    {
        "org_id": "Z00495",
        "name": "DR. CARSON & PARTNERS",
        "primary_role_id": "RO315",
        "role_ids": [
            "RO315"
        ],
        "status": "Active",
        "post_code": "BT70 1HX",
        "uprn": "185884587"
    },
    {
        "org_id": "Z00497",
        "name": "DR. FEARON & PARTNERS",
        "primary_role_id": "RO315",
        "role_ids": [
            "RO315"
        ],
        "status": "Active",
        "post_code": "BT60 2RP",
        "uprn": "Unknown"
    },
    {
        "org_id": "Z00498",
        "name": "DR. CAMPBELL & PARTNER",
        "primary_role_id": "RO315",
        "role_ids": [
            "RO315"
        ],
        "status": "Active",
        "post_code": "BT71 7SL",
        "uprn": "187176640"
    },
    {
        "org_id": "Z00499",
        "name": "DR. POTTER & PARTNERS",
        "primary_role_id": "RO315",
        "role_ids": [
            "RO315"
        ],
        "status": "Active",
        "post_code": "BT70 2EY",
        "uprn": "185641195"
    },
    {
        "org_id": "Z00500",
        "name": "DR. HERRON & PARTNER",
        "primary_role_id": "RO315",
        "role_ids": [
            "RO315"
        ],
        "status": "Active",
        "post_code": "BT71 4LS",
        "uprn": "185646589"
    },
    {
        "org_id": "Z00502",
        "name": "DR. CARLILE & PARTNERS",
        "primary_role_id": "RO315",
        "role_ids": [
            "RO315"
        ],
        "status": "Active",
        "post_code": "BT60 4QT",
        "uprn": "185586857"
    },
    {
        "org_id": "Z00503",
        "name": "DR. WEBSTER & PARTNERS",
        "primary_role_id": "RO315",
        "role_ids": [
            "RO315"
        ],
        "status": "Active",
        "post_code": "BT60 1TA",
        "uprn": "185578927"
    },
    {
        "org_id": "Z00504",
        "name": "DR. CLEARY & PARTNERS",
        "primary_role_id": "RO315",
        "role_ids": [
            "RO315"
        ],
        "status": "Active",
        "post_code": "BT71 7SL",
        "uprn": "187176640"
    },
    {
        "org_id": "Z00505",
        "name": "DR. MULLEN & PARTNERS",
        "primary_role_id": "RO315",
        "role_ids": [
            "RO315"
        ],
        "status": "Active",
        "post_code": "BT71 4AU",
        "uprn": "185884675"
    },
    {
        "org_id": "Z00506",
        "name": "DR. POTTER",
        "primary_role_id": "RO315",
        "role_ids": [
            "RO315"
        ],
        "status": "Active",
        "post_code": "BT69 6AF",
        "uprn": "185897136"
    },
    {
        "org_id": "Z00507",
        "name": "DR. WATTERS",
        "primary_role_id": "RO315",
        "role_ids": [
            "RO315"
        ],
        "status": "Active",
        "post_code": "BT60 3TU",
        "uprn": "185939371"
    },
    {
        "org_id": "Z00508",
        "name": "DR. PICKERING & PARTNER",
        "primary_role_id": "RO315",
        "role_ids": [
            "RO315"
        ],
        "status": "Active",
        "post_code": "BT62 2AN",
        "uprn": "185597726"
    },
    {
        "org_id": "Z00509",
        "name": "DR. MCKAY & PARTNERS",
        "primary_role_id": "RO315",
        "role_ids": [
            "RO315"
        ],
        "status": "Active",
        "post_code": "BT70 1HW",
        "uprn": "185936288"
    },
    {
        "org_id": "Z00512",
        "name": "DR. O'DONNELL & PARTNER",
        "primary_role_id": "RO315",
        "role_ids": [
            "RO315"
        ],
        "status": "Active",
        "post_code": "BT71 4LS",
        "uprn": "185646540"
    },
    {
        "org_id": "Z00514",
        "name": "DR. RODGERS & PARTNERS",
        "primary_role_id": "RO315",
        "role_ids": [
            "RO315"
        ],
        "status": "Active",
        "post_code": "BT61 7QG",
        "uprn": "Unknown"
    },
    {
        "org_id": "Z00515",
        "name": "DR. QUINN & PARTNERS",
        "primary_role_id": "RO315",
        "role_ids": [
            "RO315"
        ],
        "status": "Active",
        "post_code": "BT61 9PE",
        "uprn": "185592745"
    },
    {
        "org_id": "Z00516",
        "name": "DR. O'HAGAN & PARTNERS",
        "primary_role_id": "RO315",
        "role_ids": [
            "RO315"
        ],
        "status": "Active",
        "post_code": "BT61 7QG",
        "uprn": "Unknown"
    },
    {
        "org_id": "Z00519",
        "name": "DR. MITCHEL & PARTNER",
        "primary_role_id": "RO315",
        "role_ids": [
            "RO315"
        ],
        "status": "Active",
        "post_code": "BT71 4LP",
        "uprn": "185646526"
    },
    {
        "org_id": "Z00526",
        "name": "DR. MAGENNIS & PARTNERS",
        "primary_role_id": "RO315",
        "role_ids": [
            "RO315"
        ],
        "status": "Active",
        "post_code": "BT35 6BW",
        "uprn": "185337356"
    },
    {
        "org_id": "Z00528",
        "name": "DR. FEE",
        "primary_role_id": "RO315",
        "role_ids": [
            "RO315"
        ],
        "status": "Active",
        "post_code": "BT35 9HD",
        "uprn": "Unknown"
    },
    {
        "org_id": "Z00529",
        "name": "DR. FLOOD & PARTNERS",
        "primary_role_id": "RO315",
        "role_ids": [
            "RO315"
        ],
        "status": "Active",
        "post_code": "BT35 6BW",
        "uprn": "185337356"
    },
    {
        "org_id": "Z00530",
        "name": "DR. MEGAW & PARTNER",
        "primary_role_id": "RO315",
        "role_ids": [
            "RO315"
        ],
        "status": "Active",
        "post_code": "BT34 5QH",
        "uprn": "Unknown"
    },
    {
        "org_id": "Z00531",
        "name": "DR. KEOWN & PARTNERS",
        "primary_role_id": "RO315",
        "role_ids": [
            "RO315"
        ],
        "status": "Active",
        "post_code": "BT34 4TH",
        "uprn": "185331655"
    },
    {
        "org_id": "Z00532",
        "name": "SHSCT KILKEEL MEDICAL PRACTICE",
        "primary_role_id": "RO315",
        "role_ids": [
            "RO315"
        ],
        "status": "Active",
        "post_code": "BT34 4BH",
        "uprn": "Unknown"
    },
    {
        "org_id": "Z00533",
        "name": "DR. VETTIANKAL",
        "primary_role_id": "RO315",
        "role_ids": [
            "RO315"
        ],
        "status": "Active",
        "post_code": "BT35 8JT",
        "uprn": "187356388"
    },
    {
        "org_id": "Z00534",
        "name": "DR. KING & PARTNERS",
        "primary_role_id": "RO315",
        "role_ids": [
            "RO315"
        ],
        "status": "Active",
        "post_code": "BT35 6BW",
        "uprn": "185337360"
    },
    {
        "org_id": "Z00535",
        "name": "DR. WADE & PARTNERS",
        "primary_role_id": "RO315",
        "role_ids": [
            "RO315"
        ],
        "status": "Active",
        "post_code": "BT34 5QH",
        "uprn": "Unknown"
    },
    {
        "org_id": "Z00536",
        "name": "DR. BINGHAM & PARTNERS",
        "primary_role_id": "RO315",
        "role_ids": [
            "RO315"
        ],
        "status": "Active",
        "post_code": "BT34 3HS",
        "uprn": "185919366"
    },
    {
        "org_id": "Z00537",
        "name": "DR. MCVERRY & PARTNERS",
        "primary_role_id": "RO315",
        "role_ids": [
            "RO315"
        ],
        "status": "Active",
        "post_code": "BT35 6BW",
        "uprn": "185337360"
    },
    {
        "org_id": "Z00539",
        "name": "DR. BRANNIGAN & PARTNER",
        "primary_role_id": "RO315",
        "role_ids": [
            "RO315"
        ],
        "status": "Active",
        "post_code": "BT35 6BW",
        "uprn": "185337360"
    },
    {
        "org_id": "Z00540",
        "name": "DR. TORNEY & PARTNERS",
        "primary_role_id": "RO315",
        "role_ids": [
            "RO315"
        ],
        "status": "Active",
        "post_code": "BT35 6BW",
        "uprn": "185337362"
    },
    {
        "org_id": "Z00542",
        "name": "DR. LARKIN & PARTNER",
        "primary_role_id": "RO315",
        "role_ids": [
            "RO315"
        ],
        "status": "Active",
        "post_code": "BT35 0PB",
        "uprn": "185336647"
    },
    {
        "org_id": "Z00543",
        "name": "DR. MURDOCK & PARTNERS",
        "primary_role_id": "RO315",
        "role_ids": [
            "RO315"
        ],
        "status": "Active",
        "post_code": "BT34 3JD",
        "uprn": "Unknown"
    },
    {
        "org_id": "Z00544",
        "name": "DR. MCKINLEY & PARTNERS",
        "primary_role_id": "RO315",
        "role_ids": [
            "RO315"
        ],
        "status": "Active",
        "post_code": "BT35 6BW",
        "uprn": "185337356"
    },
    {
        "org_id": "Z00545",
        "name": "SHSCT MULLAGHBAWN SURGERY",
        "primary_role_id": "RO315",
        "role_ids": [
            "RO315"
        ],
        "status": "Active",
        "post_code": "BT35 9RA",
        "uprn": "185828099"
    },
    {
        "org_id": "Z00546",
        "name": "DR. MCKERNAN & PARTNERS",
        "primary_role_id": "RO315",
        "role_ids": [
            "RO315"
        ],
        "status": "Active",
        "post_code": "BT35 7AW",
        "uprn": "Unknown"
    },
    {
        "org_id": "Z00547",
        "name": "DR. SHANNON & PARTNERS",
        "primary_role_id": "RO315",
        "role_ids": [
            "RO315"
        ],
        "status": "Active",
        "post_code": "BT34 5QH",
        "uprn": "Unknown"
    },
    {
        "org_id": "Z00549",
        "name": "DR. QUINN & PARTNERS",
        "primary_role_id": "RO315",
        "role_ids": [
            "RO315"
        ],
        "status": "Active",
        "post_code": "BT35 0BE",
        "uprn": "185335842"
    },
    {
        "org_id": "Z00551",
        "name": "DR. ALLEN & PARTNER",
        "primary_role_id": "RO315",
        "role_ids": [
            "RO315"
        ],
        "status": "Active",
        "post_code": "BT35 9JJ",
        "uprn": "Unknown"
    },
    {
        "org_id": "Z00553",
        "name": "DR. BONNER & PARTNER",
        "primary_role_id": "RO315",
        "role_ids": [
            "RO315"
        ],
        "status": "Active",
        "post_code": "BT34 3NE",
        "uprn": "185324840"
    },
    {
        "org_id": "Z00554",
        "name": "DR. POOTS & PARTNERS",
        "primary_role_id": "RO315",
        "role_ids": [
            "RO315"
        ],
        "status": "Active",
        "post_code": "BT34 4DN",
        "uprn": "185920478"
    },
    {
        "org_id": "Z00557",
        "name": "DR. PATTERSON & PARTNERS",
        "primary_role_id": "RO315",
        "role_ids": [
            "RO315"
        ],
        "status": "Active",
        "post_code": "BT65 5BE",
        "uprn": "Unknown"
    },
    {
        "org_id": "Z00562",
        "name": "DR. MAGUIRE & PARTNERS",
        "primary_role_id": "RO315",
        "role_ids": [
            "RO315"
        ],
        "status": "Active",
        "post_code": "BT74 6NN",
        "uprn": "Unknown"
    },
    {
        "org_id": "Z00563",
        "name": "DR. MULLIGAN & PARTNER",
        "primary_role_id": "RO315",
        "role_ids": [
            "RO315"
        ],
        "status": "Active",
        "post_code": "BT74 6NN",
        "uprn": "Unknown"
    },
    {
        "org_id": "Z00564",
        "name": "DR. MEADE & PARTNERS",
        "primary_role_id": "RO315",
        "role_ids": [
            "RO315"
        ],
        "status": "Active",
        "post_code": "BT74 6NN",
        "uprn": "Unknown"
    },
    {
        "org_id": "Z00566",
        "name": "DR. HAIGNEY & PARTNERS",
        "primary_role_id": "RO315",
        "role_ids": [
            "RO315"
        ],
        "status": "Active",
        "post_code": "BT94 1EH",
        "uprn": "185719322"
    },
    {
        "org_id": "Z00568",
        "name": "DR. MALLON & PARTNER",
        "primary_role_id": "RO315",
        "role_ids": [
            "RO315"
        ],
        "status": "Active",
        "post_code": "BT74 6NN",
        "uprn": "Unknown"
    },
    {
        "org_id": "Z00571",
        "name": "DR. CATHCART & PARTNERS",
        "primary_role_id": "RO315",
        "role_ids": [
            "RO315"
        ],
        "status": "Active",
        "post_code": "BT74 6NN",
        "uprn": "Unknown"
    },
    {
        "org_id": "Z00574",
        "name": "DR. DOLAN & PARTNERS",
        "primary_role_id": "RO315",
        "role_ids": [
            "RO315"
        ],
        "status": "Active",
        "post_code": "BT92 0GT",
        "uprn": "185911395"
    },
    {
        "org_id": "Z00576",
        "name": "DR. HERDMAN & PARTNERS",
        "primary_role_id": "RO315",
        "role_ids": [
            "RO315"
        ],
        "status": "Active",
        "post_code": "BT93 3FY",
        "uprn": "Unknown"
    },
    {
        "org_id": "Z00584",
        "name": "WHSCT BROOKEBOROUGH/TEMPO PCS",
        "primary_role_id": "RO315",
        "role_ids": [
            "RO315"
        ],
        "status": "Active",
        "post_code": "BT94 4JG",
        "uprn": "Unknown"
    },
    {
        "org_id": "Z00585",
        "name": "DR. CUNNINGHAM & PARTNERS",
        "primary_role_id": "RO315",
        "role_ids": [
            "RO315"
        ],
        "status": "Active",
        "post_code": "BT92 1DD",
        "uprn": "187384727"
    },
    {
        "org_id": "Z00596",
        "name": "DR. MCNEILL & PARTNERS",
        "primary_role_id": "RO315",
        "role_ids": [
            "RO315"
        ],
        "status": "Active",
        "post_code": "BT47 6AH",
        "uprn": "Unknown"
    },
    {
        "org_id": "Z00597",
        "name": "DR. OLLERENSHAW & PARTNERS",
        "primary_role_id": "RO315",
        "role_ids": [
            "RO315"
        ],
        "status": "Active",
        "post_code": "BT49 0TE",
        "uprn": "185530617"
    },
    {
        "org_id": "Z00598",
        "name": "DR. FOY & PARTNERS",
        "primary_role_id": "RO315",
        "role_ids": [
            "RO315"
        ],
        "status": "Active",
        "post_code": "BT48 7NN",
        "uprn": "185949776"
    },
    {
        "org_id": "Z00599",
        "name": "DR. O'DONNELL & PARTNERS",
        "primary_role_id": "RO315",
        "role_ids": [
            "RO315"
        ],
        "status": "Active",
        "post_code": "BT48 7DH",
        "uprn": "Unknown"
    },
    {
        "org_id": "Z00600",
        "name": "DR. GALLAGHER & PARTNERS",
        "primary_role_id": "RO315",
        "role_ids": [
            "RO315"
        ],
        "status": "Active",
        "post_code": "BT47 4AB",
        "uprn": "185851352"
    },
    {
        "org_id": "Z00601",
        "name": "DR. SMYTH & PARTNERS",
        "primary_role_id": "RO315",
        "role_ids": [
            "RO315"
        ],
        "status": "Active",
        "post_code": "BT82 9AF",
        "uprn": "185705742"
    },
    {
        "org_id": "Z00602",
        "name": "DR. DOOHAN & PARTNERS",
        "primary_role_id": "RO315",
        "role_ids": [
            "RO315"
        ],
        "status": "Active",
        "post_code": "BT48 7DH",
        "uprn": "Unknown"
    },
    {
        "org_id": "Z00603",
        "name": "DR. KNOX & PARTNER",
        "primary_role_id": "RO315",
        "role_ids": [
            "RO315"
        ],
        "status": "Active",
        "post_code": "BT47 4TD",
        "uprn": "185494416"
    },
    {
        "org_id": "Z00604",
        "name": "DR. MACE & PARTNERS",
        "primary_role_id": "RO315",
        "role_ids": [
            "RO315"
        ],
        "status": "Active",
        "post_code": "BT48 7NY",
        "uprn": "185949797"
    },
    {
        "org_id": "Z00605",
        "name": "DR. FULLERTON & PARTNERS",
        "primary_role_id": "RO315",
        "role_ids": [
            "RO315"
        ],
        "status": "Active",
        "post_code": "BT82 0NB",
        "uprn": "185702455"
    },
    {
        "org_id": "Z00608",
        "name": "DR. BLACK & PARTNERS",
        "primary_role_id": "RO315",
        "role_ids": [
            "RO315"
        ],
        "status": "Active",
        "post_code": "BT48 9DN",
        "uprn": "Unknown"
    },
    {
        "org_id": "Z00609",
        "name": "DR. PRATT & PARTNERS",
        "primary_role_id": "RO315",
        "role_ids": [
            "RO315"
        ],
        "status": "Active",
        "post_code": "BT49 0TE",
        "uprn": "185530617"
    },
    {
        "org_id": "Z00610",
        "name": "DR. MULLAN & PARTNERS",
        "primary_role_id": "RO315",
        "role_ids": [
            "RO315"
        ],
        "status": "Active",
        "post_code": "BT82 8AS",
        "uprn": "Unknown"
    },
    {
        "org_id": "Z00614",
        "name": "DR. KYLE & PARTNER",
        "primary_role_id": "RO315",
        "role_ids": [
            "RO315"
        ],
        "status": "Active",
        "post_code": "BT47 4RS",
        "uprn": "185493952"
    },
    {
        "org_id": "Z00615",
        "name": "DR. LALSINGH & PARTNERS",
        "primary_role_id": "RO315",
        "role_ids": [
            "RO315"
        ],
        "status": "Active",
        "post_code": "BT48 7GW",
        "uprn": "185511660"
    },
    {
        "org_id": "Z00616",
        "name": "DR. GREENE & PARTNERS",
        "primary_role_id": "RO315",
        "role_ids": [
            "RO315"
        ],
        "status": "Active",
        "post_code": "BT81 7AZ",
        "uprn": "185861384"
    },
    {
        "org_id": "Z00618",
        "name": "DR. DOHERTY & PARTNER",
        "primary_role_id": "RO315",
        "role_ids": [
            "RO315"
        ],
        "status": "Active",
        "post_code": "BT48 7ER",
        "uprn": "187176773"
    },
    {
        "org_id": "Z00619",
        "name": "DR. QUINN & PARTNERS",
        "primary_role_id": "RO315",
        "role_ids": [
            "RO315"
        ],
        "status": "Active",
        "post_code": "BT49 0NA",
        "uprn": "185806680"
    },
    {
        "org_id": "Z00620",
        "name": "DR. ETHERSON & PARTNERS",
        "primary_role_id": "RO315",
        "role_ids": [
            "RO315"
        ],
        "status": "Active",
        "post_code": "BT82 8AS",
        "uprn": "Unknown"
    },
    {
        "org_id": "Z00621",
        "name": "DR. DEANE & PARTNERS",
        "primary_role_id": "RO315",
        "role_ids": [
            "RO315"
        ],
        "status": "Active",
        "post_code": "BT48 8NL",
        "uprn": "185847054"
    },
    {
        "org_id": "Z00622",
        "name": "WHSCT RACECOURSE/MEDICAL",
        "primary_role_id": "RO315",
        "role_ids": [
            "RO315"
        ],
        "status": "Active",
        "post_code": "BT48 8NL",
        "uprn": "185847054"
    },
    {
        "org_id": "Z00623",
        "name": "DR. ORR & PARTNERS",
        "primary_role_id": "RO315",
        "role_ids": [
            "RO315"
        ],
        "status": "Active",
        "post_code": "BT48 6LD",
        "uprn": "185849338"
    },
    {
        "org_id": "Z00624",
        "name": "DR. BOYLE & PARTNERS",
        "primary_role_id": "RO315",
        "role_ids": [
            "RO315"
        ],
        "status": "Active",
        "post_code": "BT47 6AH",
        "uprn": "Unknown"
    },
    {
        "org_id": "Z00625",
        "name": "WHSCT BAYVIEW MEDICAL PRACTICE",
        "primary_role_id": "RO315",
        "role_ids": [
            "RO315"
        ],
        "status": "Active",
        "post_code": "BT48 0LZ",
        "uprn": "Unknown"
    },
    {
        "org_id": "Z00626",
        "name": "DR. RODGERS & PARTNERS",
        "primary_role_id": "RO315",
        "role_ids": [
            "RO315"
        ],
        "status": "Active",
        "post_code": "BT47 6AH",
        "uprn": "Unknown"
    },
    {
        "org_id": "Z00627",
        "name": "DR. DOHERTY & PARTNERS",
        "primary_role_id": "RO315",
        "role_ids": [
            "RO315"
        ],
        "status": "Active",
        "post_code": "BT47 3AB",
        "uprn": "185485207"
    },
    {
        "org_id": "Z00629",
        "name": "DR. THOMASIUS & PARTNERS",
        "primary_role_id": "RO315",
        "role_ids": [
            "RO315"
        ],
        "status": "Active",
        "post_code": "BT49 0NA",
        "uprn": "185806680"
    },
    {
        "org_id": "Z00651",
        "name": "WHSCT FINTONA/MEDICAL",
        "primary_role_id": "RO315",
        "role_ids": [
            "RO315"
        ],
        "status": "Active",
        "post_code": "BT78 2BB",
        "uprn": "185670704"
    },
    {
        "org_id": "Z00652",
        "name": "DR. RITCHIE & PARTNER",
        "primary_role_id": "RO315",
        "role_ids": [
            "RO315"
        ],
        "status": "Active",
        "post_code": "BT78 4SB",
        "uprn": "185838149"
    },
    {
        "org_id": "Z00654",
        "name": "DR. QUINN & PARTNERS",
        "primary_role_id": "RO315",
        "role_ids": [
            "RO315"
        ],
        "status": "Active",
        "post_code": "BT79 0FL",
        "uprn": "187684665"
    },
    {
        "org_id": "Z00655",
        "name": "DR. SCULLY",
        "primary_role_id": "RO315",
        "role_ids": [
            "RO315"
        ],
        "status": "Active",
        "post_code": "BT78 4QY",
        "uprn": "187225548"
    },
    {
        "org_id": "Z00657",
        "name": "DR. BRADLEY & PARTNERS",
        "primary_role_id": "RO315",
        "role_ids": [
            "RO315"
        ],
        "status": "Active",
        "post_code": "BT79 0FL",
        "uprn": "187684665"
    },
    {
        "org_id": "Z00660",
        "name": "DR. CORRY & PARTNERS",
        "primary_role_id": "RO315",
        "role_ids": [
            "RO315"
        ],
        "status": "Active",
        "post_code": "BT79 9JR",
        "uprn": "Unknown"
    },
    {
        "org_id": "Z00661",
        "name": "WHSCT DROMORE/TRILLICK",
        "primary_role_id": "RO315",
        "role_ids": [
            "RO315"
        ],
        "status": "Active",
        "post_code": "BT78 3AU",
        "uprn": "185672217"
    },
    {
        "org_id": "Z00662",
        "name": "DR. GORMLEY & PARTNERS",
        "primary_role_id": "RO315",
        "role_ids": [
            "RO315"
        ],
        "status": "Active",
        "post_code": "BT79 0FL",
        "uprn": "187684665"
    },
    {
        "org_id": "Z00663",
        "name": "DR. DEEHAN & PARTNER",
        "primary_role_id": "RO315",
        "role_ids": [
            "RO315"
        ],
        "status": "Active",
        "post_code": "BT79 0FL",
        "uprn": "187684665"
    },
    {
        "org_id": "Z00664",
        "name": "DR. MCAULEY & PARTNER",
        "primary_role_id": "RO315",
        "role_ids": [
            "RO315"
        ],
        "status": "Active",
        "post_code": "BT79 8DL",
        "uprn": "185686969"
    }
]