[
    {
        "org_id": "T1480",
        "name": "HEALTH RESEARCH AUTHORITY",
        "primary_role_id": "RO189",
        "role_ids": [
            "RO189"
        ],
        "status": "Active",
        "post_code": "SE1 6LH",
        "uprn": "Unknown"
    },
    {
        "org_id": "T1470",
        "name": "NHS COMMISSIONING BOARD AUTHORITY",
        "primary_role_id": "RO189",
        "role_ids": [
            "RO189"
        ],
        "status": "Active",
        "post_code": "LS2 7UE",
        "uprn": "Unknown"
    },
    {
        "org_id": "T1310",
        "name": "HEALTH PROTECTION AGENCY",
        "primary_role_id": "RO189",
        "role_ids": [
            "RO189"
        ],
        "status": "Active",
        "post_code": "WC1V 7BA",
        "uprn": "Unknown"
    },
    {
        "org_id": "T1460",
        "name": "NHS BLOOD AND TRANSPLANT",
        "primary_role_id": "RO189",
        "role_ids": [
            "RO189"
        ],
        "status": "Active",
        "post_code": "BS34 7QH",
        "uprn": "Unknown"
    },
    {
        "org_id": "T1150",
        "name": "NHS RESOLUTION",
        "primary_role_id": "RO189",
        "role_ids": [
            "RO189"
        ],
        "status": "Active",
        "post_code": "E14 4PU",
        "uprn": "10092040664"
    },
    {
        "org_id": "T1430",
        "name": "HEALTH AND SOCIAL CARE INFORMATION CENTRE",
        "primary_role_id": "RO189",
        "role_ids": [
            "RO189"
        ],
        "status": "Active",
        "post_code": "LS1 6AE",
        "uprn": "Unknown"
    },
    {
        "org_id": "T1450",
        "name": "NHS BUSINESS SERVICES AUTHORITY",
        "primary_role_id": "RO189",
        "role_ids": [
            "RO189"
        ],
        "status": "Active",
        "post_code": "NE15 8NY",
        "uprn": "4510705776"
    },
    {
        "org_id": "T1510",
        "name": "NHS ENGLAND - T1510",
        "primary_role_id": "RO189",
        "role_ids": [
            "RO189"
        ],
        "status": "Active",
        "post_code": "LS1 4PL",
        "uprn": "Unknown"
    },
    {
        "org_id": "T1520",
        "name": "NHS IMPROVEMENT",
        "primary_role_id": "RO189",
        "role_ids": [
            "RO189"
        ],
        "status": "Active",
        "post_code": "SE1 8UG",
        "uprn": "Unknown"
    },
    {
        "org_id": "T1560",
        "name": "NHS TRANSFORMATION UNIT",
        "primary_role_id": "RO189",
        "role_ids": [
            "RO189"
        ],
        "status": "Active",
        "post_code": "M1 2JB",
        "uprn": "Unknown"
    },
    {
        "org_id": "T1530",
        "name": "HEALTH EDUCATION AND IMPROVEMENT WALES (HEIW)",
        "primary_role_id": "RO189",
        "role_ids": [
            "RO189"
        ],
        "status": "Active",
        "post_code": "CF15 7QQ",
        "uprn": "Unknown"
    },
    {
        "org_id": "T1540",
        "name": "NHS COUNTER FRAUD AUTHORITY",
        "primary_role_id": "RO189",
        "role_ids": [
            "RO189"
        ],
        "status": "Active",
        "post_code": "E14 5EA",
        "uprn": "Unknown"
    },
    {
        "org_id": "T1550",
        "name": "COMMUNITY HEALTH PARTNERSHIPS LTD",
        "primary_role_id": "RO189",
        "role_ids": [
            "RO189"
        ],
        "status": "Active",
        "post_code": "B2 5BG",
        "uprn": "Unknown"
    },
    {
        "org_id": "T48NT",
        "name": "NHSX",
        "primary_role_id": "RO189",
        "role_ids": [
            "RO189"
        ],
        "status": "Active",
        "post_code": "LS2 7UE",
        "uprn": "Unknown"
    },
    {
        "org_id": "L5X6M",
        "name": "DIGITAL HEALTH AND CARE WALES",
        "primary_role_id": "RO189",
        "role_ids": [
            "RO189"
        ],
        "status": "Active",
        "post_code": "CF11 9AD",
        "uprn": "200002932486"
    },
    {
        "org_id": "S7E6C",
        "name": "NATIONAL ARTIFICIAL EYE SERVICE",
        "primary_role_id": "RO189",
        "role_ids": [
            "RO189"
        ],
        "status": "Active",
        "post_code": "FY2 0BF",
        "uprn": "10000870751"
    },
    {
        "org_id": "O7I9E",
        "name": "FOUNDATION PROGRAMME",
        "primary_role_id": "RO189",
        "role_ids": [
            "RO189"
        ],
        "status": "Active",
        "post_code": "LS11 1HP",
        "uprn": "10092852958"
    },
    {
        "org_id": "S8X9R",
        "name": "NHS SUPPLY CHAIN COORDINATION LTD",
        "primary_role_id": "RO189",
        "role_ids": [
            "RO189"
        ],
        "status": "Active",
        "post_code": "SE1 8UG",
        "uprn": "100023226264"
    }
]