[
    {
        "org_id": "YGK",
        "name": "TPP SYSTMONE DISASTER RECOVERY",
        "primary_role_id": "RO93",
        "role_ids": [
            "RO93"
        ],
        "status": "Active",
        "post_code": "DE21 7BX",
        "uprn": "Unknown"
    },
    {
        "org_id": "YGJ",
        "name": "EGTON MEDICAL INFORMATION SYSTEMS LTD (EMIS)",
        "primary_role_id": "RO93",
        "role_ids": [
            "RO93"
        ],
        "status": "Active",
        "post_code": "LS19 6BA",
        "uprn": "Unknown"
    },
    {
        "org_id": "YGD",
        "name": "NATIONAL PHARMACEUTICAL ASSOCIATION",
        "primary_role_id": "RO93",
        "role_ids": [
            "RO93"
        ],
        "status": "Active",
        "post_code": "SN15 5SE",
        "uprn": "Unknown"
    },
    {
        "org_id": "YGH",
        "name": "CEGEDIM RX LTD",
        "primary_role_id": "RO93",
        "role_ids": [
            "RO93"
        ],
        "status": "Active",
        "post_code": "PR7 7NR",
        "uprn": "10094692287"
    },
    {
        "org_id": "YGG",
        "name": "POSITIVE SOLUTIONS LTD",
        "primary_role_id": "RO93",
        "role_ids": [
            "RO93"
        ],
        "status": "Active",
        "post_code": "PR6 8QP",
        "uprn": "Unknown"
    },
    {
        "org_id": "YGL",
        "name": "IMS HEALTH LIMITED",
        "primary_role_id": "RO93",
        "role_ids": [
            "RO93"
        ],
        "status": "Active",
        "post_code": "E14 2AA",
        "uprn": "Unknown"
    },
    {
        "org_id": "YGA",
        "name": "THE PHOENIX PARTNERSHIP",
        "primary_role_id": "RO93",
        "role_ids": [
            "RO93"
        ],
        "status": "Active",
        "post_code": "LS18 5PX",
        "uprn": "72307872"
    },
    {
        "org_id": "YGC",
        "name": "IN PRACTICE SYSTEMS LTD",
        "primary_role_id": "RO93",
        "role_ids": [
            "RO93"
        ],
        "status": "Active",
        "post_code": "SW8 3QJ",
        "uprn": "Unknown"
    },
    {
        "org_id": "YGF",
        "name": "LLOYDS PHARMACY LTD",
        "primary_role_id": "RO93",
        "role_ids": [
            "RO93"
        ],
        "status": "Active",
        "post_code": "CV2 2TX",
        "uprn": "Unknown"
    },
    {
        "org_id": "YGE",
        "name": "ISOFT PLC",
        "primary_role_id": "RO93",
        "role_ids": [
            "RO93"
        ],
        "status": "Active",
        "post_code": "OX16 3JT",
        "uprn": "Unknown"
    }
]