[
    {
        "org_id": "VE2",
        "name": "SWINDON CUSTODY CENTRE",
        "primary_role_id": "RO234",
        "role_ids": [
            "RO229",
            "RO234"
        ],
        "status": "Active",
        "post_code": "SN3 4RB",
        "uprn": "Unknown"
    },
    {
        "org_id": "VNM",
        "name": "MELKSHAM CUSTODY CENTRE",
        "primary_role_id": "RO234",
        "role_ids": [
            "RO229",
            "RO234"
        ],
        "status": "Active",
        "post_code": "SN12 6QQ",
        "uprn": "200001305164"
    },
    {
        "org_id": "WFC",
        "name": "BRIDGWATER CUSTODY CENTRE",
        "primary_role_id": "RO234",
        "role_ids": [
            "RO229",
            "RO234"
        ],
        "status": "Active",
        "post_code": "TA6 4RR",
        "uprn": "10090855370"
    },
    {
        "org_id": "VDK",
        "name": "MINEHEAD CUSTODY CENTRE",
        "primary_role_id": "RO234",
        "role_ids": [
            "RO229",
            "RO234"
        ],
        "status": "Active",
        "post_code": "TA24 5RJ",
        "uprn": "Unknown"
    },
    {
        "org_id": "VF8",
        "name": "BOURNEMOUTH CENTRAL CUSTODY CENTRE",
        "primary_role_id": "RO234",
        "role_ids": [
            "RO229",
            "RO234"
        ],
        "status": "Active",
        "post_code": "BH1 1QQ",
        "uprn": "100041059110"
    },
    {
        "org_id": "WEV",
        "name": "EAST GRINSTEAD CUSTODY CENTRE",
        "primary_role_id": "RO234",
        "role_ids": [
            "RO229",
            "RO234"
        ],
        "status": "Active",
        "post_code": "RH19 3BS",
        "uprn": "100062489260"
    },
    {
        "org_id": "WL8",
        "name": "EASTBOURNE CUSTODY CENTRE",
        "primary_role_id": "RO234",
        "role_ids": [
            "RO229",
            "RO234"
        ],
        "status": "Active",
        "post_code": "BN21 4TW",
        "uprn": "Unknown"
    },
    {
        "org_id": "VEN",
        "name": "HAILSHAM CUSTODY CENTRE",
        "primary_role_id": "RO234",
        "role_ids": [
            "RO229",
            "RO234"
        ],
        "status": "Active",
        "post_code": "BN27 1AB",
        "uprn": "Unknown"
    },
    {
        "org_id": "VCY",
        "name": "HASTINGS CUSTODY CENTRE",
        "primary_role_id": "RO234",
        "role_ids": [
            "RO229",
            "RO234"
        ],
        "status": "Active",
        "post_code": "TN34 1JJ",
        "uprn": "Unknown"
    },
    {
        "org_id": "VJY",
        "name": "HAYWARDS HEATH CUSTODY CENTRE",
        "primary_role_id": "RO234",
        "role_ids": [
            "RO229",
            "RO234"
        ],
        "status": "Active",
        "post_code": "RH16 4BA",
        "uprn": "100062485882"
    },
    {
        "org_id": "WYV",
        "name": "LITTLEHAMPTON CUSTODY CENTRE",
        "primary_role_id": "RO234",
        "role_ids": [
            "RO229",
            "RO234"
        ],
        "status": "Active",
        "post_code": "BN17 6AR",
        "uprn": "Unknown"
    },
    {
        "org_id": "VM6",
        "name": "BEAUMONT LEYS CUSTODY CENTRE",
        "primary_role_id": "RO234",
        "role_ids": [
            "RO229",
            "RO234"
        ],
        "status": "Active",
        "post_code": "LE4 1DS",
        "uprn": "2465028046"
    },
    {
        "org_id": "VQW",
        "name": "SHOREHAM CUSTODY CENTRE",
        "primary_role_id": "RO234",
        "role_ids": [
            "RO229",
            "RO234"
        ],
        "status": "Active",
        "post_code": "BN43 6DB",
        "uprn": "60012703"
    },
    {
        "org_id": "WV0",
        "name": "BOSTON CUSTODY CENTRE",
        "primary_role_id": "RO234",
        "role_ids": [
            "RO229",
            "RO234"
        ],
        "status": "Active",
        "post_code": "PE21 8QS",
        "uprn": "Unknown"
    },
    {
        "org_id": "VTX",
        "name": "GRANTHAM CUSTODY CENTRE",
        "primary_role_id": "RO234",
        "role_ids": [
            "RO229",
            "RO234"
        ],
        "status": "Active",
        "post_code": "NG31 7XT",
        "uprn": "10007262274"
    },
    {
        "org_id": "WEA",
        "name": "BRIDPORT CUSTODY CENTRE",
        "primary_role_id": "RO234",
        "role_ids": [
            "RO229",
            "RO234"
        ],
        "status": "Active",
        "post_code": "DT6 3TP",
        "uprn": "10023243796"
    },
    {
        "org_id": "WMW",
        "name": "WAREHAM CUSTODY CENTRE",
        "primary_role_id": "RO234",
        "role_ids": [
            "RO229",
            "RO234"
        ],
        "status": "Active",
        "post_code": "BH20 4PW",
        "uprn": "Unknown"
    },
    {
        "org_id": "WKA",
        "name": "SPALDING CUSTODY CENTRE",
        "primary_role_id": "RO234",
        "role_ids": [
            "RO229",
            "RO234"
        ],
        "status": "Active",
        "post_code": "PE11 2AF",
        "uprn": "Unknown"
    },
    {
        "org_id": "VP3",
        "name": "WEYMOUTH WEST CUSTODY CENTRE",
        "primary_role_id": "RO234",
        "role_ids": [
            "RO229",
            "RO234"
        ],
        "status": "Active",
        "post_code": "DT4 9WW",
        "uprn": "10023244779"
    },
    {
        "org_id": "VF6",
        "name": "BISHOP AUCKLAND CUSTODY CENTRE",
        "primary_role_id": "RO234",
        "role_ids": [
            "RO229",
            "RO234"
        ],
        "status": "Active",
        "post_code": "DL14 6LB",
        "uprn": "Unknown"
    },
    {
        "org_id": "WXY",
        "name": "BARKINGSIDE CUSTODY CENTRE",
        "primary_role_id": "RO234",
        "role_ids": [
            "RO229",
            "RO234"
        ],
        "status": "Active",
        "post_code": "IG6 1QB",
        "uprn": "100023051419"
    },
    {
        "org_id": "VGP",
        "name": "BERIN UNDERWOOD HOUSE",
        "primary_role_id": "RO234",
        "role_ids": [
            "RO229",
            "RO234"
        ],
        "status": "Active",
        "post_code": "CR0 2XP",
        "uprn": "200001215645"
    },
    {
        "org_id": "VW4",
        "name": "BETHNAL GREEN CUSTODY CENTRE",
        "primary_role_id": "RO234",
        "role_ids": [
            "RO229",
            "RO234"
        ],
        "status": "Active",
        "post_code": "E2 9NZ",
        "uprn": "6039113"
    },
    {
        "org_id": "WDV",
        "name": "BEXLEYHEATH CUSTODY CENTRE",
        "primary_role_id": "RO234",
        "role_ids": [
            "RO229",
            "RO234"
        ],
        "status": "Active",
        "post_code": "DA7 4QS",
        "uprn": "100022922869"
    },
    {
        "org_id": "WMV",
        "name": "DARLINGTON CUSTODY CENTRE",
        "primary_role_id": "RO234",
        "role_ids": [
            "RO229",
            "RO234"
        ],
        "status": "Active",
        "post_code": "DL1 5LB",
        "uprn": "Unknown"
    },
    {
        "org_id": "VW2",
        "name": "BRIXTON CUSTODY CENTRE",
        "primary_role_id": "RO234",
        "role_ids": [
            "RO229",
            "RO234"
        ],
        "status": "Active",
        "post_code": "SW9 7DD",
        "uprn": "100023387140"
    },
    {
        "org_id": "VCV",
        "name": "DURHAM CITY CUSTODY CENTRE",
        "primary_role_id": "RO234",
        "role_ids": [
            "RO229",
            "RO234"
        ],
        "status": "Active",
        "post_code": "DH1 3AQ",
        "uprn": "Unknown"
    },
    {
        "org_id": "VK6",
        "name": "NEWTON AYCLIFFE CUSTODY CENTRE",
        "primary_role_id": "RO234",
        "role_ids": [
            "RO229",
            "RO234"
        ],
        "status": "Active",
        "post_code": "DL5 5QH",
        "uprn": "100110477981"
    },
    {
        "org_id": "VTC",
        "name": "BROMLEY CUSTODY CENTRE",
        "primary_role_id": "RO234",
        "role_ids": [
            "RO229",
            "RO234"
        ],
        "status": "Active",
        "post_code": "BR1 1ER",
        "uprn": "10013149271"
    },
    {
        "org_id": "WNJ",
        "name": "CATFORD CUSTODY CENTRE",
        "primary_role_id": "RO234",
        "role_ids": [
            "RO229",
            "RO234"
        ],
        "status": "Active",
        "post_code": "SE6 2RP",
        "uprn": "100023276940"
    },
    {
        "org_id": "WVJ",
        "name": "CHARING CROSS CUSTODY CENTRE",
        "primary_role_id": "RO234",
        "role_ids": [
            "RO229",
            "RO234"
        ],
        "status": "Active",
        "post_code": "WC2N 4JP",
        "uprn": "Unknown"
    },
    {
        "org_id": "WC6",
        "name": "PETERLEE CUSTODY CENTRE",
        "primary_role_id": "RO234",
        "role_ids": [
            "RO229",
            "RO234"
        ],
        "status": "Active",
        "post_code": "SR8 1QR",
        "uprn": "100110805052"
    },
    {
        "org_id": "WTC",
        "name": "CHELTENHAM TOWN CENTRE CUSTODY CENTRE",
        "primary_role_id": "RO234",
        "role_ids": [
            "RO229",
            "RO234"
        ],
        "status": "Active",
        "post_code": "GL51 6QT",
        "uprn": "Unknown"
    },
    {
        "org_id": "VC0",
        "name": "STROUD CUSTODY CENTRE",
        "primary_role_id": "RO234",
        "role_ids": [
            "RO229",
            "RO234"
        ],
        "status": "Active",
        "post_code": "GL5 1QQ",
        "uprn": "Unknown"
    },
    {
        "org_id": "WPM",
        "name": "ALTRINCHAM CUSTODY CENTRE",
        "primary_role_id": "RO234",
        "role_ids": [
            "RO229",
            "RO234"
        ],
        "status": "Active",
        "post_code": "WA14 1HZ",
        "uprn": "Unknown"
    },
    {
        "org_id": "WK7",
        "name": "ASHTON CUSTODY CENTRE",
        "primary_role_id": "RO234",
        "role_ids": [
            "RO229",
            "RO234"
        ],
        "status": "Active",
        "post_code": "OL7 0BQ",
        "uprn": "Unknown"
    },
    {
        "org_id": "VHR",
        "name": "ASTLEY BRIDGE CUSTODY CENTRE",
        "primary_role_id": "RO234",
        "role_ids": [
            "RO229",
            "RO234"
        ],
        "status": "Active",
        "post_code": "BL1 8UP",
        "uprn": "Unknown"
    },
    {
        "org_id": "WGF",
        "name": "BOLTON CENTRAL CUSTODY CENTRE",
        "primary_role_id": "RO234",
        "role_ids": [
            "RO229",
            "RO234"
        ],
        "status": "Active",
        "post_code": "BL2 1HX",
        "uprn": "10013868839"
    },
    {
        "org_id": "WWL",
        "name": "BOOTLE STREET CUSTODY CENTRE",
        "primary_role_id": "RO234",
        "role_ids": [
            "RO229",
            "RO234"
        ],
        "status": "Active",
        "post_code": "M2 5GU",
        "uprn": "Unknown"
    },
    {
        "org_id": "WLG",
        "name": "BURY CUSTODY CENTRE",
        "primary_role_id": "RO234",
        "role_ids": [
            "RO229",
            "RO234"
        ],
        "status": "Active",
        "post_code": "BL9 0RD",
        "uprn": "Unknown"
    },
    {
        "org_id": "VCQ",
        "name": "CHADDERTON CUSTODY CENTRE",
        "primary_role_id": "RO234",
        "role_ids": [
            "RO229",
            "RO234"
        ],
        "status": "Active",
        "post_code": "OL9 9XA",
        "uprn": "Unknown"
    },
    {
        "org_id": "WML",
        "name": "CHEADLE HEATH CUSTODY CENTRE",
        "primary_role_id": "RO234",
        "role_ids": [
            "RO229",
            "RO234"
        ],
        "status": "Active",
        "post_code": "SK3 0SA",
        "uprn": "Unknown"
    },
    {
        "org_id": "WLQ",
        "name": "STRATFORD CUSTODY CENTRE",
        "primary_role_id": "RO234",
        "role_ids": [
            "RO229",
            "RO234"
        ],
        "status": "Active",
        "post_code": "E15 4SG",
        "uprn": "Unknown"
    },
    {
        "org_id": "VKR",
        "name": "OLDHAM CUSTODY CENTRE",
        "primary_role_id": "RO234",
        "role_ids": [
            "RO229",
            "RO234"
        ],
        "status": "Active",
        "post_code": "OL1 1LR",
        "uprn": "10092861055"
    },
    {
        "org_id": "WWR",
        "name": "STREATHAM CUSTODY CENTRE",
        "primary_role_id": "RO234",
        "role_ids": [
            "RO229",
            "RO234"
        ],
        "status": "Active",
        "post_code": "SW16 1HJ",
        "uprn": "200000482049"
    },
    {
        "org_id": "WKC",
        "name": "SUTTON CUSTODY CENTRE",
        "primary_role_id": "RO234",
        "role_ids": [
            "RO229",
            "RO234"
        ],
        "status": "Active",
        "post_code": "SM1 4RF",
        "uprn": "Unknown"
    },
    {
        "org_id": "VW7",
        "name": "WEMBLEY CUSTODY CENTRE",
        "primary_role_id": "RO234",
        "role_ids": [
            "RO229",
            "RO234"
        ],
        "status": "Active",
        "post_code": "HA0 2HH",
        "uprn": "202089197"
    },
    {
        "org_id": "WJJ",
        "name": "WEST END CENTRAL CUSTODY CENTRE",
        "primary_role_id": "RO234",
        "role_ids": [
            "RO229",
            "RO234"
        ],
        "status": "Active",
        "post_code": "W1S 2EX",
        "uprn": "Unknown"
    },
    {
        "org_id": "WLT",
        "name": "WOOD GREEN CUSTODY CENTRE",
        "primary_role_id": "RO234",
        "role_ids": [
            "RO229",
            "RO234"
        ],
        "status": "Active",
        "post_code": "N22 8JA",
        "uprn": "Unknown"
    },
    {
        "org_id": "WW4",
        "name": "FULFORD ROAD CUSTODY CENTRE",
        "primary_role_id": "RO234",
        "role_ids": [
            "RO229",
            "RO234"
        ],
        "status": "Active",
        "post_code": "YO10 4BY",
        "uprn": "Unknown"
    },
    {
        "org_id": "WMA",
        "name": "HARROGATE CUSTODY CENTRE",
        "primary_role_id": "RO234",
        "role_ids": [
            "RO229",
            "RO234"
        ],
        "status": "Active",
        "post_code": "HG1 5PX",
        "uprn": "Unknown"
    },
    {
        "org_id": "WXN",
        "name": "NORTHALLERTON CUSTODY CENTRE",
        "primary_role_id": "RO234",
        "role_ids": [
            "RO229",
            "RO234"
        ],
        "status": "Active",
        "post_code": "DL7 8ES",
        "uprn": "Unknown"
    },
    {
        "org_id": "VLQ",
        "name": "WESTON FAVELL CUSTODY CENTRE",
        "primary_role_id": "RO234",
        "role_ids": [
            "RO229",
            "RO234"
        ],
        "status": "Active",
        "post_code": "NN3 8NZ",
        "uprn": "Unknown"
    },
    {
        "org_id": "VQ8",
        "name": "ALNWICK CUSTODY CENTRE",
        "primary_role_id": "RO234",
        "role_ids": [
            "RO229",
            "RO234"
        ],
        "status": "Active",
        "post_code": "NE66 1UJ",
        "uprn": "100110769925"
    },
    {
        "org_id": "VD6",
        "name": "ASHINGTON CUSTODY CENTRE",
        "primary_role_id": "RO234",
        "role_ids": [
            "RO229",
            "RO234"
        ],
        "status": "Active",
        "post_code": "NE63 9JX",
        "uprn": "100110768304"
    },
    {
        "org_id": "VPX",
        "name": "BLYTH CUSTODY CENTRE",
        "primary_role_id": "RO234",
        "role_ids": [
            "RO229",
            "RO234"
        ],
        "status": "Active",
        "post_code": "NE24 2AS",
        "uprn": "Unknown"
    },
    {
        "org_id": "VPQ",
        "name": "CRAMLINGTON CUSTODY CENTRE",
        "primary_role_id": "RO234",
        "role_ids": [
            "RO229",
            "RO234"
        ],
        "status": "Active",
        "post_code": "NE23 6UT",
        "uprn": "10035314849"
    },
    {
        "org_id": "WQ0",
        "name": "HEXHAM CUSTODY CENTRE",
        "primary_role_id": "RO234",
        "role_ids": [
            "RO229",
            "RO234"
        ],
        "status": "Active",
        "post_code": "NE46 3DG",
        "uprn": "Unknown"
    },
    {
        "org_id": "VKN",
        "name": "HOUGHTON LE SPRING CUSTODY CENTRE",
        "primary_role_id": "RO234",
        "role_ids": [
            "RO229",
            "RO234"
        ],
        "status": "Active",
        "post_code": "DH4 5BH",
        "uprn": "45016551"
    },
    {
        "org_id": "VR4",
        "name": "NORTH SHIELDS CUSTODY CENTRE",
        "primary_role_id": "RO234",
        "role_ids": [
            "RO229",
            "RO234"
        ],
        "status": "Active",
        "post_code": "NE30 1AB",
        "uprn": "47090641"
    },
    {
        "org_id": "WFG",
        "name": "SOUTH SHIELDS CUSTODY CENTRE",
        "primary_role_id": "RO234",
        "role_ids": [
            "RO229",
            "RO234"
        ],
        "status": "Active",
        "post_code": "NE33 1RR",
        "uprn": "200000003101"
    },
    {
        "org_id": "WXQ",
        "name": "WASHINGTON CUSTODY CENTRE",
        "primary_role_id": "RO234",
        "role_ids": [
            "RO229",
            "RO234"
        ],
        "status": "Active",
        "post_code": "NE38 7RY",
        "uprn": "Unknown"
    },
    {
        "org_id": "WGD",
        "name": "WHITLEY BAY CUSTODY CENTRE",
        "primary_role_id": "RO234",
        "role_ids": [
            "RO229",
            "RO234"
        ],
        "status": "Active",
        "post_code": "NE26 2TJ",
        "uprn": "47222767"
    },
    {
        "org_id": "VEJ",
        "name": "MANSFIELD CUSTODY CENTRE",
        "primary_role_id": "RO234",
        "role_ids": [
            "RO229",
            "RO234"
        ],
        "status": "Active",
        "post_code": "NG18 2HQ",
        "uprn": "Unknown"
    },
    {
        "org_id": "WKT",
        "name": "ROCHDALE CUSTODY CENTRE",
        "primary_role_id": "RO234",
        "role_ids": [
            "RO229",
            "RO234"
        ],
        "status": "Active",
        "post_code": "OL16 1AG",
        "uprn": "Unknown"
    },
    {
        "org_id": "WCE",
        "name": "HATFIELD CUSTODY CENTRE",
        "primary_role_id": "RO234",
        "role_ids": [
            "RO229",
            "RO234"
        ],
        "status": "Active",
        "post_code": "AL10 9SJ",
        "uprn": "10024370613"
    },
    {
        "org_id": "VMQ",
        "name": "HEMEL HEMPSTEAD CUSTODY CENTRE",
        "primary_role_id": "RO234",
        "role_ids": [
            "RO229",
            "RO234"
        ],
        "status": "Active",
        "post_code": "HP1 1HL",
        "uprn": "200004058042"
    },
    {
        "org_id": "WP2",
        "name": "STEVENAGE CUSTODY CENTRE",
        "primary_role_id": "RO234",
        "role_ids": [
            "RO229",
            "RO234"
        ],
        "status": "Active",
        "post_code": "SG1 1HF",
        "uprn": "Unknown"
    },
    {
        "org_id": "VXD",
        "name": "WATFORD CUSTODY CENTRE",
        "primary_role_id": "RO234",
        "role_ids": [
            "RO229",
            "RO234"
        ],
        "status": "Active",
        "post_code": "WD18 0BX",
        "uprn": "Unknown"
    },
    {
        "org_id": "VGR",
        "name": "CANTERBURY CUSTODY CENTRE",
        "primary_role_id": "RO234",
        "role_ids": [
            "RO229",
            "RO234"
        ],
        "status": "Active",
        "post_code": "CT1 3JQ",
        "uprn": "100062280101"
    },
    {
        "org_id": "WRK",
        "name": "FOLKESTONE CUSTODY CENTRE",
        "primary_role_id": "RO234",
        "role_ids": [
            "RO229",
            "RO234"
        ],
        "status": "Active",
        "post_code": "CT20 2SG",
        "uprn": "Unknown"
    },
    {
        "org_id": "WY0",
        "name": "MARGATE CUSTODY CENTRE",
        "primary_role_id": "RO234",
        "role_ids": [
            "RO229",
            "RO234"
        ],
        "status": "Active",
        "post_code": "CT9 1HL",
        "uprn": "Unknown"
    },
    {
        "org_id": "VC8",
        "name": "MEDWAY CUSTODY CENTRE",
        "primary_role_id": "RO234",
        "role_ids": [
            "RO229",
            "RO234"
        ],
        "status": "Active",
        "post_code": "ME7 1NE",
        "uprn": "Unknown"
    },
    {
        "org_id": "WPN",
        "name": "NORTH KENT CUSTODY CENTRE",
        "primary_role_id": "RO234",
        "role_ids": [
            "RO229",
            "RO234"
        ],
        "status": "Active",
        "post_code": "DA11 8BD",
        "uprn": "Unknown"
    },
    {
        "org_id": "WY9",
        "name": "TONBRIDGE CUSTODY CENTRE",
        "primary_role_id": "RO234",
        "role_ids": [
            "RO229",
            "RO234"
        ],
        "status": "Active",
        "post_code": "TN9 2HS",
        "uprn": "Unknown"
    },
    {
        "org_id": "WTW",
        "name": "BAMBER BRIDGE CUSTODY CENTRE",
        "primary_role_id": "RO234",
        "role_ids": [
            "RO229",
            "RO234"
        ],
        "status": "Active",
        "post_code": "PR5 6EA",
        "uprn": "Unknown"
    },
    {
        "org_id": "WXC",
        "name": "BLACKPOOL CUSTODY CENTRE",
        "primary_role_id": "RO234",
        "role_ids": [
            "RO229",
            "RO234"
        ],
        "status": "Active",
        "post_code": "FY4 4US",
        "uprn": "Unknown"
    },
    {
        "org_id": "VLG",
        "name": "CHORLEY CUSTODY CENTRE",
        "primary_role_id": "RO234",
        "role_ids": [
            "RO229",
            "RO234"
        ],
        "status": "Active",
        "post_code": "PR7 1DR",
        "uprn": "200004064658"
    },
    {
        "org_id": "WWY",
        "name": "DARWEN CUSTODY CENTRE",
        "primary_role_id": "RO234",
        "role_ids": [
            "RO229",
            "RO234"
        ],
        "status": "Active",
        "post_code": "BB3 0DA",
        "uprn": "Unknown"
    },
    {
        "org_id": "WER",
        "name": "FLEETWOOD CUSTODY CENTRE",
        "primary_role_id": "RO234",
        "role_ids": [
            "RO229",
            "RO234"
        ],
        "status": "Active",
        "post_code": "FY7 6HJ",
        "uprn": "10034089054"
    },
    {
        "org_id": "WR3",
        "name": "LEYLAND CUSTODY CENTRE",
        "primary_role_id": "RO234",
        "role_ids": [
            "RO229",
            "RO234"
        ],
        "status": "Active",
        "post_code": "PR25 2EX",
        "uprn": "Unknown"
    },
    {
        "org_id": "WYY",
        "name": "ORMSKIRK CUSTODY CENTRE",
        "primary_role_id": "RO234",
        "role_ids": [
            "RO229",
            "RO234"
        ],
        "status": "Active",
        "post_code": "L39 2BY",
        "uprn": "Unknown"
    },
    {
        "org_id": "WPY",
        "name": "SKELMERSDALE CUSTODY CENTRE",
        "primary_role_id": "RO234",
        "role_ids": [
            "RO229",
            "RO234"
        ],
        "status": "Active",
        "post_code": "WN8 6NH",
        "uprn": "Unknown"
    },
    {
        "org_id": "WHX",
        "name": "BATH CUSTODY CENTRE (DISTRICT HQ)",
        "primary_role_id": "RO234",
        "role_ids": [
            "RO229",
            "RO234"
        ],
        "status": "Active",
        "post_code": "BA1 1JN",
        "uprn": "Unknown"
    },
    {
        "org_id": "VG1",
        "name": "SOUTHMEAD ROAD CUSTODY CENTRE",
        "primary_role_id": "RO234",
        "role_ids": [
            "RO229",
            "RO234"
        ],
        "status": "Active",
        "post_code": "BS10 5DW",
        "uprn": "Unknown"
    },
    {
        "org_id": "VHY",
        "name": "TAUNTON CUSTODY CENTRE (DISTRICT HQ)",
        "primary_role_id": "RO234",
        "role_ids": [
            "RO229",
            "RO234"
        ],
        "status": "Active",
        "post_code": "TA1 1HE",
        "uprn": "100041069988"
    },
    {
        "org_id": "VKP",
        "name": "WESTON SUPER MARE CUSTODY CENTRE",
        "primary_role_id": "RO234",
        "role_ids": [
            "RO229",
            "RO234"
        ],
        "status": "Active",
        "post_code": "BS23 1UJ",
        "uprn": "24009468"
    },
    {
        "org_id": "VQ2",
        "name": "OXCLOSE LANE CUSTODY CENTRE",
        "primary_role_id": "RO234",
        "role_ids": [
            "RO229",
            "RO234"
        ],
        "status": "Active",
        "post_code": "NG5 6FZ",
        "uprn": "200001389540"
    },
    {
        "org_id": "WVM",
        "name": "WORKSOP CUSTODY CENTRE",
        "primary_role_id": "RO234",
        "role_ids": [
            "RO229",
            "RO234"
        ],
        "status": "Active",
        "post_code": "S80 2AL",
        "uprn": "Unknown"
    },
    {
        "org_id": "VGH",
        "name": "DONCASTER CUSTODY CENTRE",
        "primary_role_id": "RO234",
        "role_ids": [
            "RO229",
            "RO234"
        ],
        "status": "Active",
        "post_code": "DN1 3HX",
        "uprn": "100052207114"
    },
    {
        "org_id": "VR1",
        "name": "ECCLESFIELD CUSTODY CENTRE",
        "primary_role_id": "RO234",
        "role_ids": [
            "RO229",
            "RO234"
        ],
        "status": "Active",
        "post_code": "S35 9WL",
        "uprn": "100052095409"
    },
    {
        "org_id": "WPF",
        "name": "MOSS WAY CUSTODY CENTRE",
        "primary_role_id": "RO234",
        "role_ids": [
            "RO229",
            "RO234"
        ],
        "status": "Active",
        "post_code": "S20 7XX",
        "uprn": "Unknown"
    },
    {
        "org_id": "WF8",
        "name": "PENISTONE CUSTODY CENTRE",
        "primary_role_id": "RO234",
        "role_ids": [
            "RO229",
            "RO234"
        ],
        "status": "Active",
        "post_code": "S36 6AJ",
        "uprn": "100052096084"
    },
    {
        "org_id": "VPH",
        "name": "BEDWORTH CUSTODY CENTRE",
        "primary_role_id": "RO234",
        "role_ids": [
            "RO229",
            "RO234"
        ],
        "status": "Active",
        "post_code": "CV12 8NH",
        "uprn": "100071497358"
    },
    {
        "org_id": "VNJ",
        "name": "BECCLES CUSTODY CENTRE",
        "primary_role_id": "RO234",
        "role_ids": [
            "RO229",
            "RO234"
        ],
        "status": "Active",
        "post_code": "NR34 9DX",
        "uprn": "100091571922"
    },
    {
        "org_id": "WN4",
        "name": "BURY ST EDMUNDS CUSTODY CENTRE (RAINGATE ST)",
        "primary_role_id": "RO234",
        "role_ids": [
            "RO229",
            "RO234"
        ],
        "status": "Active",
        "post_code": "IP33 2AP",
        "uprn": "Unknown"
    },
    {
        "org_id": "WGG",
        "name": "LEAMINGTON CUSTODY CENTRE",
        "primary_role_id": "RO234",
        "role_ids": [
            "RO229",
            "RO234"
        ],
        "status": "Active",
        "post_code": "CV32 4EA",
        "uprn": "Unknown"
    },
    {
        "org_id": "VC6",
        "name": "FELIXSTOWE CUSTODY CENTRE",
        "primary_role_id": "RO234",
        "role_ids": [
            "RO229",
            "RO234"
        ],
        "status": "Active",
        "post_code": "IP11 9UD",
        "uprn": "100091485651"
    },
    {
        "org_id": "WWG",
        "name": "HALESWORTH CUSTODY CENTRE",
        "primary_role_id": "RO234",
        "role_ids": [
            "RO229",
            "RO234"
        ],
        "status": "Active",
        "post_code": "IP19 8HJ",
        "uprn": "Unknown"
    },
    {
        "org_id": "WT9",
        "name": "ALDRIDGE CUSTODY CENTRE",
        "primary_role_id": "RO234",
        "role_ids": [
            "RO229",
            "RO234"
        ],
        "status": "Active",
        "post_code": "WS9 8PN",
        "uprn": "Unknown"
    },
    {
        "org_id": "WRD",
        "name": "STOWMARKET CUSTODY CENTRE",
        "primary_role_id": "RO234",
        "role_ids": [
            "RO229",
            "RO234"
        ],
        "status": "Active",
        "post_code": "IP14 1NJ",
        "uprn": "Unknown"
    },
    {
        "org_id": "VQX",
        "name": "BOURNVILLE LANE CUSTODY CENTRE",
        "primary_role_id": "RO234",
        "role_ids": [
            "RO229",
            "RO234"
        ],
        "status": "Active",
        "post_code": "B30 1QX",
        "uprn": "100071451098"
    },
    {
        "org_id": "WXJ",
        "name": "SUDBURY CUSTODY CENTRE",
        "primary_role_id": "RO234",
        "role_ids": [
            "RO229",
            "RO234"
        ],
        "status": "Active",
        "post_code": "CO10 1QN",
        "uprn": "Unknown"
    },
    {
        "org_id": "VL0",
        "name": "BRIERLEY HILL CUSTODY CENTRE",
        "primary_role_id": "RO234",
        "role_ids": [
            "RO229",
            "RO234"
        ],
        "status": "Active",
        "post_code": "DY5 3DH",
        "uprn": "90149397"
    },
    {
        "org_id": "WYW",
        "name": "CHACE AVENUE CUSTODY CENTRE",
        "primary_role_id": "RO234",
        "role_ids": [
            "RO229",
            "RO234"
        ],
        "status": "Active",
        "post_code": "CV3 3PS",
        "uprn": "Unknown"
    },
    {
        "org_id": "WHM",
        "name": "DUDLEY CUSTODY CENTRE",
        "primary_role_id": "RO234",
        "role_ids": [
            "RO229",
            "RO234"
        ],
        "status": "Active",
        "post_code": "DY1 1LZ",
        "uprn": "Unknown"
    },
    {
        "org_id": "VD7",
        "name": "ERDINGTON CUSTODY CENTRE",
        "primary_role_id": "RO234",
        "role_ids": [
            "RO229",
            "RO234"
        ],
        "status": "Active",
        "post_code": "B42 2TU",
        "uprn": "10091553068"
    },
    {
        "org_id": "VF4",
        "name": "KINGS HEATH CUSTODY CENTRE",
        "primary_role_id": "RO234",
        "role_ids": [
            "RO229",
            "RO234"
        ],
        "status": "Active",
        "post_code": "B14 7SW",
        "uprn": "Unknown"
    },
    {
        "org_id": "WFD",
        "name": "SOLIHULL CUSTODY CENTRE",
        "primary_role_id": "RO234",
        "role_ids": [
            "RO229",
            "RO234"
        ],
        "status": "Active",
        "post_code": "B91 3QL",
        "uprn": "100071580234"
    },
    {
        "org_id": "VYF",
        "name": "STECHFORD CUSTODY CENTRE",
        "primary_role_id": "RO234",
        "role_ids": [
            "RO229",
            "RO234"
        ],
        "status": "Active",
        "post_code": "B33 8RR",
        "uprn": "100071456532"
    },
    {
        "org_id": "VFR",
        "name": "STOURBRIDGE CUSTODY CENTRE",
        "primary_role_id": "RO234",
        "role_ids": [
            "RO229",
            "RO234"
        ],
        "status": "Active",
        "post_code": "DY8 1PH",
        "uprn": "Unknown"
    },
    {
        "org_id": "VXH",
        "name": "COLINDALE CUSTODY CENTRE",
        "primary_role_id": "RO234",
        "role_ids": [
            "RO229",
            "RO234"
        ],
        "status": "Active",
        "post_code": "NW9 5TW",
        "uprn": "200220576"
    },
    {
        "org_id": "WTD",
        "name": "CROYDON CUSTODY CENTRE",
        "primary_role_id": "RO234",
        "role_ids": [
            "RO229",
            "RO234"
        ],
        "status": "Active",
        "post_code": "CR9 1BP",
        "uprn": "100022917718"
    },
    {
        "org_id": "WEF",
        "name": "DAGENHAM CUSTODY CENTRE",
        "primary_role_id": "RO234",
        "role_ids": [
            "RO229",
            "RO234"
        ],
        "status": "Active",
        "post_code": "RM10 7TU",
        "uprn": "100101412"
    },
    {
        "org_id": "WMY",
        "name": "EALING CUSTODY CENTRE",
        "primary_role_id": "RO234",
        "role_ids": [
            "RO229",
            "RO234"
        ],
        "status": "Active",
        "post_code": "W5 5SJ",
        "uprn": "Unknown"
    },
    {
        "org_id": "VFV",
        "name": "EDMONTON CUSTODY CENTRE",
        "primary_role_id": "RO234",
        "role_ids": [
            "RO229",
            "RO234"
        ],
        "status": "Active",
        "post_code": "N9 0PW",
        "uprn": "207180484"
    },
    {
        "org_id": "WCH",
        "name": "FELTHAM CUSTODY CENTRE",
        "primary_role_id": "RO234",
        "role_ids": [
            "RO229",
            "RO234"
        ],
        "status": "Active",
        "post_code": "TW13 5BD",
        "uprn": "100023399137"
    },
    {
        "org_id": "VK9",
        "name": "BEXHILL CUSTODY CENTRE",
        "primary_role_id": "RO234",
        "role_ids": [
            "RO229",
            "RO234"
        ],
        "status": "Active",
        "post_code": "TN39 3NR",
        "uprn": "100062634166"
    },
    {
        "org_id": "VL3",
        "name": "BOGNOR CUSTODY CENTRE",
        "primary_role_id": "RO234",
        "role_ids": [
            "RO229",
            "RO234"
        ],
        "status": "Active",
        "post_code": "PO21 1BA",
        "uprn": "100062416484"
    },
    {
        "org_id": "VH2",
        "name": "BRIGHTON CUSTODY CENTRE",
        "primary_role_id": "RO234",
        "role_ids": [
            "RO229",
            "RO234"
        ],
        "status": "Active",
        "post_code": "BN2 0LA",
        "uprn": "22172042"
    },
    {
        "org_id": "VRW",
        "name": "DUNSTABLE CUSTODY CENTRE (COUNTY DIVISION)",
        "primary_role_id": "RO234",
        "role_ids": [
            "RO229",
            "RO234"
        ],
        "status": "Active",
        "post_code": "LU6 1SJ",
        "uprn": "10092021836"
    },
    {
        "org_id": "WT8",
        "name": "HUNTINGDON CUSTODY CENTRE",
        "primary_role_id": "RO234",
        "role_ids": [
            "RO229",
            "RO234"
        ],
        "status": "Active",
        "post_code": "PE29 3DQ",
        "uprn": "Unknown"
    },
    {
        "org_id": "WY6",
        "name": "GYPSY HILL CUSTODY CENTRE",
        "primary_role_id": "RO234",
        "role_ids": [
            "RO229",
            "RO234"
        ],
        "status": "Active",
        "post_code": "SE19 1DT",
        "uprn": "100023246973"
    },
    {
        "org_id": "VRT",
        "name": "HARROW CUSTODY CENTRE",
        "primary_role_id": "RO234",
        "role_ids": [
            "RO229",
            "RO234"
        ],
        "status": "Active",
        "post_code": "HA2 0DN",
        "uprn": "Unknown"
    },
    {
        "org_id": "WNQ",
        "name": "HORNSEY CUSTODY CENTRE",
        "primary_role_id": "RO234",
        "role_ids": [
            "RO229",
            "RO234"
        ],
        "status": "Active",
        "post_code": "N8 7EJ",
        "uprn": "Unknown"
    },
    {
        "org_id": "WD0",
        "name": "KENNINGTON CUSTODY CENTRE",
        "primary_role_id": "RO234",
        "role_ids": [
            "RO229",
            "RO234"
        ],
        "status": "Active",
        "post_code": "SE1 7QA",
        "uprn": "100023225357"
    },
    {
        "org_id": "WRW",
        "name": "KILBURN CUSTODY CENTRE",
        "primary_role_id": "RO234",
        "role_ids": [
            "RO229",
            "RO234"
        ],
        "status": "Active",
        "post_code": "NW6 6NN",
        "uprn": "Unknown"
    },
    {
        "org_id": "WAF",
        "name": "KINGSTON CUSTODY CENTRE",
        "primary_role_id": "RO234",
        "role_ids": [
            "RO229",
            "RO234"
        ],
        "status": "Active",
        "post_code": "KT1 1LB",
        "uprn": "10092016146"
    },
    {
        "org_id": "WMP",
        "name": "LAVENDER HILL CUSTODY CENTRE",
        "primary_role_id": "RO234",
        "role_ids": [
            "RO229",
            "RO234"
        ],
        "status": "Active",
        "post_code": "SW11 1JX",
        "uprn": "100023297405"
    },
    {
        "org_id": "VF5",
        "name": "LEWISHAM CUSTODY CENTRE",
        "primary_role_id": "RO234",
        "role_ids": [
            "RO229",
            "RO234"
        ],
        "status": "Active",
        "post_code": "SE13 5JZ",
        "uprn": "10023229040"
    },
    {
        "org_id": "WWS",
        "name": "MITCHAM CUSTODY CENTRE",
        "primary_role_id": "RO234",
        "role_ids": [
            "RO229",
            "RO234"
        ],
        "status": "Active",
        "post_code": "CR4 4LA",
        "uprn": "Unknown"
    },
    {
        "org_id": "WLY",
        "name": "PADDINGTON GREEN CUSTODY CENTRE",
        "primary_role_id": "RO234",
        "role_ids": [
            "RO229",
            "RO234"
        ],
        "status": "Active",
        "post_code": "W2 1XJ",
        "uprn": "Unknown"
    },
    {
        "org_id": "VDG",
        "name": "PLAISTOW CUSTODY CENTRE",
        "primary_role_id": "RO234",
        "role_ids": [
            "RO229",
            "RO234"
        ],
        "status": "Active",
        "post_code": "E13 8LJ",
        "uprn": "Unknown"
    },
    {
        "org_id": "VKA",
        "name": "RICHMOND CUSTODY CENTRE",
        "primary_role_id": "RO234",
        "role_ids": [
            "RO229",
            "RO234"
        ],
        "status": "Active",
        "post_code": "TW9 2NA",
        "uprn": "Unknown"
    },
    {
        "org_id": "WMD",
        "name": "SOUTHWARK CUSTODY CENTRE",
        "primary_role_id": "RO234",
        "role_ids": [
            "RO229",
            "RO234"
        ],
        "status": "Active",
        "post_code": "SE1 1JL",
        "uprn": "Unknown"
    },
    {
        "org_id": "WLC",
        "name": "HOLBORN CUSTODY CENTRE",
        "primary_role_id": "RO234",
        "role_ids": [
            "RO229",
            "RO234"
        ],
        "status": "Active",
        "post_code": "WC1N 3NR",
        "uprn": "Unknown"
    },
    {
        "org_id": "WLA",
        "name": "RAYLEIGH CUSTODY CENTRE",
        "primary_role_id": "RO234",
        "role_ids": [
            "RO229",
            "RO234"
        ],
        "status": "Active",
        "post_code": "SS6 7QB",
        "uprn": "100091598486"
    },
    {
        "org_id": "VLA",
        "name": "GRAYS CUSTODY CENTRE",
        "primary_role_id": "RO234",
        "role_ids": [
            "RO229",
            "RO234"
        ],
        "status": "Active",
        "post_code": "RM17 5BX",
        "uprn": "100091538300"
    },
    {
        "org_id": "WN3",
        "name": "HARLOW CUSTODY CENTRE",
        "primary_role_id": "RO234",
        "role_ids": [
            "RO229",
            "RO234"
        ],
        "status": "Active",
        "post_code": "CM20 1HG",
        "uprn": "Unknown"
    },
    {
        "org_id": "WCL",
        "name": "COLCHESTER CUSTODY CENTRE",
        "primary_role_id": "RO234",
        "role_ids": [
            "RO229",
            "RO234"
        ],
        "status": "Active",
        "post_code": "CO3 3BU",
        "uprn": "Unknown"
    },
    {
        "org_id": "VGJ",
        "name": "CLACTON CUSTODY CENTRE",
        "primary_role_id": "RO234",
        "role_ids": [
            "RO229",
            "RO234"
        ],
        "status": "Active",
        "post_code": "CO15 1ET",
        "uprn": "100091463437"
    },
    {
        "org_id": "WM8",
        "name": "SOUTH WOODHAM FERRERS CUSTODY CENTRE",
        "primary_role_id": "RO234",
        "role_ids": [
            "RO229",
            "RO234"
        ],
        "status": "Active",
        "post_code": "CM3 5XD",
        "uprn": "Unknown"
    },
    {
        "org_id": "WJQ",
        "name": "EMPRESS STATE BUILDING CUSTODY CENTRE",
        "primary_role_id": "RO234",
        "role_ids": [
            "RO229",
            "RO234"
        ],
        "status": "Active",
        "post_code": "SW6 1TR",
        "uprn": "Unknown"
    },
    {
        "org_id": "WW9",
        "name": "ABERYSTWYTH CUSTODY CENTRE",
        "primary_role_id": "RO234",
        "role_ids": [
            "RO229",
            "RO234"
        ],
        "status": "Active",
        "post_code": "SY23 1PH",
        "uprn": "Unknown"
    },
    {
        "org_id": "WPK",
        "name": "AMMANFORD CUSTODY CENTRE",
        "primary_role_id": "RO234",
        "role_ids": [
            "RO229",
            "RO234"
        ],
        "status": "Active",
        "post_code": "SA18 2LS",
        "uprn": "Unknown"
    },
    {
        "org_id": "WFT",
        "name": "BRECON CUSTODY CENTRE",
        "primary_role_id": "RO234",
        "role_ids": [
            "RO229",
            "RO234"
        ],
        "status": "Active",
        "post_code": "LD3 7HP",
        "uprn": "Unknown"
    },
    {
        "org_id": "WME",
        "name": "CARMARTHEN CUSTODY CENTRE",
        "primary_role_id": "RO234",
        "role_ids": [
            "RO229",
            "RO234"
        ],
        "status": "Active",
        "post_code": "SA31 3AW",
        "uprn": "Unknown"
    },
    {
        "org_id": "VDH",
        "name": "LLANDRINDOD WELLS CUSTODY CENTRE",
        "primary_role_id": "RO234",
        "role_ids": [
            "RO229",
            "RO234"
        ],
        "status": "Active",
        "post_code": "LD1 5DF",
        "uprn": "10090261309"
    },
    {
        "org_id": "WFR",
        "name": "LLANELLI CUSTODY CENTRE",
        "primary_role_id": "RO234",
        "role_ids": [
            "RO229",
            "RO234"
        ],
        "status": "Active",
        "post_code": "SA14 8QN",
        "uprn": "Unknown"
    },
    {
        "org_id": "VKL",
        "name": "NEWTOWN CUSTODY CENTRE",
        "primary_role_id": "RO234",
        "role_ids": [
            "RO229",
            "RO234"
        ],
        "status": "Active",
        "post_code": "SY16 1EN",
        "uprn": "100101034513"
    },
    {
        "org_id": "VJP",
        "name": "TENBY CUSTODY CENTRE",
        "primary_role_id": "RO234",
        "role_ids": [
            "RO229",
            "RO234"
        ],
        "status": "Active",
        "post_code": "SA70 7JS",
        "uprn": "100101021713"
    },
    {
        "org_id": "VJA",
        "name": "PATCHWAY CUSTODY CENTRE",
        "primary_role_id": "RO234",
        "role_ids": [
            "RO229",
            "RO234"
        ],
        "status": "Active",
        "post_code": "BS34 6PY",
        "uprn": "669803"
    },
    {
        "org_id": "WH9",
        "name": "KEYNSHAM CUSTODY CENTRE",
        "primary_role_id": "RO234",
        "role_ids": [
            "RO229",
            "RO234"
        ],
        "status": "Active",
        "post_code": "BS31 1SX",
        "uprn": "Unknown"
    },
    {
        "org_id": "VQ3",
        "name": "TROWBRIDGE CUSTODY CENTRE",
        "primary_role_id": "RO234",
        "role_ids": [
            "RO229",
            "RO234"
        ],
        "status": "Active",
        "post_code": "BA14 7EP",
        "uprn": "100121340341"
    },
    {
        "org_id": "VKE",
        "name": "BLACKWOOD CUSTODY CENTRE",
        "primary_role_id": "RO234",
        "role_ids": [
            "RO229",
            "RO234"
        ],
        "status": "Active",
        "post_code": "NP12 2XA",
        "uprn": "Unknown"
    },
    {
        "org_id": "WM5",
        "name": "CAERPHILLY CUSTODY CENTRE",
        "primary_role_id": "RO234",
        "role_ids": [
            "RO229",
            "RO234"
        ],
        "status": "Active",
        "post_code": "CF83 1HG",
        "uprn": "Unknown"
    },
    {
        "org_id": "VWL",
        "name": "CWMBRAN CUSTODY CENTRE",
        "primary_role_id": "RO234",
        "role_ids": [
            "RO229",
            "RO234"
        ],
        "status": "Active",
        "post_code": "NP44 3XH",
        "uprn": "200002953774"
    },
    {
        "org_id": "VYP",
        "name": "NEWPORT CENTRAL CUSTODY CENTRE",
        "primary_role_id": "RO234",
        "role_ids": [
            "RO229",
            "RO234"
        ],
        "status": "Active",
        "post_code": "NP20 2EH",
        "uprn": "200001626995"
    },
    {
        "org_id": "VLH",
        "name": "PONTYPOOL CUSTODY CENTRE",
        "primary_role_id": "RO234",
        "role_ids": [
            "RO229",
            "RO234"
        ],
        "status": "Active",
        "post_code": "NP4 6YN",
        "uprn": "100100979144"
    },
    {
        "org_id": "WPQ",
        "name": "COLWYN BAY CUSTODY CENTRE",
        "primary_role_id": "RO234",
        "role_ids": [
            "RO229",
            "RO234"
        ],
        "status": "Active",
        "post_code": "LL29 7TF",
        "uprn": "Unknown"
    },
    {
        "org_id": "VL7",
        "name": "AYLSHAM CUSTODY CENTRE",
        "primary_role_id": "RO234",
        "role_ids": [
            "RO229",
            "RO234"
        ],
        "status": "Active",
        "post_code": "NR11 6FD",
        "uprn": "10009924571"
    },
    {
        "org_id": "WHG",
        "name": "LLANDUDNO CUSTODY CENTRE",
        "primary_role_id": "RO234",
        "role_ids": [
            "RO229",
            "RO234"
        ],
        "status": "Active",
        "post_code": "LL30 1DH",
        "uprn": "Unknown"
    },
    {
        "org_id": "VCG",
        "name": "ST.ASAPH CUSTODY CENTRE",
        "primary_role_id": "RO234",
        "role_ids": [
            "RO229",
            "RO234"
        ],
        "status": "Active",
        "post_code": "LL17 0HQ",
        "uprn": "Unknown"
    },
    {
        "org_id": "WTN",
        "name": "WYMONDHAM CUSTODY CENTRE",
        "primary_role_id": "RO234",
        "role_ids": [
            "RO229",
            "RO234"
        ],
        "status": "Active",
        "post_code": "NR18 0WZ",
        "uprn": "Unknown"
    },
    {
        "org_id": "VWC",
        "name": "BURY ST EDMUNDS CUSTODY CENTRE (RIVER LANE)",
        "primary_role_id": "RO234",
        "role_ids": [
            "RO229",
            "RO234"
        ],
        "status": "Active",
        "post_code": "IP33 2RT",
        "uprn": "10023129940"
    },
    {
        "org_id": "WNW",
        "name": "BARRY CUSTODY CENTRE",
        "primary_role_id": "RO234",
        "role_ids": [
            "RO229",
            "RO234"
        ],
        "status": "Active",
        "post_code": "CF63 1TD",
        "uprn": "Unknown"
    },
    {
        "org_id": "WNG",
        "name": "MARTLESHAM CUSTODY CENTRE",
        "primary_role_id": "RO234",
        "role_ids": [
            "RO229",
            "RO234"
        ],
        "status": "Active",
        "post_code": "IP5 3QS",
        "uprn": "Unknown"
    },
    {
        "org_id": "WFE",
        "name": "CARDIFF BAY CUSTODY CENTRE",
        "primary_role_id": "RO234",
        "role_ids": [
            "RO229",
            "RO234"
        ],
        "status": "Active",
        "post_code": "CF10 5EW",
        "uprn": "Unknown"
    },
    {
        "org_id": "VJX",
        "name": "MERTHYR TYDFIL CUSTODY CENTRE",
        "primary_role_id": "RO234",
        "role_ids": [
            "RO229",
            "RO234"
        ],
        "status": "Active",
        "post_code": "CF48 1DL",
        "uprn": "10034661665"
    },
    {
        "org_id": "VP1",
        "name": "NEATH CUSTODY CENTRE",
        "primary_role_id": "RO234",
        "role_ids": [
            "RO229",
            "RO234"
        ],
        "status": "Active",
        "post_code": "SA11 3BW",
        "uprn": "200002955538"
    },
    {
        "org_id": "VD0",
        "name": "PONTYPRIDD CUSTODY CENTRE",
        "primary_role_id": "RO234",
        "role_ids": [
            "RO229",
            "RO234"
        ],
        "status": "Active",
        "post_code": "CF37 2TR",
        "uprn": "Unknown"
    },
    {
        "org_id": "WL7",
        "name": "PORT TALBOT CUSTODY CENTRE",
        "primary_role_id": "RO234",
        "role_ids": [
            "RO229",
            "RO234"
        ],
        "status": "Active",
        "post_code": "SA13 1JB",
        "uprn": "Unknown"
    },
    {
        "org_id": "VDP",
        "name": "PORTHCAWL CUSTODY CENTRE",
        "primary_role_id": "RO234",
        "role_ids": [
            "RO229",
            "RO234"
        ],
        "status": "Active",
        "post_code": "CF36 3DT",
        "uprn": "Unknown"
    },
    {
        "org_id": "VGF",
        "name": "RUMNEY CUSTODY CENTRE",
        "primary_role_id": "RO234",
        "role_ids": [
            "RO229",
            "RO234"
        ],
        "status": "Active",
        "post_code": "CF3 4FD",
        "uprn": "10002508965"
    },
    {
        "org_id": "WHR",
        "name": "SWANSEA CUSTODY CENTRE",
        "primary_role_id": "RO234",
        "role_ids": [
            "RO229",
            "RO234"
        ],
        "status": "Active",
        "post_code": "SA1 5EA",
        "uprn": "Unknown"
    },
    {
        "org_id": "WKQ",
        "name": "ABERDARE CUSTODY CENTRE",
        "primary_role_id": "RO234",
        "role_ids": [
            "RO229",
            "RO234"
        ],
        "status": "Active",
        "post_code": "CF44 7EG",
        "uprn": "Unknown"
    },
    {
        "org_id": "WQ8",
        "name": "CANTON CUSTODY CENTRE",
        "primary_role_id": "RO234",
        "role_ids": [
            "RO229",
            "RO234"
        ],
        "status": "Active",
        "post_code": "CF5 1GW",
        "uprn": "Unknown"
    },
    {
        "org_id": "VFY",
        "name": "ROATH CUSTODY CENTRE",
        "primary_role_id": "RO234",
        "role_ids": [
            "RO229",
            "RO234"
        ],
        "status": "Active",
        "post_code": "CF24 1LY",
        "uprn": "100100896197"
    },
    {
        "org_id": "VVF",
        "name": "COCKETT CUSTODY CENTRE",
        "primary_role_id": "RO234",
        "role_ids": [
            "RO229",
            "RO234"
        ],
        "status": "Active",
        "post_code": "SA2 0FR",
        "uprn": "10010029232"
    },
    {
        "org_id": "WK3",
        "name": "YSTRADGYNLAIS CUSTODY CENTRE",
        "primary_role_id": "RO234",
        "role_ids": [
            "RO229",
            "RO234"
        ],
        "status": "Active",
        "post_code": "SA9 1NZ",
        "uprn": "Unknown"
    },
    {
        "org_id": "WYJ",
        "name": "WEDNESBURY CUSTODY CENTRE",
        "primary_role_id": "RO234",
        "role_ids": [
            "RO229",
            "RO234"
        ],
        "status": "Active",
        "post_code": "WS10 7DF",
        "uprn": "Unknown"
    },
    {
        "org_id": "WW6",
        "name": "WARRINGTON WEST CUSTODY CENTRE",
        "primary_role_id": "RO234",
        "role_ids": [
            "RO229",
            "RO234"
        ],
        "status": "Active",
        "post_code": "WA5 2BG",
        "uprn": "Unknown"
    },
    {
        "org_id": "VN1",
        "name": "HARTLEPOOL CUSTODY CENTRE DISTRICT HQ",
        "primary_role_id": "RO234",
        "role_ids": [
            "RO229",
            "RO234"
        ],
        "status": "Active",
        "post_code": "TS24 8BB",
        "uprn": "100110785250"
    },
    {
        "org_id": "VR5",
        "name": "BUXTON CUSTODY CENTRE",
        "primary_role_id": "RO234",
        "role_ids": [
            "RO229",
            "RO234"
        ],
        "status": "Active",
        "post_code": "SK17 6QJ",
        "uprn": "10010754467"
    },
    {
        "org_id": "WXP",
        "name": "RIPLEY CUSTODY CENTRE",
        "primary_role_id": "RO234",
        "role_ids": [
            "RO229",
            "RO234"
        ],
        "status": "Active",
        "post_code": "DE5 3SU",
        "uprn": "Unknown"
    },
    {
        "org_id": "WTA",
        "name": "WEST HAM CUSTODY CENTRE",
        "primary_role_id": "RO234",
        "role_ids": [
            "RO229",
            "RO234"
        ],
        "status": "Active",
        "post_code": "E15 3AT",
        "uprn": "Unknown"
    },
    {
        "org_id": "VM3",
        "name": "BRADFORD SOUTH CUSTODY CENTRE",
        "primary_role_id": "RO234",
        "role_ids": [
            "RO229",
            "RO234"
        ],
        "status": "Active",
        "post_code": "BD5 0DX",
        "uprn": "10010583399"
    },
    {
        "org_id": "VEG",
        "name": "HALIFAX CUSTODY CENTRE",
        "primary_role_id": "RO234",
        "role_ids": [
            "RO229",
            "RO234"
        ],
        "status": "Active",
        "post_code": "HX1 5TW",
        "uprn": "Unknown"
    },
    {
        "org_id": "WAX",
        "name": "HUDDERSFIELD CUSTODY CENTRE",
        "primary_role_id": "RO234",
        "role_ids": [
            "RO229",
            "RO234"
        ],
        "status": "Active",
        "post_code": "HD1 2NJ",
        "uprn": "83057549"
    },
    {
        "org_id": "VC3",
        "name": "KEIGHLEY CUSTODY CENTRE",
        "primary_role_id": "RO234",
        "role_ids": [
            "RO229",
            "RO234"
        ],
        "status": "Active",
        "post_code": "BD21 4BZ",
        "uprn": "200004705940"
    },
    {
        "org_id": "WKV",
        "name": "KILLINGBECK CUSTODY CENTRE",
        "primary_role_id": "RO234",
        "role_ids": [
            "RO229",
            "RO234"
        ],
        "status": "Active",
        "post_code": "LS14 6NN",
        "uprn": "Unknown"
    },
    {
        "org_id": "VRC",
        "name": "MORLEY CUSTODY CENTRE",
        "primary_role_id": "RO234",
        "role_ids": [
            "RO229",
            "RO234"
        ],
        "status": "Active",
        "post_code": "LS27 9NB",
        "uprn": "72357769"
    },
    {
        "org_id": "VEE",
        "name": "PONTEFRACT CUSTODY CENTRE",
        "primary_role_id": "RO234",
        "role_ids": [
            "RO229",
            "RO234"
        ],
        "status": "Active",
        "post_code": "WF8 2FE",
        "uprn": "Unknown"
    },
    {
        "org_id": "WRP",
        "name": "WEETWOOD CUSTODY CENTRE",
        "primary_role_id": "RO234",
        "role_ids": [
            "RO229",
            "RO234"
        ],
        "status": "Active",
        "post_code": "LS16 6RG",
        "uprn": "Unknown"
    },
    {
        "org_id": "WLK",
        "name": "LEIGH CUSTODY CENTRE",
        "primary_role_id": "RO234",
        "role_ids": [
            "RO229",
            "RO234"
        ],
        "status": "Active",
        "post_code": "WN7 2PS",
        "uprn": "Unknown"
    },
    {
        "org_id": "WL5",
        "name": "HERTFORD CUSTODY CENTRE",
        "primary_role_id": "RO234",
        "role_ids": [
            "RO229",
            "RO234"
        ],
        "status": "Active",
        "post_code": "SG13 8FL",
        "uprn": "Unknown"
    },
    {
        "org_id": "VHP",
        "name": "NEWARK CUSTODY CENTRE",
        "primary_role_id": "RO234",
        "role_ids": [
            "RO229",
            "RO234"
        ],
        "status": "Active",
        "post_code": "NG24 1LJ",
        "uprn": "200004251975"
    },
    {
        "org_id": "VDV",
        "name": "EBURY CUSTODY CENTRE",
        "primary_role_id": "RO234",
        "role_ids": [
            "RO229",
            "RO234"
        ],
        "status": "Active",
        "post_code": "SW1W 8RP",
        "uprn": "200001093611"
    },
    {
        "org_id": "VTE",
        "name": "PRESTON CUSTODY CENTRE",
        "primary_role_id": "RO234",
        "role_ids": [
            "RO229",
            "RO234"
        ],
        "status": "Active",
        "post_code": "PR1 2SA",
        "uprn": "100010565129"
    },
    {
        "org_id": "VPV",
        "name": "CHARLES CROSS CUSTODY CENTRE",
        "primary_role_id": "RO234",
        "role_ids": [
            "RO229",
            "RO234"
        ],
        "status": "Active",
        "post_code": "PL4 8HG",
        "uprn": "10000798549"
    },
    {
        "org_id": "WKG",
        "name": "NEWQUAY CUSTODY CENTRE",
        "primary_role_id": "RO234",
        "role_ids": [
            "RO229",
            "RO234"
        ],
        "status": "Active",
        "post_code": "TR7 1DD",
        "uprn": "Unknown"
    },
    {
        "org_id": "WR1",
        "name": "BARNSTAPLE CUSTODY CENTRE",
        "primary_role_id": "RO234",
        "role_ids": [
            "RO229",
            "RO234"
        ],
        "status": "Active",
        "post_code": "EX31 1DU",
        "uprn": "Unknown"
    },
    {
        "org_id": "VYL",
        "name": "DAGENHAM AND BARKING CUSTODY CENTRE",
        "primary_role_id": "RO234",
        "role_ids": [
            "RO229",
            "RO234"
        ],
        "status": "Active",
        "post_code": "IG11 7BG",
        "uprn": "10023591611"
    },
    {
        "org_id": "WG0",
        "name": "UXBRIDGE CUSTODY CENTRE",
        "primary_role_id": "RO234",
        "role_ids": [
            "RO229",
            "RO234"
        ],
        "status": "Active",
        "post_code": "UB8 1PG",
        "uprn": "100023421571"
    },
    {
        "org_id": "WRQ",
        "name": "WALTHAM FOREST CUSTODY CENTRE",
        "primary_role_id": "RO234",
        "role_ids": [
            "RO229",
            "RO234"
        ],
        "status": "Active",
        "post_code": "E11 1FE",
        "uprn": "Unknown"
    },
    {
        "org_id": "VFJ",
        "name": "BREWERY ROAD CUSTODY CENTRE",
        "primary_role_id": "RO234",
        "role_ids": [
            "RO229",
            "RO234"
        ],
        "status": "Active",
        "post_code": "N7 9BH",
        "uprn": "5300010592"
    },
    {
        "org_id": "WHT",
        "name": "ABERGAVENNY CUSTODY CENTRE",
        "primary_role_id": "RO234",
        "role_ids": [
            "RO229",
            "RO234"
        ],
        "status": "Active",
        "post_code": "NP7 5YL",
        "uprn": "Unknown"
    },
    {
        "org_id": "WP4",
        "name": "HEATHROW CUSTODY CENTRE",
        "primary_role_id": "RO234",
        "role_ids": [
            "RO229",
            "RO234"
        ],
        "status": "Active",
        "post_code": "UB7 0DG",
        "uprn": "Unknown"
    },
    {
        "org_id": "WQ4",
        "name": "HOLYHEAD CUSTODY CENTRE",
        "primary_role_id": "RO234",
        "role_ids": [
            "RO229",
            "RO234"
        ],
        "status": "Active",
        "post_code": "LL65 1HL",
        "uprn": "Unknown"
    },
    {
        "org_id": "WCQ",
        "name": "MOLD CUSTODY CENTRE",
        "primary_role_id": "RO234",
        "role_ids": [
            "RO229",
            "RO234"
        ],
        "status": "Active",
        "post_code": "CH7 1EF",
        "uprn": "200002941213"
    },
    {
        "org_id": "VDR",
        "name": "PECKHAM CUSTODY CENTRE",
        "primary_role_id": "RO234",
        "role_ids": [
            "RO229",
            "RO234"
        ],
        "status": "Active",
        "post_code": "SE15 5SL",
        "uprn": "Unknown"
    },
    {
        "org_id": "WXR",
        "name": "SKIPTON CUSTODY CENTRE",
        "primary_role_id": "RO234",
        "role_ids": [
            "RO229",
            "RO234"
        ],
        "status": "Active",
        "post_code": "BD23 1EZ",
        "uprn": "Unknown"
    },
    {
        "org_id": "VCP",
        "name": "PUDSEY CUSTODY CENTRE",
        "primary_role_id": "RO234",
        "role_ids": [
            "RO229",
            "RO234"
        ],
        "status": "Active",
        "post_code": "LS28 5TA",
        "uprn": "Unknown"
    },
    {
        "org_id": "WPA",
        "name": "WEST WICKHAM POLICE OFFICE",
        "primary_role_id": "RO234",
        "role_ids": [
            "RO229",
            "RO234"
        ],
        "status": "Active",
        "post_code": "BR4 0LP",
        "uprn": "Unknown"
    },
    {
        "org_id": "WRH",
        "name": "BERWICK CUSTODY CENTRE",
        "primary_role_id": "RO234",
        "role_ids": [
            "RO229",
            "RO234"
        ],
        "status": "Active",
        "post_code": "TD15 1DZ",
        "uprn": "Unknown"
    },
    {
        "org_id": "WVQ",
        "name": "GUILFORD CUSTODY SUITE",
        "primary_role_id": "RO234",
        "role_ids": [
            "RO229",
            "RO234"
        ],
        "status": "Active",
        "post_code": "GU1 4QS",
        "uprn": "Unknown"
    },
    {
        "org_id": "VWJ",
        "name": "STAINES CUSTODY SUITE",
        "primary_role_id": "RO234",
        "role_ids": [
            "RO229",
            "RO234"
        ],
        "status": "Active",
        "post_code": "TW18 4LQ",
        "uprn": "33040161"
    },
    {
        "org_id": "WN0",
        "name": "SALFORDS CUSTODY CENTRE",
        "primary_role_id": "RO234",
        "role_ids": [
            "RO229",
            "RO234"
        ],
        "status": "Active",
        "post_code": "RH1 5DY",
        "uprn": "Unknown"
    },
    {
        "org_id": "WQ9",
        "name": "STANSTED AIRPORT CUSTODY CENTRE",
        "primary_role_id": "RO234",
        "role_ids": [
            "RO229",
            "RO234"
        ],
        "status": "Active",
        "post_code": "CM24 1PS",
        "uprn": "Unknown"
    },
    {
        "org_id": "WL2",
        "name": "CHELMSFORD CUSTODY CENTRE",
        "primary_role_id": "RO234",
        "role_ids": [
            "RO229",
            "RO234"
        ],
        "status": "Active",
        "post_code": "CM1 1NF",
        "uprn": "Unknown"
    },
    {
        "org_id": "WFM",
        "name": "SOUTHEND CUSTODY CENTRE",
        "primary_role_id": "RO234",
        "role_ids": [
            "RO229",
            "RO234"
        ],
        "status": "Active",
        "post_code": "SS2 6ES",
        "uprn": "100091594463"
    },
    {
        "org_id": "WKM",
        "name": "BRAINTREE CUSTODY CENTRE",
        "primary_role_id": "RO234",
        "role_ids": [
            "RO229",
            "RO234"
        ],
        "status": "Active",
        "post_code": "CM7 3DJ",
        "uprn": "Unknown"
    },
    {
        "org_id": "VNV",
        "name": "BASILDON CUSTODY CENTRE",
        "primary_role_id": "RO234",
        "role_ids": [
            "RO229",
            "RO234"
        ],
        "status": "Active",
        "post_code": "SS14 1EJ",
        "uprn": "100091588331"
    },
    {
        "org_id": "VE8",
        "name": "FAIRWATER CUSTODY CENTRE",
        "primary_role_id": "RO234",
        "role_ids": [
            "RO229",
            "RO234"
        ],
        "status": "Active",
        "post_code": "CF5 3AT",
        "uprn": "200002938812"
    },
    {
        "org_id": "WNY",
        "name": "BELVEDERE CUSTODY CENTRE",
        "primary_role_id": "RO234",
        "role_ids": [
            "RO229",
            "RO234"
        ],
        "status": "Active",
        "post_code": "DA17 5JF",
        "uprn": "100022920900"
    },
    {
        "org_id": "WRM",
        "name": "WELLINGBOROUGH CUSTODY CENTRE",
        "primary_role_id": "RO234",
        "role_ids": [
            "RO229",
            "RO234"
        ],
        "status": "Active",
        "post_code": "NN8 1HF",
        "uprn": "Unknown"
    },
    {
        "org_id": "VFA",
        "name": "LAUNCESTON CUSTODY CENTRE",
        "primary_role_id": "RO234",
        "role_ids": [
            "RO229",
            "RO234"
        ],
        "status": "Active",
        "post_code": "PL15 7HY",
        "uprn": "Unknown"
    },
    {
        "org_id": "WGT",
        "name": "MORECAMBE CUSTODY CENTRE",
        "primary_role_id": "RO234",
        "role_ids": [
            "RO229",
            "RO234"
        ],
        "status": "Active",
        "post_code": "LA4 5PZ",
        "uprn": "100012398073"
    },
    {
        "org_id": "VMV",
        "name": "CARDIFF CENTRAL CUSTODY CENTRE",
        "primary_role_id": "RO234",
        "role_ids": [
            "RO229",
            "RO234"
        ],
        "status": "Active",
        "post_code": "CF10 3NN",
        "uprn": "10002530537"
    },
    {
        "org_id": "WYK",
        "name": "FISHGUARD CUSTODY CENTRE",
        "primary_role_id": "RO234",
        "role_ids": [
            "RO229",
            "RO234"
        ],
        "status": "Active",
        "post_code": "SA65 9NB",
        "uprn": "Unknown"
    },
    {
        "org_id": "VNN",
        "name": "THORPE WOOD CUSTODY CENTRE",
        "primary_role_id": "RO234",
        "role_ids": [
            "RO229",
            "RO234"
        ],
        "status": "Active",
        "post_code": "PE3 6SD",
        "uprn": "100091525305"
    },
    {
        "org_id": "VHF",
        "name": "SKEGNESS CUSTODY CENTRE",
        "primary_role_id": "RO234",
        "role_ids": [
            "RO229",
            "RO234"
        ],
        "status": "Active",
        "post_code": "PE25 1BL",
        "uprn": "10095415724"
    },
    {
        "org_id": "VDE",
        "name": "SWANAGE CUSTODY CENTRE",
        "primary_role_id": "RO234",
        "role_ids": [
            "RO229",
            "RO234"
        ],
        "status": "Active",
        "post_code": "BH19 2NZ",
        "uprn": "100041096578"
    },
    {
        "org_id": "VYA",
        "name": "PADIHAM CUSTODY CENTRE",
        "primary_role_id": "RO234",
        "role_ids": [
            "RO229",
            "RO234"
        ],
        "status": "Active",
        "post_code": "BB12 8EF",
        "uprn": "100012538985"
    },
    {
        "org_id": "VT3",
        "name": "YEOVIL CUSTODY CENTRE (DISTRICT HQ)",
        "primary_role_id": "RO234",
        "role_ids": [
            "RO229",
            "RO234"
        ],
        "status": "Active",
        "post_code": "BA20 1SN",
        "uprn": "30512157"
    },
    {
        "org_id": "WH8",
        "name": "WALWORTH CUSTODY CENTRE",
        "primary_role_id": "RO234",
        "role_ids": [
            "RO229",
            "RO234"
        ],
        "status": "Active",
        "post_code": "SE17 3BB",
        "uprn": "Unknown"
    },
    {
        "org_id": "WTT",
        "name": "GATESHEAD EAST CUSTODY CENTRE",
        "primary_role_id": "RO234",
        "role_ids": [
            "RO229",
            "RO234"
        ],
        "status": "Active",
        "post_code": "NE8 1BN",
        "uprn": "Unknown"
    },
    {
        "org_id": "VFX",
        "name": "LLANISHEN CUSTODY CENTRE",
        "primary_role_id": "RO234",
        "role_ids": [
            "RO229",
            "RO234"
        ],
        "status": "Active",
        "post_code": "CF14 5LS",
        "uprn": "100101043581"
    },
    {
        "org_id": "VWY",
        "name": "CLITHEROE CUSTODY CENTRE",
        "primary_role_id": "RO234",
        "role_ids": [
            "RO229",
            "RO234"
        ],
        "status": "Active",
        "post_code": "BB7 2EU",
        "uprn": "100012547485"
    },
    {
        "org_id": "WQH",
        "name": "TORQUAY CUSTODY CENTRE",
        "primary_role_id": "RO234",
        "role_ids": [
            "RO229",
            "RO234"
        ],
        "status": "Active",
        "post_code": "TQ2 5AH",
        "uprn": "Unknown"
    },
    {
        "org_id": "VXY",
        "name": "DOVER CUSTODY CENTRE",
        "primary_role_id": "RO234",
        "role_ids": [
            "RO229",
            "RO234"
        ],
        "status": "Active",
        "post_code": "CT16 1DJ",
        "uprn": "100062288485"
    },
    {
        "org_id": "WQJ",
        "name": "ARNOLD CUSTODY CENTRE",
        "primary_role_id": "RO234",
        "role_ids": [
            "RO229",
            "RO234"
        ],
        "status": "Active",
        "post_code": "NG5 7DS",
        "uprn": "Unknown"
    },
    {
        "org_id": "VM7",
        "name": "ACCRINGTON CUSTODY CENTRE",
        "primary_role_id": "RO234",
        "role_ids": [
            "RO229",
            "RO234"
        ],
        "status": "Active",
        "post_code": "BB5 1EY",
        "uprn": "10070894801"
    },
    {
        "org_id": "VQV",
        "name": "LUTON CUSTODY CENTRE (LUTON DIVISION)",
        "primary_role_id": "RO234",
        "role_ids": [
            "RO229",
            "RO234"
        ],
        "status": "Active",
        "post_code": "LU1 1SD",
        "uprn": "200003273878"
    },
    {
        "org_id": "WAP",
        "name": "WIMBLEDON CUSTODY CENTRE",
        "primary_role_id": "RO234",
        "role_ids": [
            "RO229",
            "RO234"
        ],
        "status": "Active",
        "post_code": "SW19 8NN",
        "uprn": "48084425"
    },
    {
        "org_id": "WWM",
        "name": "TOTTENHAM CUSTODY CENTRE",
        "primary_role_id": "RO234",
        "role_ids": [
            "RO229",
            "RO234"
        ],
        "status": "Active",
        "post_code": "N17 9JA",
        "uprn": "Unknown"
    },
    {
        "org_id": "VP8",
        "name": "BRIDGEND CUSTODY CENTRE",
        "primary_role_id": "RO234",
        "role_ids": [
            "RO229",
            "RO234"
        ],
        "status": "Active",
        "post_code": "CF31 3UT",
        "uprn": "Unknown"
    },
    {
        "org_id": "WD5",
        "name": "HAVERFORDWEST CUSTODY CENTRE",
        "primary_role_id": "RO234",
        "role_ids": [
            "RO229",
            "RO234"
        ],
        "status": "Active",
        "post_code": "SA61 1PE",
        "uprn": "10013176057"
    },
    {
        "org_id": "VQM",
        "name": "BURNLEY CUSTODY CENTRE",
        "primary_role_id": "RO234",
        "role_ids": [
            "RO229",
            "RO234"
        ],
        "status": "Active",
        "post_code": "BB11 2BT",
        "uprn": "100012828570"
    },
    {
        "org_id": "WR6",
        "name": "LLANGEFNI CUSTODY CENTRE",
        "primary_role_id": "RO234",
        "role_ids": [
            "RO229",
            "RO234"
        ],
        "status": "Active",
        "post_code": "LL77 7EN",
        "uprn": "Unknown"
    },
    {
        "org_id": "WP7",
        "name": "CHIPPENHAM CUSTODY CENTRE",
        "primary_role_id": "RO234",
        "role_ids": [
            "RO229",
            "RO234"
        ],
        "status": "Active",
        "post_code": "SN15 1ER",
        "uprn": "Unknown"
    },
    {
        "org_id": "WK8",
        "name": "SUTTON COLDFIELD CUSTODY CENTRE",
        "primary_role_id": "RO234",
        "role_ids": [
            "RO229",
            "RO234"
        ],
        "status": "Active",
        "post_code": "B74 2NR",
        "uprn": "Unknown"
    },
    {
        "org_id": "WWC",
        "name": "PRESTATYN CUSTODY CENTRE",
        "primary_role_id": "RO234",
        "role_ids": [
            "RO229",
            "RO234"
        ],
        "status": "Active",
        "post_code": "LL19 7TD",
        "uprn": "Unknown"
    },
    {
        "org_id": "VX0",
        "name": "LEWES CUSTODY CENTRE",
        "primary_role_id": "RO234",
        "role_ids": [
            "RO229",
            "RO234"
        ],
        "status": "Active",
        "post_code": "BN7 2PA",
        "uprn": "200001461906"
    },
    {
        "org_id": "WX8",
        "name": "ELY CUSTODY CENTRE",
        "primary_role_id": "RO234",
        "role_ids": [
            "RO229",
            "RO234"
        ],
        "status": "Active",
        "post_code": "CB7 4PL",
        "uprn": "Unknown"
    },
    {
        "org_id": "VXM",
        "name": "ENFIELD CUSTODY CENTRE",
        "primary_role_id": "RO234",
        "role_ids": [
            "RO229",
            "RO234"
        ],
        "status": "Active",
        "post_code": "EN1 3EU",
        "uprn": "207182625"
    },
    {
        "org_id": "VD9",
        "name": "ILFORD CUSTODY CENTRE",
        "primary_role_id": "RO234",
        "role_ids": [
            "RO229",
            "RO234"
        ],
        "status": "Active",
        "post_code": "IG1 1GT",
        "uprn": "Unknown"
    },
    {
        "org_id": "VFG",
        "name": "WIGAN CUSTODY CENTRE",
        "primary_role_id": "RO234",
        "role_ids": [
            "RO229",
            "RO234"
        ],
        "status": "Active",
        "post_code": "WN5 0UP",
        "uprn": "10009213048"
    },
    {
        "org_id": "WNC",
        "name": "WEST BAR CUSTODY CENTRE",
        "primary_role_id": "RO234",
        "role_ids": [
            "RO229",
            "RO234"
        ],
        "status": "Active",
        "post_code": "S1 2DA",
        "uprn": "Unknown"
    },
    {
        "org_id": "VEY",
        "name": "ASHFORD CUSTODY CENTRE",
        "primary_role_id": "RO234",
        "role_ids": [
            "RO229",
            "RO234"
        ],
        "status": "Active",
        "post_code": "TN23 1BT",
        "uprn": "100062557957"
    },
    {
        "org_id": "VTF",
        "name": "WEMBLEY PARK CUSTODY CENTRE",
        "primary_role_id": "RO234",
        "role_ids": [
            "RO229",
            "RO234"
        ],
        "status": "Active",
        "post_code": "HA9 9AA",
        "uprn": "202127067"
    },
    {
        "org_id": "VTQ",
        "name": "GRIMSBY CUSTODY CENTRE",
        "primary_role_id": "RO234",
        "role_ids": [
            "RO229",
            "RO234"
        ],
        "status": "Active",
        "post_code": "DN31 1PE",
        "uprn": "11052053"
    },
    {
        "org_id": "VVH",
        "name": "RHYL CUSTODY CENTRE",
        "primary_role_id": "RO234",
        "role_ids": [
            "RO229",
            "RO234"
        ],
        "status": "Active",
        "post_code": "LL18 1BA",
        "uprn": "100100946964"
    },
    {
        "org_id": "WR2",
        "name": "RUGBY CUSTODY CENTRE",
        "primary_role_id": "RO234",
        "role_ids": [
            "RO229",
            "RO234"
        ],
        "status": "Active",
        "post_code": "CV21 2DH",
        "uprn": "Unknown"
    },
    {
        "org_id": "VYY",
        "name": "ECCLESHILL CUSTODY CENTRE",
        "primary_role_id": "RO234",
        "role_ids": [
            "RO229",
            "RO234"
        ],
        "status": "Active",
        "post_code": "BD10 8SD",
        "uprn": "100051931327"
    },
    {
        "org_id": "VG0",
        "name": "CREWE CUSTODY CENTRE",
        "primary_role_id": "RO234",
        "role_ids": [
            "RO229",
            "RO234"
        ],
        "status": "Active",
        "post_code": "CW1 2DP",
        "uprn": "Unknown"
    },
    {
        "org_id": "WFJ",
        "name": "ST ALBANS CUSTODY CENTRE",
        "primary_role_id": "RO234",
        "role_ids": [
            "RO229",
            "RO234"
        ],
        "status": "Active",
        "post_code": "AL1 3JE",
        "uprn": "200003637136"
    },
    {
        "org_id": "WKK",
        "name": "WALTHAMSTOW TOWN CENTRE POLICE OFFICE",
        "primary_role_id": "RO234",
        "role_ids": [
            "RO229",
            "RO234"
        ],
        "status": "Active",
        "post_code": "E17 7BX",
        "uprn": "Unknown"
    },
    {
        "org_id": "VMC",
        "name": "GLOSSOP CUSTODY CENTRE",
        "primary_role_id": "RO234",
        "role_ids": [
            "RO229",
            "RO234"
        ],
        "status": "Active",
        "post_code": "SK13 8BX",
        "uprn": "10010745102"
    },
    {
        "org_id": "WAE",
        "name": "WHICKHAM CUSTODY CENTRE",
        "primary_role_id": "RO234",
        "role_ids": [
            "RO229",
            "RO234"
        ],
        "status": "Active",
        "post_code": "NE16 4HE",
        "uprn": "10022988021"
    },
    {
        "org_id": "VVW",
        "name": "MORPETH CUSTODY CENTRE",
        "primary_role_id": "RO234",
        "role_ids": [
            "RO229",
            "RO234"
        ],
        "status": "Active",
        "post_code": "NE61 1NS",
        "uprn": "10090300654"
    },
    {
        "org_id": "VHQ",
        "name": "WOLVERHAMPTON CENTRAL CUSTODY CENTRE",
        "primary_role_id": "RO234",
        "role_ids": [
            "RO229",
            "RO234"
        ],
        "status": "Active",
        "post_code": "WV1 3AA",
        "uprn": "100071555617"
    },
    {
        "org_id": "WDK",
        "name": "GLOUCESTER CITY CUSTODY CENTRE",
        "primary_role_id": "RO234",
        "role_ids": [
            "RO229",
            "RO234"
        ],
        "status": "Active",
        "post_code": "GL1 2JP",
        "uprn": "200004486758"
    },
    {
        "org_id": "WT2",
        "name": "FOREST GATE CUSTODY CENTRE",
        "primary_role_id": "RO234",
        "role_ids": [
            "RO229",
            "RO234"
        ],
        "status": "Active",
        "post_code": "E7 8BS",
        "uprn": "Unknown"
    },
    {
        "org_id": "VQN",
        "name": "KINGS LYNN CUSTODY CENTRE",
        "primary_role_id": "RO234",
        "role_ids": [
            "RO229",
            "RO234"
        ],
        "status": "Active",
        "post_code": "PE30 5DE",
        "uprn": "10000031537"
    },
    {
        "org_id": "WYM",
        "name": "CAERNARFON CUSTODY CENTRE",
        "primary_role_id": "RO234",
        "role_ids": [
            "RO229",
            "RO234"
        ],
        "status": "Active",
        "post_code": "LL55 1BU",
        "uprn": "Unknown"
    },
    {
        "org_id": "WNF",
        "name": "BILSTON CUSTODY CENTRE",
        "primary_role_id": "RO234",
        "role_ids": [
            "RO229",
            "RO234"
        ],
        "status": "Active",
        "post_code": "WV14 7DT",
        "uprn": "Unknown"
    },
    {
        "org_id": "WR0",
        "name": "YSTRAD MYNACH CUSTODY CENTRE",
        "primary_role_id": "RO234",
        "role_ids": [
            "RO229",
            "RO234"
        ],
        "status": "Active",
        "post_code": "CF82 7EP",
        "uprn": "Unknown"
    },
    {
        "org_id": "VEC",
        "name": "NEWMARKET CUSTODY CENTRE",
        "primary_role_id": "RO234",
        "role_ids": [
            "RO229",
            "RO234"
        ],
        "status": "Active",
        "post_code": "CB8 7SU",
        "uprn": "Unknown"
    },
    {
        "org_id": "VL2",
        "name": "ACTON CUSTODY CENTRE",
        "primary_role_id": "RO234",
        "role_ids": [
            "RO229",
            "RO234"
        ],
        "status": "Active",
        "post_code": "W3 9BH",
        "uprn": "12008131"
    },
    {
        "org_id": "WQM",
        "name": "CENTRAL BIRMINGHAM CUSTODY CENTRE",
        "primary_role_id": "RO234",
        "role_ids": [
            "RO229",
            "RO234"
        ],
        "status": "Active",
        "post_code": "B4 6NW",
        "uprn": "Unknown"
    },
    {
        "org_id": "WLE",
        "name": "LANCASTER CUSTODY CENTRE",
        "primary_role_id": "RO234",
        "role_ids": [
            "RO229",
            "RO234"
        ],
        "status": "Active",
        "post_code": "LA1 1YB",
        "uprn": "Unknown"
    },
    {
        "org_id": "WVH",
        "name": "CARDIGAN CUSTODY CENTRE",
        "primary_role_id": "RO234",
        "role_ids": [
            "RO229",
            "RO234"
        ],
        "status": "Active",
        "post_code": "SA43 1BZ",
        "uprn": "Unknown"
    },
    {
        "org_id": "WDE",
        "name": "HAMMERSMITH CUSTODY CENTRE",
        "primary_role_id": "RO234",
        "role_ids": [
            "RO229",
            "RO234"
        ],
        "status": "Active",
        "post_code": "W6 7NX",
        "uprn": "34026612"
    },
    {
        "org_id": "VG9",
        "name": "CHESTERFIELD CUSTODY CENTRE",
        "primary_role_id": "RO234",
        "role_ids": [
            "RO229",
            "RO234"
        ],
        "status": "Active",
        "post_code": "S40 1QP",
        "uprn": "74002453"
    },
    {
        "org_id": "VWG",
        "name": "TWICKENHAM CUSTODY CENTRE",
        "primary_role_id": "RO234",
        "role_ids": [
            "RO229",
            "RO234"
        ],
        "status": "Active",
        "post_code": "TW1 3SY",
        "uprn": "100023391959"
    },
    {
        "org_id": "WRG",
        "name": "LITTLE PARK STREET CUSTODY CENTRE",
        "primary_role_id": "RO234",
        "role_ids": [
            "RO229",
            "RO234"
        ],
        "status": "Active",
        "post_code": "CV1 2JX",
        "uprn": "Unknown"
    },
    {
        "org_id": "WL9",
        "name": "MILDENHALL CUSTODY CENTRE",
        "primary_role_id": "RO234",
        "role_ids": [
            "RO229",
            "RO234"
        ],
        "status": "Active",
        "post_code": "IP28 7HS",
        "uprn": "Unknown"
    },
    {
        "org_id": "VWW",
        "name": "CAMPBELL SQUARE CUSTODY CENTRE",
        "primary_role_id": "RO234",
        "role_ids": [
            "RO229",
            "RO234"
        ],
        "status": "Active",
        "post_code": "NN1 3EL",
        "uprn": "15050310"
    },
    {
        "org_id": "WTE",
        "name": "WREXHAM CUSTODY CENTRE",
        "primary_role_id": "RO234",
        "role_ids": [
            "RO229",
            "RO234"
        ],
        "status": "Active",
        "post_code": "LL12 7BW",
        "uprn": "Unknown"
    },
    {
        "org_id": "VAG",
        "name": "POOLE CUSTODY CENTRE",
        "primary_role_id": "RO234",
        "role_ids": [
            "RO229",
            "RO234"
        ],
        "status": "Active",
        "post_code": "BH15 2BP",
        "uprn": "10023692197"
    },
    {
        "org_id": "VWF",
        "name": "MAIDSTONE CUSTODY CENTRE",
        "primary_role_id": "RO234",
        "role_ids": [
            "RO229",
            "RO234"
        ],
        "status": "Active",
        "post_code": "ME15 6NF",
        "uprn": "200003717881"
    },
    {
        "org_id": "VFP",
        "name": "CHINGFORD CUSTODY CENTRE",
        "primary_role_id": "RO234",
        "role_ids": [
            "RO229",
            "RO234"
        ],
        "status": "Active",
        "post_code": "E4 7EA",
        "uprn": "100023584685"
    },
    {
        "org_id": "WMK",
        "name": "NUNEATON CUSTODY CENTRE",
        "primary_role_id": "RO234",
        "role_ids": [
            "RO229",
            "RO234"
        ],
        "status": "Active",
        "post_code": "CV11 4JU",
        "uprn": "Unknown"
    },
    {
        "org_id": "WXH",
        "name": "ISLINGTON CUSTODY CENTRE",
        "primary_role_id": "RO234",
        "role_ids": [
            "RO229",
            "RO234"
        ],
        "status": "Active",
        "post_code": "N1 0YY",
        "uprn": "5300092056"
    },
    {
        "org_id": "WPG",
        "name": "HAMMERSMITH CUSTODY CENTRE",
        "primary_role_id": "RO234",
        "role_ids": [
            "RO229",
            "RO234"
        ],
        "status": "Active",
        "post_code": "W6 7NL",
        "uprn": "Unknown"
    },
    {
        "org_id": "WY7",
        "name": "GATWICK CUSTODY CENTRE",
        "primary_role_id": "RO234",
        "role_ids": [
            "RO229",
            "RO234"
        ],
        "status": "Active",
        "post_code": "RH6 0JE",
        "uprn": "Unknown"
    },
    {
        "org_id": "WEQ",
        "name": "PLUMSTEAD CUSTODY CENTRE",
        "primary_role_id": "RO234",
        "role_ids": [
            "RO229",
            "RO234"
        ],
        "status": "Active",
        "post_code": "SE18 1JY",
        "uprn": "100023242419"
    },
    {
        "org_id": "VE9",
        "name": "KENTISH TOWN CUSTODY CENTRE",
        "primary_role_id": "RO234",
        "role_ids": [
            "RO229",
            "RO234"
        ],
        "status": "Active",
        "post_code": "NW5 3AE",
        "uprn": "Unknown"
    },
    {
        "org_id": "VR2",
        "name": "CRAWLEY CUSTODY CENTRE",
        "primary_role_id": "RO234",
        "role_ids": [
            "RO229",
            "RO234"
        ],
        "status": "Active",
        "post_code": "RH10 8BF",
        "uprn": "Unknown"
    },
    {
        "org_id": "VXP",
        "name": "CONSETT CUSTODY CENTRE",
        "primary_role_id": "RO234",
        "role_ids": [
            "RO229",
            "RO234"
        ],
        "status": "Active",
        "post_code": "DH8 5DL",
        "uprn": "200004279650"
    },
    {
        "org_id": "VRQ",
        "name": "SHERBORNE CUSTODY CENTRE",
        "primary_role_id": "RO234",
        "role_ids": [
            "RO229",
            "RO234"
        ],
        "status": "Active",
        "post_code": "DT9 3NL",
        "uprn": "200000748279"
    },
    {
        "org_id": "VL9",
        "name": "SITTINGBOURNE CUSTODY CENTRE",
        "primary_role_id": "RO234",
        "role_ids": [
            "RO229",
            "RO234"
        ],
        "status": "Active",
        "post_code": "ME10 4NR",
        "uprn": "200002532053"
    },
    {
        "org_id": "VG6",
        "name": "SCARBOROUGH CUSTODY CENTRE",
        "primary_role_id": "RO234",
        "role_ids": [
            "RO229",
            "RO234"
        ],
        "status": "Active",
        "post_code": "YO12 7AD",
        "uprn": "100052153470"
    },
    {
        "org_id": "WEM",
        "name": "GREAT YARMOUTH CUSTODY CENTRE",
        "primary_role_id": "RO234",
        "role_ids": [
            "RO229",
            "RO234"
        ],
        "status": "Active",
        "post_code": "NR31 0DN",
        "uprn": "10012183013"
    },
    {
        "org_id": "WRR",
        "name": "SNOWHILL CUSTODY CENTRE",
        "primary_role_id": "RO234",
        "role_ids": [
            "RO229",
            "RO234"
        ],
        "status": "Active",
        "post_code": "EC1A 2DP",
        "uprn": "Unknown"
    },
    {
        "org_id": "VXA",
        "name": "EBBW VALE CUSTODY CENTRE",
        "primary_role_id": "RO234",
        "role_ids": [
            "RO229",
            "RO234"
        ],
        "status": "Active",
        "post_code": "NP23 6UY",
        "uprn": "100100976592"
    },
    {
        "org_id": "VL5",
        "name": "ROMFORD CUSTODY CENTRE",
        "primary_role_id": "RO234",
        "role_ids": [
            "RO229",
            "RO234"
        ],
        "status": "Active",
        "post_code": "RM1 3BJ",
        "uprn": "200002672180"
    },
    {
        "org_id": "VJE",
        "name": "BISHOPSGATE CUSTODY CENTRE",
        "primary_role_id": "RO234",
        "role_ids": [
            "RO229",
            "RO234"
        ],
        "status": "Active",
        "post_code": "EC2M 4NP",
        "uprn": "100022933684"
    },
    {
        "org_id": "WRV",
        "name": "NEWTON LE WILLOWS CUSTODY CENTRE",
        "primary_role_id": "RO234",
        "role_ids": [
            "RO229",
            "RO234"
        ],
        "status": "Active",
        "post_code": "WA12 9BW",
        "uprn": "Unknown"
    },
    {
        "org_id": "VR7",
        "name": "WELSHPOOL CUSTODY CENTRE",
        "primary_role_id": "RO234",
        "role_ids": [
            "RO229",
            "RO234"
        ],
        "status": "Active",
        "post_code": "SY21 7AR",
        "uprn": "10011764249"
    },
    {
        "org_id": "WNP",
        "name": "CHRISTCHURCH CUSTODY CENTRE",
        "primary_role_id": "RO234",
        "role_ids": [
            "RO229",
            "RO234"
        ],
        "status": "Active",
        "post_code": "BH23 1PN",
        "uprn": "Unknown"
    },
    {
        "org_id": "WEJ",
        "name": "CHICHESTER CUSTODY CENTRE",
        "primary_role_id": "RO234",
        "role_ids": [
            "RO229",
            "RO234"
        ],
        "status": "Active",
        "post_code": "PO19 8AD",
        "uprn": "100062410698"
    },
    {
        "org_id": "VCK",
        "name": "STRATFORD UPON AVON CUSTODY CENTRE",
        "primary_role_id": "RO234",
        "role_ids": [
            "RO229",
            "RO234"
        ],
        "status": "Active",
        "post_code": "CV37 6RD",
        "uprn": "Unknown"
    },
    {
        "org_id": "VHW",
        "name": "BLANDFORD CUSTODY CENTRE",
        "primary_role_id": "RO234",
        "role_ids": [
            "RO229",
            "RO234"
        ],
        "status": "Active",
        "post_code": "DT11 7HR",
        "uprn": "100041116806"
    },
    {
        "org_id": "VT8",
        "name": "HOUNSLOW CUSTODY CENTRE",
        "primary_role_id": "RO234",
        "role_ids": [
            "RO229",
            "RO234"
        ],
        "status": "Active",
        "post_code": "TW3 1LB",
        "uprn": "100023402726"
    },
    {
        "org_id": "WWK",
        "name": "BLACKBURN CUSTODY CENTRE",
        "primary_role_id": "RO234",
        "role_ids": [
            "RO229",
            "RO234"
        ],
        "status": "Active",
        "post_code": "BB1 3HT",
        "uprn": "Unknown"
    },
    {
        "org_id": "VRG",
        "name": "BLACON CUSTODY CENTRE DIVISIONAL HQ",
        "primary_role_id": "RO234",
        "role_ids": [
            "RO229",
            "RO234"
        ],
        "status": "Active",
        "post_code": "CH1 5BD",
        "uprn": "10014509956"
    },
    {
        "org_id": "VJR",
        "name": "MARLOW HOUSE",
        "primary_role_id": "RO234",
        "role_ids": [
            "RO229",
            "RO234"
        ],
        "status": "Active",
        "post_code": "DA15 7ES",
        "uprn": "Unknown"
    },
    {
        "org_id": "VGG",
        "name": "KENSINGTON CUSTODY CENTRE",
        "primary_role_id": "RO234",
        "role_ids": [
            "RO229",
            "RO234"
        ],
        "status": "Active",
        "post_code": "W8 6EQ",
        "uprn": "217025973"
    },
    {
        "org_id": "VMG",
        "name": "WORTHING CUSTODY CENTRE",
        "primary_role_id": "RO234",
        "role_ids": [
            "RO229",
            "RO234"
        ],
        "status": "Active",
        "post_code": "BN11 1LY",
        "uprn": "100062227341"
    },
    {
        "org_id": "VC4",
        "name": "HAYES CUSTODY CENTRE",
        "primary_role_id": "RO234",
        "role_ids": [
            "RO229",
            "RO234"
        ],
        "status": "Active",
        "post_code": "UB4 8HU",
        "uprn": "Unknown"
    },
    {
        "org_id": "WTF",
        "name": "CAMBOURNE CUSTODY CENTRE",
        "primary_role_id": "RO234",
        "role_ids": [
            "RO229",
            "RO234"
        ],
        "status": "Active",
        "post_code": "TR14 8SY",
        "uprn": "Unknown"
    },
    {
        "org_id": "VH5",
        "name": "PARKSIDE CUSTODY CENTRE",
        "primary_role_id": "RO234",
        "role_ids": [
            "RO229",
            "RO234"
        ],
        "status": "Active",
        "post_code": "CB1 1JG",
        "uprn": "200004166851"
    },
    {
        "org_id": "WR5",
        "name": "STOKE NEWINGTON CUSTODY CENTRE",
        "primary_role_id": "RO234",
        "role_ids": [
            "RO229",
            "RO234"
        ],
        "status": "Active",
        "post_code": "N16 8DS",
        "uprn": "Unknown"
    },
    {
        "org_id": "WV6",
        "name": "LOWESTOFT CUSTODY CENTRE",
        "primary_role_id": "RO234",
        "role_ids": [
            "RO229",
            "RO234"
        ],
        "status": "Active",
        "post_code": "NR32 1PE",
        "uprn": "Unknown"
    },
    {
        "org_id": "VJ3",
        "name": "BROADBURY ROAD CUSTODY CENTRE",
        "primary_role_id": "RO234",
        "role_ids": [
            "RO229",
            "RO234"
        ],
        "status": "Active",
        "post_code": "BS4 1JT",
        "uprn": "146874"
    },
    {
        "org_id": "VH1",
        "name": "SWINTON CUSTODY CENTRE",
        "primary_role_id": "RO234",
        "role_ids": [
            "RO229",
            "RO234"
        ],
        "status": "Active",
        "post_code": "M27 6BA",
        "uprn": "10007894493"
    },
    {
        "org_id": "VKV",
        "name": "LOUGHBOROUGH CUSTODY CENTRE",
        "primary_role_id": "RO234",
        "role_ids": [
            "RO229",
            "RO234"
        ],
        "status": "Active",
        "post_code": "LE11 2XF",
        "uprn": "10091072907"
    },
    {
        "org_id": "WCJ",
        "name": "KEMPSTON CUSTODY CENTRE (COUNTY DIVISION)",
        "primary_role_id": "RO234",
        "role_ids": [
            "RO229",
            "RO234"
        ],
        "status": "Active",
        "post_code": "MK42 8AX",
        "uprn": "Unknown"
    },
    {
        "org_id": "WXW",
        "name": "HORSHAM CUSTODY CENTRE",
        "primary_role_id": "RO234",
        "role_ids": [
            "RO229",
            "RO234"
        ],
        "status": "Active",
        "post_code": "RH12 2DJ",
        "uprn": "Unknown"
    },
    {
        "org_id": "WVN",
        "name": "WISBECH CUSTODY CENTRE",
        "primary_role_id": "RO234",
        "role_ids": [
            "RO229",
            "RO234"
        ],
        "status": "Active",
        "post_code": "PE13 3BT",
        "uprn": "Unknown"
    },
    {
        "org_id": "VD5",
        "name": "GAINSBOROUGH CUSTODY CENTRE",
        "primary_role_id": "RO234",
        "role_ids": [
            "RO229",
            "RO234"
        ],
        "status": "Active",
        "post_code": "DN21 2SY",
        "uprn": "Unknown"
    },
    {
        "org_id": "WGR",
        "name": "WANDSWORTH CUSTODY CENTRE",
        "primary_role_id": "RO234",
        "role_ids": [
            "RO229",
            "RO234"
        ],
        "status": "Active",
        "post_code": "SW18 4JJ",
        "uprn": "121008802"
    },
    {
        "org_id": "WXT",
        "name": "MILFORD HAVEN CUSTODY CENTRE",
        "primary_role_id": "RO234",
        "role_ids": [
            "RO229",
            "RO234"
        ],
        "status": "Active",
        "post_code": "SA73 2HP",
        "uprn": "100101023644"
    },
    {
        "org_id": "VRX",
        "name": "QUEENS ROAD CUSTODY CENTRE",
        "primary_role_id": "RO234",
        "role_ids": [
            "RO229",
            "RO234"
        ],
        "status": "Active",
        "post_code": "B6 7NH",
        "uprn": "Unknown"
    },
    {
        "org_id": "VN5",
        "name": "STRETFORD CUSTODY CENTRE",
        "primary_role_id": "RO234",
        "role_ids": [
            "RO229",
            "RO234"
        ],
        "status": "Active",
        "post_code": "M32 0UX",
        "uprn": "10070446758"
    },
    {
        "org_id": "VHJ",
        "name": "MITCHAM CUSTODY CENTRE",
        "primary_role_id": "RO234",
        "role_ids": [
            "RO229",
            "RO234"
        ],
        "status": "Active",
        "post_code": "CR4 4LA",
        "uprn": "48019012"
    },
    {
        "org_id": "VP5",
        "name": "SOUTHALL CUSTODY CENTRE",
        "primary_role_id": "RO234",
        "role_ids": [
            "RO229",
            "RO234"
        ],
        "status": "Active",
        "post_code": "UB1 3HG",
        "uprn": "12039467"
    },
    {
        "org_id": "WJF",
        "name": "CARLISLE CUSTODY CENTRE",
        "primary_role_id": "RO234",
        "role_ids": [
            "RO229",
            "RO234"
        ],
        "status": "Active",
        "post_code": "CA1 3NQ",
        "uprn": "Unknown"
    },
    {
        "org_id": "VT1",
        "name": "WORKINGTON CUSTODY CENTRE",
        "primary_role_id": "RO234",
        "role_ids": [
            "RO229",
            "RO234"
        ],
        "status": "Active",
        "post_code": "CA14 4AP",
        "uprn": "200002828637"
    },
    {
        "org_id": "VTM",
        "name": "BARROW IN FURNESS CUSTODY CENTRE",
        "primary_role_id": "RO234",
        "role_ids": [
            "RO229",
            "RO234"
        ],
        "status": "Active",
        "post_code": "LA14 2UD",
        "uprn": "36046919"
    },
    {
        "org_id": "VFT",
        "name": "KENDAL CUSTODY CENTRE",
        "primary_role_id": "RO234",
        "role_ids": [
            "RO229",
            "RO234"
        ],
        "status": "Active",
        "post_code": "LA9 4RJ",
        "uprn": "100110759782"
    },
    {
        "org_id": "WJD",
        "name": "DERBY CUSTODY CENTRE",
        "primary_role_id": "RO234",
        "role_ids": [
            "RO229",
            "RO234"
        ],
        "status": "Active",
        "post_code": "DE1 3AB",
        "uprn": "Unknown"
    },
    {
        "org_id": "WRY",
        "name": "KEYHAM LANE CUSTODY CENTRE",
        "primary_role_id": "RO234",
        "role_ids": [
            "RO229",
            "RO234"
        ],
        "status": "Active",
        "post_code": "LE5 1FY",
        "uprn": "Unknown"
    },
    {
        "org_id": "WLF",
        "name": "EUSTON STREET CUSTODY CENTRE",
        "primary_role_id": "RO234",
        "role_ids": [
            "RO229",
            "RO234"
        ],
        "status": "Active",
        "post_code": "LE2 7SZ",
        "uprn": "Unknown"
    },
    {
        "org_id": "VRK",
        "name": "WIGSTON CUSTODY CENTRE",
        "primary_role_id": "RO234",
        "role_ids": [
            "RO229",
            "RO234"
        ],
        "status": "Active",
        "post_code": "LE18 1WX",
        "uprn": "100032237450"
    },
    {
        "org_id": "WKN",
        "name": "NORTH TYNESIDE AREA COMMAND HQ",
        "primary_role_id": "RO234",
        "role_ids": [
            "RO229",
            "RO234"
        ],
        "status": "Active",
        "post_code": "NE28 9NT",
        "uprn": "47234707"
    },
    {
        "org_id": "VVA",
        "name": "NEWCASTLE CITY CENTRE POLICE STATION",
        "primary_role_id": "RO234",
        "role_ids": [
            "RO229",
            "RO234"
        ],
        "status": "Active",
        "post_code": "NE1 3PH",
        "uprn": "4510737259"
    },
    {
        "org_id": "VL8",
        "name": "SOUTHWICK POLICE STATION",
        "primary_role_id": "RO234",
        "role_ids": [
            "RO229",
            "RO234"
        ],
        "status": "Active",
        "post_code": "SR5 2DU",
        "uprn": "45044592"
    },
    {
        "org_id": "VV1",
        "name": "WEYMOUTH POLICE STATION",
        "primary_role_id": "RO234",
        "role_ids": [
            "RO229",
            "RO234"
        ],
        "status": "Active",
        "post_code": "DT4 9WN",
        "uprn": "10093508040"
    },
    {
        "org_id": "VMF",
        "name": "LONGSIGHT POLICE STATION",
        "primary_role_id": "RO234",
        "role_ids": [
            "RO229",
            "RO234"
        ],
        "status": "Active",
        "post_code": "M13 0LL",
        "uprn": "10023052668"
    },
    {
        "org_id": "WH0",
        "name": "MIDDLEWICH CUSTODY SUITE",
        "primary_role_id": "RO234",
        "role_ids": [
            "RO229",
            "RO234"
        ],
        "status": "Active",
        "post_code": "CW10 0GY",
        "uprn": "10007645198"
    },
    {
        "org_id": "VPL",
        "name": "RUNCORN CUSTODY SUITE",
        "primary_role_id": "RO234",
        "role_ids": [
            "RO229",
            "RO234"
        ],
        "status": "Active",
        "post_code": "WA7 1TD",
        "uprn": "Unknown"
    },
    {
        "org_id": "VCA",
        "name": "PENDLETON POLICE CUSTODY",
        "primary_role_id": "RO234",
        "role_ids": [
            "RO229",
            "RO234"
        ],
        "status": "Active",
        "post_code": "M6 5RN",
        "uprn": "10007896737"
    },
    {
        "org_id": "VGM",
        "name": "NORTHERN AREA CUSTODY FACILITY",
        "primary_role_id": "RO234",
        "role_ids": [
            "RO229",
            "RO234"
        ],
        "status": "Active",
        "post_code": "ST1 5NP",
        "uprn": "3455129944"
    },
    {
        "org_id": "WJ7",
        "name": "WATLING STREET POLICE STATION",
        "primary_role_id": "RO234",
        "role_ids": [
            "RO229",
            "RO234"
        ],
        "status": "Active",
        "post_code": "ST19 5PR",
        "uprn": "Unknown"
    },
    {
        "org_id": "WJE",
        "name": "BURTON POLICE STATION",
        "primary_role_id": "RO234",
        "role_ids": [
            "RO229",
            "RO234"
        ],
        "status": "Active",
        "post_code": "DE14 1PA",
        "uprn": "Unknown"
    },
    {
        "org_id": "WK2",
        "name": "STAFFORD POLICE STATION",
        "primary_role_id": "RO234",
        "role_ids": [
            "RO229",
            "RO234"
        ],
        "status": "Active",
        "post_code": "ST16 2DQ",
        "uprn": "Unknown"
    },
    {
        "org_id": "VQP",
        "name": "HEREFORD STATION",
        "primary_role_id": "RO234",
        "role_ids": [
            "RO229",
            "RO234"
        ],
        "status": "Active",
        "post_code": "HR1 2HT",
        "uprn": "200002635071"
    },
    {
        "org_id": "WTL",
        "name": "SHREWSBURY POLICE STATION",
        "primary_role_id": "RO234",
        "role_ids": [
            "RO229",
            "RO234"
        ],
        "status": "Active",
        "post_code": "SY2 5RW",
        "uprn": "Unknown"
    },
    {
        "org_id": "WC8",
        "name": "TELFORD POLICE STATION",
        "primary_role_id": "RO234",
        "role_ids": [
            "RO229",
            "RO234"
        ],
        "status": "Active",
        "post_code": "TF3 4HW",
        "uprn": "Unknown"
    },
    {
        "org_id": "WWJ",
        "name": "KIDDERMINSTER POLICE STATION",
        "primary_role_id": "RO234",
        "role_ids": [
            "RO229",
            "RO234"
        ],
        "status": "Active",
        "post_code": "DY11 6AN",
        "uprn": "Unknown"
    },
    {
        "org_id": "VX1",
        "name": "WORCESTER POLICE STATION",
        "primary_role_id": "RO234",
        "role_ids": [
            "RO229",
            "RO234"
        ],
        "status": "Active",
        "post_code": "WR1 3QX",
        "uprn": "100121272256"
    },
    {
        "org_id": "WTY",
        "name": "SPENNYMOOR POLICE STATION",
        "primary_role_id": "RO234",
        "role_ids": [
            "RO229",
            "RO234"
        ],
        "status": "Active",
        "post_code": "DL16 6FB",
        "uprn": "Unknown"
    },
    {
        "org_id": "VPF",
        "name": "NORTHERN POLICE INVESTIGATION CENTRE",
        "primary_role_id": "RO234",
        "role_ids": [
            "RO229",
            "RO234"
        ],
        "status": "Active",
        "post_code": "RG22 4BS",
        "uprn": "10008486187"
    },
    {
        "org_id": "WV4",
        "name": "NEWPORT POLICE CUSTODY SUITE",
        "primary_role_id": "RO234",
        "role_ids": [
            "RO229",
            "RO234"
        ],
        "status": "Active",
        "post_code": "PO30 1SZ",
        "uprn": "Unknown"
    },
    {
        "org_id": "WQE",
        "name": "EASTERN POLICE INVESTIGATION CENTRE",
        "primary_role_id": "RO234",
        "role_ids": [
            "RO229",
            "RO234"
        ],
        "status": "Active",
        "post_code": "PO3 5GE",
        "uprn": "1775124696"
    },
    {
        "org_id": "WJP",
        "name": "SOUTHAMPTON POLICE CUSTODY SUITE",
        "primary_role_id": "RO234",
        "role_ids": [
            "RO229",
            "RO234"
        ],
        "status": "Active",
        "post_code": "SO15 1AN",
        "uprn": "Unknown"
    },
    {
        "org_id": "VFM",
        "name": "WATERLOOVILLE POLICE CUSTODY SUITE",
        "primary_role_id": "RO234",
        "role_ids": [
            "RO229",
            "RO234"
        ],
        "status": "Active",
        "post_code": "PO7 7FX",
        "uprn": "100062455588"
    },
    {
        "org_id": "WY1",
        "name": "BRIDEWELL CUSTODY SUITE",
        "primary_role_id": "RO234",
        "role_ids": [
            "RO229",
            "RO234"
        ],
        "status": "Active",
        "post_code": "NG2 1EE",
        "uprn": "Unknown"
    },
    {
        "org_id": "WQG",
        "name": "HARTLEPOOL DISTRICT POLICE HQ",
        "primary_role_id": "RO234",
        "role_ids": [
            "RO229",
            "RO234"
        ],
        "status": "Active",
        "post_code": "TS24 8AT",
        "uprn": "Unknown"
    },
    {
        "org_id": "VF0",
        "name": "REDCAR DISTRICT POLICE HQ",
        "primary_role_id": "RO234",
        "role_ids": [
            "RO229",
            "RO234"
        ],
        "status": "Active",
        "post_code": "TS10 5AP",
        "uprn": "Unknown"
    },
    {
        "org_id": "VC7",
        "name": "LINCOLN CUSTODY SUITE",
        "primary_role_id": "RO234",
        "role_ids": [
            "RO229",
            "RO234"
        ],
        "status": "Active",
        "post_code": "LN5 8EL",
        "uprn": "235067074"
    },
    {
        "org_id": "VEF",
        "name": "EASTBOURNE POLICE CUSTODY SUITE",
        "primary_role_id": "RO234",
        "role_ids": [
            "RO229",
            "RO234"
        ],
        "status": "Active",
        "post_code": "BN23 6PW",
        "uprn": "10010653967"
    },
    {
        "org_id": "VNH",
        "name": "BRIGHTON CUSTODY SUITE (CROWHURST)",
        "primary_role_id": "RO234",
        "role_ids": [
            "RO229",
            "RO234"
        ],
        "status": "Active",
        "post_code": "BN1 8AP",
        "uprn": "22242122"
    },
    {
        "org_id": "WT0",
        "name": "WORTHING CUSTODY SUITE (DURRINGTON LANE)",
        "primary_role_id": "RO234",
        "role_ids": [
            "RO229",
            "RO234"
        ],
        "status": "Active",
        "post_code": "BN13 2PQ",
        "uprn": "Unknown"
    },
    {
        "org_id": "WFL",
        "name": "AYLESBURY CUSTODY SUITE",
        "primary_role_id": "RO234",
        "role_ids": [
            "RO229",
            "RO234"
        ],
        "status": "Active",
        "post_code": "HP21 7LA",
        "uprn": "766308378"
    },
    {
        "org_id": "VD3",
        "name": "ABINGDON CUSTODY SUITE",
        "primary_role_id": "RO234",
        "role_ids": [
            "RO229",
            "RO234"
        ],
        "status": "Active",
        "post_code": "OX14 1AU",
        "uprn": "100121312046"
    },
    {
        "org_id": "WWQ",
        "name": "MAIDENHEAD CUSTODY SUITE",
        "primary_role_id": "RO234",
        "role_ids": [
            "RO229",
            "RO234"
        ],
        "status": "Active",
        "post_code": "SL6 8LP",
        "uprn": "100081276823"
    },
    {
        "org_id": "WP8",
        "name": "LODDEN VALLEY CUSTODY SUITE",
        "primary_role_id": "RO234",
        "role_ids": [
            "RO229",
            "RO234"
        ],
        "status": "Active",
        "post_code": "RG6 4PS",
        "uprn": "14056585"
    },
    {
        "org_id": "VMA",
        "name": "MILTON KEYNES CUSTODY SUITE",
        "primary_role_id": "RO234",
        "role_ids": [
            "RO229",
            "RO234"
        ],
        "status": "Active",
        "post_code": "MK9 2DS",
        "uprn": "25031801"
    },
    {
        "org_id": "VJH",
        "name": "HIGH WYCOMBE CUSTODY SUITE",
        "primary_role_id": "RO234",
        "role_ids": [
            "RO229",
            "RO234"
        ],
        "status": "Active",
        "post_code": "HP11 1BE",
        "uprn": "200000805808"
    },
    {
        "org_id": "VC2",
        "name": "NEWBURY CUSTODY SUITE",
        "primary_role_id": "RO234",
        "role_ids": [
            "RO229",
            "RO234"
        ],
        "status": "Active",
        "post_code": "RG14 5QU",
        "uprn": "100081226984"
    },
    {
        "org_id": "WJV",
        "name": "BANBURY CUSTODY SUITE",
        "primary_role_id": "RO234",
        "role_ids": [
            "RO229",
            "RO234"
        ],
        "status": "Active",
        "post_code": "OX16 2AE",
        "uprn": "100121382685"
    },
    {
        "org_id": "VC9",
        "name": "COPY LANE CUSTODY SUITE",
        "primary_role_id": "RO234",
        "role_ids": [
            "RO229",
            "RO234"
        ],
        "status": "Active",
        "post_code": "L30 7PR",
        "uprn": "Unknown"
    },
    {
        "org_id": "VD2",
        "name": "ST ANNE STREET (SAS) CUSTODY SUITE",
        "primary_role_id": "RO234",
        "role_ids": [
            "RO229",
            "RO234"
        ],
        "status": "Active",
        "post_code": "L3 3HJ",
        "uprn": "10092013689"
    },
    {
        "org_id": "VD4",
        "name": "WIRRAL CUSTODY SUITE",
        "primary_role_id": "RO234",
        "role_ids": [
            "RO229",
            "RO234"
        ],
        "status": "Active",
        "post_code": "CH41 8BA",
        "uprn": "Unknown"
    },
    {
        "org_id": "VF1",
        "name": "WAVERTREE ROAD CUSTODY SUITE",
        "primary_role_id": "RO234",
        "role_ids": [
            "RO229",
            "RO234"
        ],
        "status": "Active",
        "post_code": "L7 1RJ",
        "uprn": "38160943"
    },
    {
        "org_id": "F1Z0J",
        "name": "THE METROPOLITAN POLICE LAMBETH HQ",
        "primary_role_id": "RO234",
        "role_ids": [
            "RO229",
            "RO234"
        ],
        "status": "Active",
        "post_code": "SE1 7LP",
        "uprn": "Unknown"
    },
    {
        "org_id": "S2P3L",
        "name": "NOTTINGHAM CUSTODY SUITE",
        "primary_role_id": "RO234",
        "role_ids": [
            "RO229",
            "RO234"
        ],
        "status": "Active",
        "post_code": "NG7 5GX",
        "uprn": "200001391155"
    },
    {
        "org_id": "R4N1M",
        "name": "BEDLINGTON POLICE CUSTODY",
        "primary_role_id": "RO234",
        "role_ids": [
            "RO229",
            "RO234"
        ],
        "status": "Active",
        "post_code": "NE22 7LA",
        "uprn": "100110762215"
    },
    {
        "org_id": "X3B4X",
        "name": "ETAL LANE POLICE CUSTODY",
        "primary_role_id": "RO234",
        "role_ids": [
            "RO229",
            "RO234"
        ],
        "status": "Active",
        "post_code": "NE5 4AW",
        "uprn": "4510117984"
    },
    {
        "org_id": "F2T7Q",
        "name": "BELLE VALE POLICE CUSTODY",
        "primary_role_id": "RO234",
        "role_ids": [
            "RO229",
            "RO234"
        ],
        "status": "Active",
        "post_code": "L25 2PT",
        "uprn": "Unknown"
    }
]