[
    {
        "org_id": "X17",
        "name": "APPOINTMENTS COMMISSION",
        "primary_role_id": "RO162",
        "role_ids": [
            "RO162"
        ],
        "status": "Active",
        "post_code": "LS1 4PL",
        "uprn": "Unknown"
    },
    {
        "org_id": "X06",
        "name": "LONDON ICT PROGRAMME",
        "primary_role_id": "RO162",
        "role_ids": [
            "RO162"
        ],
        "status": "Active",
        "post_code": "W2 3QR",
        "uprn": "Unknown"
    },
    {
        "org_id": "X16",
        "name": "PERINATAL INSTITUTE",
        "primary_role_id": "RO162",
        "role_ids": [
            "RO162"
        ],
        "status": "Active",
        "post_code": "B15 3BE",
        "uprn": "100071430592"
    },
    {
        "org_id": "X30",
        "name": "NHS CONNECTING FOR HEALTH (EXETER SYSTEM)",
        "primary_role_id": "RO162",
        "role_ids": [
            "RO162"
        ],
        "status": "Active",
        "post_code": "EX2 5SE",
        "uprn": "Unknown"
    },
    {
        "org_id": "X08",
        "name": "NHS EMPLOYERS",
        "primary_role_id": "RO162",
        "role_ids": [
            "RO162"
        ],
        "status": "Active",
        "post_code": "SW1E 5DD",
        "uprn": "Unknown"
    },
    {
        "org_id": "X15",
        "name": "NHS CONFEDERATION",
        "primary_role_id": "RO162",
        "role_ids": [
            "RO162"
        ],
        "status": "Active",
        "post_code": "LS10 1JR",
        "uprn": "Unknown"
    },
    {
        "org_id": "X04",
        "name": "NATIONAL PRESCRIBING CENTRE",
        "primary_role_id": "RO162",
        "role_ids": [
            "RO162"
        ],
        "status": "Active",
        "post_code": "L13 1FB",
        "uprn": "Unknown"
    },
    {
        "org_id": "X13",
        "name": "PARLIAMENTARY AND HEALTH SERVICE OMBUDSMAN",
        "primary_role_id": "RO162",
        "role_ids": [
            "RO162"
        ],
        "status": "Active",
        "post_code": "M2 3HQ",
        "uprn": "Unknown"
    },
    {
        "org_id": "X10",
        "name": "PUBLIC HEALTH LABORATORY SERVICE (LONDON)",
        "primary_role_id": "RO162",
        "role_ids": [
            "RO162"
        ],
        "status": "Active",
        "post_code": "NW9 5DF",
        "uprn": "Unknown"
    },
    {
        "org_id": "X24",
        "name": "NHS ENGLAND",
        "primary_role_id": "RO162",
        "role_ids": [
            "RO162"
        ],
        "status": "Active",
        "post_code": "LS2 7UE",
        "uprn": "Unknown"
    },
    {
        "org_id": "X80",
        "name": "NATIONAL INSTITUTE FOR HEALTH AND CARE EXCELLENCE",
        "primary_role_id": "RO162",
        "role_ids": [
            "RO162"
        ],
        "status": "Active",
        "post_code": "SW1A 2BU",
        "uprn": "Unknown"
    },
    {
        "org_id": "X28",
        "name": "THE HUMAN FERTILISATION AND EMBRYOLOGY AUTHORITY",
        "primary_role_id": "RO162",
        "role_ids": [
            "RO162"
        ],
        "status": "Active",
        "post_code": "E20 1JQ",
        "uprn": "10092040140"
    },
    {
        "org_id": "X91",
        "name": "HSIB.ORG.UK",
        "primary_role_id": "RO162",
        "role_ids": [
            "RO162"
        ],
        "status": "Active",
        "post_code": "GU14 0LX",
        "uprn": "200002884133"
    }
]