[
    {
        "org_id": "VK4",
        "name": "AYCLIFFE SECURE SERVICES",
        "primary_role_id": "RO231",
        "role_ids": [
            "RO83",
            "RO231"
        ],
        "status": "Active",
        "post_code": "DL5 6JB",
        "uprn": "Unknown"
    },
    {
        "org_id": "VGY",
        "name": "BARTON MOSS SECCURE CARE CENTRE",
        "primary_role_id": "RO231",
        "role_ids": [
            "RO83",
            "RO231"
        ],
        "status": "Active",
        "post_code": "M30 7RL",
        "uprn": "Unknown"
    },
    {
        "org_id": "WYP",
        "name": "CLAYFIELDS SCH",
        "primary_role_id": "RO231",
        "role_ids": [
            "RO83",
            "RO231"
        ],
        "status": "Active",
        "post_code": "NG9 8GU",
        "uprn": "Unknown"
    },
    {
        "org_id": "WYN",
        "name": "ADEL BECK SCH",
        "primary_role_id": "RO231",
        "role_ids": [
            "RO83",
            "RO231"
        ],
        "status": "Active",
        "post_code": "LS16 8EB",
        "uprn": "Unknown"
    },
    {
        "org_id": "VH8",
        "name": "LINCOLNSHIRE SECURE UNIT",
        "primary_role_id": "RO231",
        "role_ids": [
            "RO83",
            "RO231"
        ],
        "status": "Active",
        "post_code": "NG34 7TY",
        "uprn": "Unknown"
    },
    {
        "org_id": "WEN",
        "name": "SWANWICK LODGE SCH",
        "primary_role_id": "RO231",
        "role_ids": [
            "RO83",
            "RO231"
        ],
        "status": "Active",
        "post_code": "SO31 7HD",
        "uprn": "Unknown"
    },
    {
        "org_id": "WYL",
        "name": "VINNEY GREEN SCH",
        "primary_role_id": "RO231",
        "role_ids": [
            "RO83",
            "RO231"
        ],
        "status": "Active",
        "post_code": "BS16 7AA",
        "uprn": "Unknown"
    },
    {
        "org_id": "WLL",
        "name": "ATKINSON UNIT SCH",
        "primary_role_id": "RO231",
        "role_ids": [
            "RO83",
            "RO231"
        ],
        "status": "Active",
        "post_code": "EX4 8NA",
        "uprn": "Unknown"
    },
    {
        "org_id": "VYJ",
        "name": "CLARE LODGE SCH",
        "primary_role_id": "RO231",
        "role_ids": [
            "RO83",
            "RO231"
        ],
        "status": "Active",
        "post_code": "PE6 7AW",
        "uprn": "100091534904"
    },
    {
        "org_id": "VFL",
        "name": "LANSDOWNE SCH",
        "primary_role_id": "RO231",
        "role_ids": [
            "RO83",
            "RO231"
        ],
        "status": "Active",
        "post_code": "BN27 1NP",
        "uprn": "Unknown"
    },
    {
        "org_id": "VE1",
        "name": "MARYDALE LODGE",
        "primary_role_id": "RO231",
        "role_ids": [
            "RO83",
            "RO231"
        ],
        "status": "Active",
        "post_code": "WA11 9RJ",
        "uprn": "Unknown"
    },
    {
        "org_id": "VW3",
        "name": "KYLOE HOUSE SCH",
        "primary_role_id": "RO231",
        "role_ids": [
            "RO83",
            "RO231"
        ],
        "status": "Active",
        "post_code": "NE61 6DE",
        "uprn": "Unknown"
    },
    {
        "org_id": "WG8",
        "name": "HILLSIDE SECURE CENTRE",
        "primary_role_id": "RO231",
        "role_ids": [
            "RO83",
            "RO231"
        ],
        "status": "Active",
        "post_code": "SA11 1UL",
        "uprn": "Unknown"
    },
    {
        "org_id": "WMJ",
        "name": "ALDINE SCH",
        "primary_role_id": "RO231",
        "role_ids": [
            "RO83",
            "RO231"
        ],
        "status": "Active",
        "post_code": "S17 3ES",
        "uprn": "Unknown"
    }
]