[
    {
        "org_id": "X09001",
        "name": "NATIONAL PROGRAMME FOR IT",
        "primary_role_id": "RO91",
        "role_ids": [
            "RO91"
        ],
        "status": "Active",
        "post_code": "LS1 4HY",
        "uprn": "Unknown"
    },
    {
        "org_id": "X26001",
        "name": "DEPLOYMENT ISSUE RESOLUTION TEAM",
        "primary_role_id": "RO91",
        "role_ids": [
            "RO91"
        ],
        "status": "Active",
        "post_code": "LS1 4HR",
        "uprn": "Unknown"
    },
    {
        "org_id": "X26002",
        "name": "DATABASE MANAGEMENT TEAM",
        "primary_role_id": "RO91",
        "role_ids": [
            "RO91"
        ],
        "status": "Active",
        "post_code": "LS1 4AP",
        "uprn": "72766088"
    },
    {
        "org_id": "X26003",
        "name": "ELECTRONIC PRESCRIPTION SERVICE TEAM",
        "primary_role_id": "RO91",
        "role_ids": [
            "RO91"
        ],
        "status": "Active",
        "post_code": "LS1 4AP",
        "uprn": "Unknown"
    },
    {
        "org_id": "X26004",
        "name": "INFRASTRUCTURE SECURITY TEAM",
        "primary_role_id": "RO91",
        "role_ids": [
            "RO91"
        ],
        "status": "Active",
        "post_code": "LS1 4HY",
        "uprn": "Unknown"
    },
    {
        "org_id": "X26005",
        "name": "NICA ENVIRONMENTS TEAM",
        "primary_role_id": "RO91",
        "role_ids": [
            "RO91"
        ],
        "status": "Active",
        "post_code": "LS1 4HR",
        "uprn": "Unknown"
    },
    {
        "org_id": "X26006",
        "name": "NICA TEST DATA TEAM",
        "primary_role_id": "RO91",
        "role_ids": [
            "RO91"
        ],
        "status": "Active",
        "post_code": "LS1 4HR",
        "uprn": "Unknown"
    },
    {
        "org_id": "X26008",
        "name": "SPINE 2 MESSAGE TRACING",
        "primary_role_id": "RO91",
        "role_ids": [
            "RO91"
        ],
        "status": "Active",
        "post_code": "LS1 4HR",
        "uprn": "Unknown"
    },
    {
        "org_id": "X26009",
        "name": "SERVICE MANAGEMENT",
        "primary_role_id": "RO91",
        "role_ids": [
            "RO91"
        ],
        "status": "Active",
        "post_code": "LS1 4HR",
        "uprn": "Unknown"
    },
    {
        "org_id": "X26010",
        "name": "SYSTEMS & SERVICE DELIVERY",
        "primary_role_id": "RO91",
        "role_ids": [
            "RO91"
        ],
        "status": "Active",
        "post_code": "EX2 5SE",
        "uprn": "10013041311"
    },
    {
        "org_id": "X26007",
        "name": "NICA MESSAGING SERVICES",
        "primary_role_id": "RO91",
        "role_ids": [
            "RO91"
        ],
        "status": "Active",
        "post_code": "LS1 4HR",
        "uprn": "Unknown"
    },
    {
        "org_id": "X25001",
        "name": "LONDON REGION AND CENTRE",
        "primary_role_id": "RO91",
        "role_ids": [
            "RO91"
        ],
        "status": "Active",
        "post_code": "SW1W 9SZ",
        "uprn": "100023346367"
    },
    {
        "org_id": "X25002",
        "name": "MIDLANDS AND EAST OF ENGLAND REGIONAL OFFICE",
        "primary_role_id": "RO91",
        "role_ids": [
            "RO91"
        ],
        "status": "Active",
        "post_code": "B3 2PW",
        "uprn": "10090431808"
    },
    {
        "org_id": "X25003",
        "name": "NORTH REGIONAL OFFICE",
        "primary_role_id": "RO91",
        "role_ids": [
            "RO91"
        ],
        "status": "Active",
        "post_code": "LS1 4PL",
        "uprn": "72547599"
    },
    {
        "org_id": "X25004",
        "name": "SOUTH REGIONAL OFFICE",
        "primary_role_id": "RO91",
        "role_ids": [
            "RO91"
        ],
        "status": "Active",
        "post_code": "BS1 6EH",
        "uprn": "Unknown"
    },
    {
        "org_id": "X26011",
        "name": "NHS LONDON SMSP ADAPTER",
        "primary_role_id": "RO91",
        "role_ids": [
            "RO91"
        ],
        "status": "Active",
        "post_code": "LS1 4HR",
        "uprn": "Unknown"
    },
    {
        "org_id": "X26012",
        "name": "SCR 1-CLICK",
        "primary_role_id": "RO91",
        "role_ids": [
            "RO91"
        ],
        "status": "Active",
        "post_code": "LS1 4HR",
        "uprn": "Unknown"
    },
    {
        "org_id": "X26013",
        "name": "MESH",
        "primary_role_id": "RO91",
        "role_ids": [
            "RO91"
        ],
        "status": "Active",
        "post_code": "LS1 4HR",
        "uprn": "Unknown"
    },
    {
        "org_id": "X25005",
        "name": "PUBLIC HEALTH ENGLAND PORTON",
        "primary_role_id": "RO91",
        "role_ids": [
            "RO91"
        ],
        "status": "Active",
        "post_code": "SP4 0JG",
        "uprn": "Unknown"
    },
    {
        "org_id": "X25006",
        "name": "PUBLIC HEALTH ENGLAND COLINDALE",
        "primary_role_id": "RO91",
        "role_ids": [
            "RO91"
        ],
        "status": "Active",
        "post_code": "NW9 5EQ",
        "uprn": "Unknown"
    },
    {
        "org_id": "Y9Y5Q",
        "name": "Y9Y5Q - NHSUK",
        "primary_role_id": "RO91",
        "role_ids": [
            "RO91"
        ],
        "status": "Active",
        "post_code": "LS1 4AP",
        "uprn": "72766088"
    },
    {
        "org_id": "G2Y0B",
        "name": "GP CONNECT APPOINTMENT CHECKER",
        "primary_role_id": "RO91",
        "role_ids": [
            "RO91"
        ],
        "status": "Active",
        "post_code": "LS1 4AP",
        "uprn": "72766088"
    },
    {
        "org_id": "Y1X4P",
        "name": "NHS ENGLAND PHARMACY IP PATHFINDER",
        "primary_role_id": "RO91",
        "role_ids": [
            "RO91"
        ],
        "status": "Active",
        "post_code": "SE1 8UG",
        "uprn": "100023226264"
    }
]