[
    {
        "org_id": "X09001AF",
        "name": "DEMOGRAPHIC SPINE APPLICATION",
        "primary_role_id": "RO89",
        "role_ids": [
            "RO89"
        ],
        "status": "Active",
        "post_code": "PR8 2HH",
        "uprn": "Unknown"
    },
    {
        "org_id": "X09001AA",
        "name": "NHS CARE RECORDS SERVICE - SPINE DIRECTORY SERVICE",
        "primary_role_id": "RO89",
        "role_ids": [
            "RO89"
        ],
        "status": "Active",
        "post_code": "LS1 4HY",
        "uprn": "Unknown"
    },
    {
        "org_id": "X09001AH",
        "name": "HEALTHSPACE",
        "primary_role_id": "RO89",
        "role_ids": [
            "RO89"
        ],
        "status": "Active",
        "post_code": "LS1 4HT",
        "uprn": "Unknown"
    },
    {
        "org_id": "X09001AE",
        "name": "NHS NUMBERS FOR BABIES (NN4B)",
        "primary_role_id": "RO89",
        "role_ids": [
            "RO89"
        ],
        "status": "Active",
        "post_code": "EX2 5SE",
        "uprn": "Unknown"
    },
    {
        "org_id": "X09001AC",
        "name": "NHS CARE RECORDS SERVICE - CHOOSE AND BOOK",
        "primary_role_id": "RO89",
        "role_ids": [
            "RO89"
        ],
        "status": "Active",
        "post_code": "LS1 4HY",
        "uprn": "Unknown"
    },
    {
        "org_id": "X09001AD",
        "name": "NATIONAL PROGRAMME FOR IT (EXETER SYSTEM)",
        "primary_role_id": "RO89",
        "role_ids": [
            "RO89"
        ],
        "status": "Active",
        "post_code": "EX2 5SE",
        "uprn": "10013041311"
    },
    {
        "org_id": "X09001AG",
        "name": "NHS STRATEGIC TRACING SERVICE (NSTS)",
        "primary_role_id": "RO89",
        "role_ids": [
            "RO89"
        ],
        "status": "Active",
        "post_code": "EX2 5SE",
        "uprn": "10013041311"
    },
    {
        "org_id": "X09001AJ",
        "name": "ELECTRONIC STAFF RECORD",
        "primary_role_id": "RO89",
        "role_ids": [
            "RO89"
        ],
        "status": "Active",
        "post_code": "WF3 1WE",
        "uprn": "72513643"
    },
    {
        "org_id": "X25001AA",
        "name": "LONDON REGION AND CENTRE",
        "primary_role_id": "RO89",
        "role_ids": [
            "RO89"
        ],
        "status": "Active",
        "post_code": "SW1W 9SZ",
        "uprn": "100023346367"
    },
    {
        "org_id": "X25003AE",
        "name": "NORTH EAST PHE CENTRE",
        "primary_role_id": "RO89",
        "role_ids": [
            "RO89"
        ],
        "status": "Active",
        "post_code": "NE1 4WH",
        "uprn": "Unknown"
    },
    {
        "org_id": "X25002AE",
        "name": "WEST MIDLANDS PHE CENTRE",
        "primary_role_id": "RO89",
        "role_ids": [
            "RO89"
        ],
        "status": "Active",
        "post_code": "B3 2PW",
        "uprn": "Unknown"
    },
    {
        "org_id": "X25003AF",
        "name": "YORKSHIRE & THE HUMBER PHE CENTRE",
        "primary_role_id": "RO89",
        "role_ids": [
            "RO89"
        ],
        "status": "Active",
        "post_code": "LS1 4PL",
        "uprn": "Unknown"
    },
    {
        "org_id": "X25002AF",
        "name": "EAST MIDLANDS PHE CENTRE",
        "primary_role_id": "RO89",
        "role_ids": [
            "RO89"
        ],
        "status": "Active",
        "post_code": "NG5 1PB",
        "uprn": "Unknown"
    },
    {
        "org_id": "X25002AG",
        "name": "EAST OF ENGLAND PHE CENTRE",
        "primary_role_id": "RO89",
        "role_ids": [
            "RO89"
        ],
        "status": "Active",
        "post_code": "CB2 8BF",
        "uprn": "Unknown"
    },
    {
        "org_id": "X25003AG",
        "name": "NORTH WEST PHE CENTRE",
        "primary_role_id": "RO89",
        "role_ids": [
            "RO89"
        ],
        "status": "Active",
        "post_code": "L1 1JF",
        "uprn": "Unknown"
    },
    {
        "org_id": "X25004AG",
        "name": "SOUTH WEST PHE CENTRE",
        "primary_role_id": "RO89",
        "role_ids": [
            "RO89"
        ],
        "status": "Active",
        "post_code": "EX1 3QS",
        "uprn": "Unknown"
    },
    {
        "org_id": "X25004AH",
        "name": "SOUTH EAST PHE CENTRE",
        "primary_role_id": "RO89",
        "role_ids": [
            "RO89"
        ],
        "status": "Active",
        "post_code": "RH12 1XA",
        "uprn": "Unknown"
    },
    {
        "org_id": "X25004AJ",
        "name": "THAMES VALLEY PHE CENTRE",
        "primary_role_id": "RO89",
        "role_ids": [
            "RO89"
        ],
        "status": "Active",
        "post_code": "OX11 0RQ",
        "uprn": "10014082039"
    }
]