[
    {
        "org_id": "QE1",
        "name": "NHS LANCASHIRE AND SOUTH CUMBRIA INTEGRATED CARE BOARD",
        "primary_role_id": "RO261",
        "role_ids": [
            "RO261",
            "RO262",
            "RO318"
        ],
        "status": "Active",
        "post_code": "PR1 8XB",
        "uprn": "10007610149"
    },
    {
        "org_id": "QWO",
        "name": "NHS WEST YORKSHIRE INTEGRATED CARE BOARD",
        "primary_role_id": "RO261",
        "role_ids": [
            "RO261",
            "RO262",
            "RO318"
        ],
        "status": "Active",
        "post_code": "WF1 1LT",
        "uprn": "Unknown"
    },
    {
        "org_id": "QOQ",
        "name": "NHS HUMBER AND NORTH YORKSHIRE INTEGRATED CARE BOARD",
        "primary_role_id": "RO261",
        "role_ids": [
            "RO261",
            "RO262",
            "RO318"
        ],
        "status": "Active",
        "post_code": "HU1 1UY",
        "uprn": "10024009288"
    },
    {
        "org_id": "QOP",
        "name": "NHS GREATER MANCHESTER INTEGRATED CARE BOARD",
        "primary_role_id": "RO261",
        "role_ids": [
            "RO261",
            "RO262",
            "RO318"
        ],
        "status": "Active",
        "post_code": "M1 6EU",
        "uprn": "Unknown"
    },
    {
        "org_id": "QYG",
        "name": "NHS CHESHIRE AND MERSEYSIDE INTEGRATED CARE BOARD",
        "primary_role_id": "RO261",
        "role_ids": [
            "RO261",
            "RO262",
            "RO318"
        ],
        "status": "Active",
        "post_code": "WA1 1QY",
        "uprn": "Unknown"
    },
    {
        "org_id": "QF7",
        "name": "NHS SOUTH YORKSHIRE INTEGRATED CARE BOARD",
        "primary_role_id": "RO261",
        "role_ids": [
            "RO261",
            "RO262",
            "RO318"
        ],
        "status": "Active",
        "post_code": "S1 3FG",
        "uprn": "Unknown"
    },
    {
        "org_id": "QNC",
        "name": "NHS STAFFORDSHIRE AND STOKE-ON-TRENT INTEGRATED CARE BOARD",
        "primary_role_id": "RO261",
        "role_ids": [
            "RO261",
            "RO262",
            "RO318"
        ],
        "status": "Active",
        "post_code": "ST16 2LP",
        "uprn": "10023359247"
    },
    {
        "org_id": "QOC",
        "name": "NHS SHROPSHIRE, TELFORD AND WREKIN INTEGRATED CARE BOARD",
        "primary_role_id": "RO261",
        "role_ids": [
            "RO261",
            "RO262",
            "RO318"
        ],
        "status": "Active",
        "post_code": "TF1 1LX",
        "uprn": "Unknown"
    },
    {
        "org_id": "QJ2",
        "name": "NHS DERBY AND DERBYSHIRE INTEGRATED CARE BOARD",
        "primary_role_id": "RO261",
        "role_ids": [
            "RO261",
            "RO262",
            "RO318"
        ],
        "status": "Active",
        "post_code": "DE1 2FS",
        "uprn": "Unknown"
    },
    {
        "org_id": "QJM",
        "name": "NHS LINCOLNSHIRE INTEGRATED CARE BOARD",
        "primary_role_id": "RO261",
        "role_ids": [
            "RO261",
            "RO262",
            "RO318"
        ],
        "status": "Active",
        "post_code": "LN5 7LH",
        "uprn": "235059114"
    },
    {
        "org_id": "QT1",
        "name": "NHS NOTTINGHAM AND NOTTINGHAMSHIRE INTEGRATED CARE BOARD",
        "primary_role_id": "RO261",
        "role_ids": [
            "RO261",
            "RO262",
            "RO318"
        ],
        "status": "Active",
        "post_code": "NG5 6DA",
        "uprn": "Unknown"
    },
    {
        "org_id": "QK1",
        "name": "NHS LEICESTER, LEICESTERSHIRE AND RUTLAND INTEGRATED CARE BOARD",
        "primary_role_id": "RO261",
        "role_ids": [
            "RO261",
            "RO262",
            "RO318"
        ],
        "status": "Active",
        "post_code": "LE3 8TB",
        "uprn": "Unknown"
    },
    {
        "org_id": "QUA",
        "name": "NHS BLACK COUNTRY INTEGRATED CARE BOARD",
        "primary_role_id": "RO261",
        "role_ids": [
            "RO261",
            "RO262",
            "RO318"
        ],
        "status": "Active",
        "post_code": "WV1 1SD",
        "uprn": "Unknown"
    },
    {
        "org_id": "QHL",
        "name": "NHS BIRMINGHAM AND SOLIHULL INTEGRATED CARE BOARD",
        "primary_role_id": "RO261",
        "role_ids": [
            "RO261",
            "RO262",
            "RO318"
        ],
        "status": "Active",
        "post_code": "B1 1TT",
        "uprn": "Unknown"
    },
    {
        "org_id": "QGH",
        "name": "NHS HEREFORDSHIRE AND WORCESTERSHIRE INTEGRATED CARE BOARD",
        "primary_role_id": "RO261",
        "role_ids": [
            "RO261",
            "RO262",
            "RO318"
        ],
        "status": "Active",
        "post_code": "WR3 7NS",
        "uprn": "Unknown"
    },
    {
        "org_id": "QHG",
        "name": "NHS BEDFORDSHIRE, LUTON AND MILTON KEYNES INTEGRATED CARE BOARD",
        "primary_role_id": "RO261",
        "role_ids": [
            "RO261",
            "RO262",
            "RO318"
        ],
        "status": "Active",
        "post_code": "LU1 2LJ",
        "uprn": "Unknown"
    },
    {
        "org_id": "QPM",
        "name": "NHS NORTHAMPTONSHIRE INTEGRATED CARE BOARD",
        "primary_role_id": "RO261",
        "role_ids": [
            "RO261",
            "RO262",
            "RO318"
        ],
        "status": "Active",
        "post_code": "NN15 6EY",
        "uprn": "100032143468"
    },
    {
        "org_id": "QWU",
        "name": "NHS COVENTRY AND WARWICKSHIRE INTEGRATED CARE BOARD",
        "primary_role_id": "RO261",
        "role_ids": [
            "RO261",
            "RO262",
            "RO318"
        ],
        "status": "Active",
        "post_code": "CV34 4RL",
        "uprn": "10013180510"
    },
    {
        "org_id": "QUE",
        "name": "NHS CAMBRIDGESHIRE AND PETERBOROUGH INTEGRATED CARE BOARD",
        "primary_role_id": "RO261",
        "role_ids": [
            "RO261",
            "RO262",
            "RO318"
        ],
        "status": "Active",
        "post_code": "CB7 4EA",
        "uprn": "Unknown"
    },
    {
        "org_id": "QMM",
        "name": "NHS NORFOLK AND WAVENEY INTEGRATED CARE BOARD",
        "primary_role_id": "RO261",
        "role_ids": [
            "RO261",
            "RO262",
            "RO318"
        ],
        "status": "Active",
        "post_code": "NR1 2DH",
        "uprn": "Unknown"
    },
    {
        "org_id": "QJG",
        "name": "NHS SUFFOLK AND NORTH EAST ESSEX INTEGRATED CARE BOARD",
        "primary_role_id": "RO261",
        "role_ids": [
            "RO261",
            "RO262",
            "RO318"
        ],
        "status": "Active",
        "post_code": "IP1 2BX",
        "uprn": "10093554947"
    },
    {
        "org_id": "QM7",
        "name": "NHS HERTFORDSHIRE AND WEST ESSEX INTEGRATED CARE BOARD",
        "primary_role_id": "RO261",
        "role_ids": [
            "RO261",
            "RO262",
            "RO318"
        ],
        "status": "Active",
        "post_code": "AL8 6JL",
        "uprn": "Unknown"
    },
    {
        "org_id": "QH8",
        "name": "NHS MID AND SOUTH ESSEX INTEGRATED CARE BOARD",
        "primary_role_id": "RO261",
        "role_ids": [
            "RO261",
            "RO262",
            "RO318"
        ],
        "status": "Active",
        "post_code": "CM2 5PF",
        "uprn": "200004716383"
    },
    {
        "org_id": "QRV",
        "name": "NHS NORTH WEST LONDON INTEGRATED CARE BOARD",
        "primary_role_id": "RO261",
        "role_ids": [
            "RO261",
            "RO262",
            "RO318"
        ],
        "status": "Active",
        "post_code": "NW1 5JD",
        "uprn": "10033538203"
    },
    {
        "org_id": "QMJ",
        "name": "NHS NORTH CENTRAL LONDON INTEGRATED CARE BOARD",
        "primary_role_id": "RO261",
        "role_ids": [
            "RO261",
            "RO262",
            "RO318"
        ],
        "status": "Active",
        "post_code": "N1C 4AG",
        "uprn": "5170230"
    },
    {
        "org_id": "QKK",
        "name": "NHS SOUTH EAST LONDON INTEGRATED CARE BOARD",
        "primary_role_id": "RO261",
        "role_ids": [
            "RO261",
            "RO262",
            "RO318"
        ],
        "status": "Active",
        "post_code": "SE1 2QH",
        "uprn": "10013528792"
    },
    {
        "org_id": "QWE",
        "name": "NHS SOUTH WEST LONDON INTEGRATED CARE BOARD",
        "primary_role_id": "RO261",
        "role_ids": [
            "RO261",
            "RO262",
            "RO318"
        ],
        "status": "Active",
        "post_code": "SW19 1RH",
        "uprn": "Unknown"
    },
    {
        "org_id": "QKS",
        "name": "NHS KENT AND MEDWAY INTEGRATED CARE BOARD",
        "primary_role_id": "RO261",
        "role_ids": [
            "RO261",
            "RO262",
            "RO318"
        ],
        "status": "Active",
        "post_code": "ME15 6NB",
        "uprn": "200003717742"
    },
    {
        "org_id": "QNX",
        "name": "NHS SUSSEX INTEGRATED CARE BOARD",
        "primary_role_id": "RO261",
        "role_ids": [
            "RO261",
            "RO262",
            "RO318"
        ],
        "status": "Active",
        "post_code": "BN7 2FZ",
        "uprn": "10092066367"
    },
    {
        "org_id": "QNQ",
        "name": "NHS FRIMLEY INTEGRATED CARE BOARD",
        "primary_role_id": "RO261",
        "role_ids": [
            "RO261",
            "RO262",
            "RO318"
        ],
        "status": "Active",
        "post_code": "SL4 3DP",
        "uprn": "100081270006"
    },
    {
        "org_id": "QXU",
        "name": "NHS SURREY HEARTLANDS INTEGRATED CARE BOARD",
        "primary_role_id": "RO261",
        "role_ids": [
            "RO261",
            "RO262",
            "RO318"
        ],
        "status": "Active",
        "post_code": "RH2 8EF",
        "uprn": "100062491147"
    },
    {
        "org_id": "QT6",
        "name": "NHS CORNWALL AND THE ISLES OF SCILLY INTEGRATED CARE BOARD",
        "primary_role_id": "RO261",
        "role_ids": [
            "RO261",
            "RO262",
            "RO318"
        ],
        "status": "Active",
        "post_code": "PL31 2FR",
        "uprn": "Unknown"
    },
    {
        "org_id": "QJK",
        "name": "NHS DEVON INTEGRATED CARE BOARD",
        "primary_role_id": "RO261",
        "role_ids": [
            "RO261",
            "RO262",
            "RO318"
        ],
        "status": "Active",
        "post_code": "EX2 7JU",
        "uprn": "10092023055"
    },
    {
        "org_id": "QSL",
        "name": "NHS SOMERSET INTEGRATED CARE BOARD",
        "primary_role_id": "RO261",
        "role_ids": [
            "RO261",
            "RO262",
            "RO318"
        ],
        "status": "Active",
        "post_code": "TA6 4RN",
        "uprn": "Unknown"
    },
    {
        "org_id": "QUY",
        "name": "NHS BRISTOL, NORTH SOMERSET AND SOUTH GLOUCESTERSHIRE INTEGRATED CARE BOARD",
        "primary_role_id": "RO261",
        "role_ids": [
            "RO261",
            "RO262",
            "RO318"
        ],
        "status": "Active",
        "post_code": "BS1 6AG",
        "uprn": "Unknown"
    },
    {
        "org_id": "QOX",
        "name": "NHS BATH AND NORTH EAST SOMERSET, SWINDON AND WILTSHIRE INTEGRATED CARE BOARD",
        "primary_role_id": "RO261",
        "role_ids": [
            "RO261",
            "RO262",
            "RO318"
        ],
        "status": "Active",
        "post_code": "SN15 1GG",
        "uprn": "10070778450"
    },
    {
        "org_id": "QVV",
        "name": "NHS DORSET INTEGRATED CARE BOARD",
        "primary_role_id": "RO261",
        "role_ids": [
            "RO261",
            "RO262",
            "RO318"
        ],
        "status": "Active",
        "post_code": "DT1 1TS",
        "uprn": "200000755338"
    },
    {
        "org_id": "QRL",
        "name": "NHS HAMPSHIRE AND ISLE OF WIGHT INTEGRATED CARE BOARD",
        "primary_role_id": "RO261",
        "role_ids": [
            "RO261",
            "RO262",
            "RO318"
        ],
        "status": "Active",
        "post_code": "SO16 6YD",
        "uprn": "100062509013"
    },
    {
        "org_id": "QR1",
        "name": "NHS GLOUCESTERSHIRE INTEGRATED CARE BOARD",
        "primary_role_id": "RO261",
        "role_ids": [
            "RO261",
            "RO262",
            "RO318"
        ],
        "status": "Active",
        "post_code": "GL3 4FE",
        "uprn": "10013764630"
    },
    {
        "org_id": "QU9",
        "name": "NHS BUCKINGHAMSHIRE, OXFORDSHIRE AND BERKSHIRE WEST INTEGRATED CARE BOARD",
        "primary_role_id": "RO261",
        "role_ids": [
            "RO261",
            "RO262",
            "RO318"
        ],
        "status": "Active",
        "post_code": "OX4 6LB",
        "uprn": "Unknown"
    },
    {
        "org_id": "QMF",
        "name": "NHS NORTH EAST LONDON INTEGRATED CARE BOARD",
        "primary_role_id": "RO261",
        "role_ids": [
            "RO261",
            "RO262",
            "RO318"
        ],
        "status": "Active",
        "post_code": "E15 1DA",
        "uprn": "Unknown"
    },
    {
        "org_id": "QTE",
        "name": "CENTRAL SUSSEX AND EAST SURREY COMMISSIONING ALLIANCE",
        "primary_role_id": "RO261",
        "role_ids": [
            "RO261"
        ],
        "status": "Active",
        "post_code": "BN3 4AH",
        "uprn": "22215690"
    },
    {
        "org_id": "QHM",
        "name": "NHS NORTH EAST AND NORTH CUMBRIA INTEGRATED CARE BOARD",
        "primary_role_id": "RO261",
        "role_ids": [
            "RO261",
            "RO262",
            "RO318"
        ],
        "status": "Active",
        "post_code": "SR5 3XB",
        "uprn": "45127178"
    },
    {
        "org_id": "QF1",
        "name": "NHS JOINT WORKING",
        "primary_role_id": "RO261",
        "role_ids": [
            "RO261"
        ],
        "status": "Active",
        "post_code": "SE1 6LH",
        "uprn": "200003372428"
    },
    {
        "org_id": "QF2",
        "name": "HEALTH AND SAFETY INVESTIGATION BRANCH",
        "primary_role_id": "RO261",
        "role_ids": [
            "RO261"
        ],
        "status": "Active",
        "post_code": "GU14 0LZ",
        "uprn": "Unknown"
    },
    {
        "org_id": "QBA",
        "name": "SUSSEX NHS COMMISSIONERS",
        "primary_role_id": "RO261",
        "role_ids": [
            "RO261"
        ],
        "status": "Active",
        "post_code": "BN3 4AH",
        "uprn": "22215690"
    },
    {
        "org_id": "QYH",
        "name": "ASSURANCE SURREY HEARTLANDS",
        "primary_role_id": "RO261",
        "role_ids": [
            "RO261"
        ],
        "status": "Active",
        "post_code": "KT13 8DP",
        "uprn": "100062360159"
    },
    {
        "org_id": "QS9",
        "name": "THAMES VALLEY SURREY",
        "primary_role_id": "RO261",
        "role_ids": [
            "RO261",
            "RO274"
        ],
        "status": "Active",
        "post_code": "GU16 7UJ",
        "uprn": "Unknown"
    },
    {
        "org_id": "QPH",
        "name": "GM DIGITAL PLATFORM",
        "primary_role_id": "RO261",
        "role_ids": [
            "RO261",
            "RO274"
        ],
        "status": "Active",
        "post_code": "M6 8HD",
        "uprn": "Unknown"
    },
    {
        "org_id": "QRA",
        "name": "YORKSHIRE AND HUMBER CARE RECORD",
        "primary_role_id": "RO261",
        "role_ids": [
            "RO261",
            "RO274"
        ],
        "status": "Active",
        "post_code": "HU10 6ED",
        "uprn": "200000641045"
    },
    {
        "org_id": "QQB",
        "name": "WEL COMMISSIONERS",
        "primary_role_id": "RO261",
        "role_ids": [
            "RO261"
        ],
        "status": "Active",
        "post_code": "E1 4DG",
        "uprn": "6033653"
    },
    {
        "org_id": "QWX",
        "name": "GREAT NORTH CARE RECORD",
        "primary_role_id": "RO261",
        "role_ids": [
            "RO261",
            "RO274"
        ],
        "status": "Active",
        "post_code": "NE3 3HD",
        "uprn": "4510728523"
    },
    {
        "org_id": "G1U9X",
        "name": "NORTH WEST LONDON SMHPC (CYPMHS TIER 4)",
        "primary_role_id": "RO261",
        "role_ids": [
            "RO261",
            "RO275"
        ],
        "status": "Active",
        "post_code": "UB2 4SD",
        "uprn": "12152819"
    },
    {
        "org_id": "L4H0W",
        "name": "SOUTH LONDON PARTNERSHIP SMHPC (ADULT SECURE)",
        "primary_role_id": "RO261",
        "role_ids": [
            "RO261",
            "RO277"
        ],
        "status": "Active",
        "post_code": "DA2 7WG",
        "uprn": "200000533036"
    },
    {
        "org_id": "I4B8X",
        "name": "THAMES VALLEY AND WESSEX SMHPC (ADULT SECURE)",
        "primary_role_id": "RO261",
        "role_ids": [
            "RO261",
            "RO277"
        ],
        "status": "Active",
        "post_code": "OX3 7JX",
        "uprn": "100121297786"
    },
    {
        "org_id": "O1N4A",
        "name": "SOUTH WEST SMHPC (ADULT SECURE)",
        "primary_role_id": "RO261",
        "role_ids": [
            "RO261",
            "RO277"
        ],
        "status": "Active",
        "post_code": "EX2 5AF",
        "uprn": "100041044624"
    },
    {
        "org_id": "X6C7V",
        "name": "SOUTH LONDON PARTNERSHIP SMHPC (CYPMHS TIER 4)",
        "primary_role_id": "RO261",
        "role_ids": [
            "RO261",
            "RO275"
        ],
        "status": "Active",
        "post_code": "BR3 3BX",
        "uprn": "Unknown"
    },
    {
        "org_id": "L5H9Q",
        "name": "CONNECT - WEST YORKSHIRE SMHPC (ADULT EATING DISORDERS)",
        "primary_role_id": "RO261",
        "role_ids": [
            "RO261",
            "RO276"
        ],
        "status": "Active",
        "post_code": "LS15 8ZB",
        "uprn": "Unknown"
    },
    {
        "org_id": "E2S1E",
        "name": "PROSPECT- CHESHIRE AND MERSEYSIDE SMHPC (ADULT SECURE)",
        "primary_role_id": "RO261",
        "role_ids": [
            "RO261",
            "RO277"
        ],
        "status": "Active",
        "post_code": "L34 1PJ",
        "uprn": "10091806420"
    },
    {
        "org_id": "P9W2J",
        "name": "NORTH LONDON FORENSIC CONSORTIUM SMHPC (ADULT SECURE)",
        "primary_role_id": "RO261",
        "role_ids": [
            "RO261",
            "RO277"
        ],
        "status": "Active",
        "post_code": "N15 3TH",
        "uprn": "100023151098"
    },
    {
        "org_id": "H3F5A",
        "name": "KENT, SUSSEX AND SURREY SMHPC (ADULT SECURE)",
        "primary_role_id": "RO261",
        "role_ids": [
            "RO261",
            "RO277"
        ],
        "status": "Active",
        "post_code": "BN13 3EP",
        "uprn": "200004018207"
    },
    {
        "org_id": "M4X2K",
        "name": "THAMES VALLEY, NORTH EAST SOMERSET, WILTSHIRE, SWINDON AND GLOUCESTERSHIRE SMHPC (CYPMHS TIER 4)",
        "primary_role_id": "RO261",
        "role_ids": [
            "RO261",
            "RO275"
        ],
        "status": "Active",
        "post_code": "OX3 7JX",
        "uprn": "100121297786"
    },
    {
        "org_id": "X4L0A",
        "name": "DORSET AND WESSEX (CYPMHS TIER 4)",
        "primary_role_id": "RO261",
        "role_ids": [
            "RO261",
            "RO275"
        ],
        "status": "Active",
        "post_code": "BN13 3EP",
        "uprn": "200004018207"
    },
    {
        "org_id": "D4U5V",
        "name": "SOUTH LONDON PARTNERSHIP SMHPC (ADULT EATING DISORDERS)",
        "primary_role_id": "RO261",
        "role_ids": [
            "RO261",
            "RO276"
        ],
        "status": "Active",
        "post_code": "BR3 3BX",
        "uprn": "Unknown"
    },
    {
        "org_id": "B5S8O",
        "name": "NORTH CENTRAL AND EAST LONDON SMHPC (CYPMHS TIER 4)",
        "primary_role_id": "RO261",
        "role_ids": [
            "RO261",
            "RO275"
        ],
        "status": "Active",
        "post_code": "E1 8DE",
        "uprn": "Unknown"
    },
    {
        "org_id": "Z4P6N",
        "name": "NORTH LONDON SMHPC (ADULT EATING DISORDERS)",
        "primary_role_id": "RO261",
        "role_ids": [
            "RO261",
            "RO276"
        ],
        "status": "Active",
        "post_code": "NW1 3AX",
        "uprn": "Unknown"
    },
    {
        "org_id": "I3Q3V",
        "name": "IMPACT - EAST MIDLANDS SMHPC (ADULT SECURE)",
        "primary_role_id": "RO261",
        "role_ids": [
            "RO261",
            "RO277"
        ],
        "status": "Active",
        "post_code": "NG3 6AA",
        "uprn": "100032118213"
    },
    {
        "org_id": "X4I1M",
        "name": "REACH OUT - WEST MIDLANDS SMHPC (ADULT SECURE)",
        "primary_role_id": "RO261",
        "role_ids": [
            "RO261",
            "RO277"
        ],
        "status": "Active",
        "post_code": "B1 3RB",
        "uprn": "10090434483"
    },
    {
        "org_id": "D8D1G",
        "name": "WEST MIDLANDS SMHPC (CYPMHS TIER 4)",
        "primary_role_id": "RO261",
        "role_ids": [
            "RO261",
            "RO275"
        ],
        "status": "Active",
        "post_code": "B4 6NH",
        "uprn": "100071462054"
    },
    {
        "org_id": "B9Q0L",
        "name": "WEST MIDLANDS SMHPC (ADULT EATING DISORDERS)",
        "primary_role_id": "RO261",
        "role_ids": [
            "RO261",
            "RO276"
        ],
        "status": "Active",
        "post_code": "ST16 3AG",
        "uprn": "200001322617"
    },
    {
        "org_id": "N9S3D",
        "name": "EAST MIDLANDS SMHPC (CYPMHS TIER 4)",
        "primary_role_id": "RO261",
        "role_ids": [
            "RO261",
            "RO275"
        ],
        "status": "Active",
        "post_code": "NN15 7PW",
        "uprn": "100032143826"
    },
    {
        "org_id": "Z0X9Q",
        "name": "EAST MIDLANDS SMHPC (ADULT EATING DISORDERS)",
        "primary_role_id": "RO261",
        "role_ids": [
            "RO261",
            "RO276"
        ],
        "status": "Active",
        "post_code": "LE4 8PQ",
        "uprn": "Unknown"
    },
    {
        "org_id": "I2T5F",
        "name": "EAST OF ENGLAND SMHPC (ADULT SECURE)",
        "primary_role_id": "RO261",
        "role_ids": [
            "RO261",
            "RO277"
        ],
        "status": "Active",
        "post_code": "SS11 7XX",
        "uprn": "200004638510"
    },
    {
        "org_id": "K4Z4O",
        "name": "EAST OF ENGLAND SMHPC (CYPMHS TIER 4)",
        "primary_role_id": "RO261",
        "role_ids": [
            "RO261",
            "RO275"
        ],
        "status": "Active",
        "post_code": "AL10 8YE",
        "uprn": "10007553984"
    },
    {
        "org_id": "O6H3T",
        "name": "EAST OF ENGLAND SMHPC (ADULT EATING DISORDERS)",
        "primary_role_id": "RO261",
        "role_ids": [
            "RO261",
            "RO276"
        ],
        "status": "Active",
        "post_code": "CB21 5EF",
        "uprn": "100091410393"
    },
    {
        "org_id": "Z1U2L",
        "name": "WEST YORKSHIRE SMHPC (ADULT SECURE)",
        "primary_role_id": "RO261",
        "role_ids": [
            "RO261",
            "RO277"
        ],
        "status": "Active",
        "post_code": "WF1 3SP",
        "uprn": "63154433"
    },
    {
        "org_id": "S6Z6H",
        "name": "WEST YORKSHIRE SMHPC (CYPMHS TIER 4)",
        "primary_role_id": "RO261",
        "role_ids": [
            "RO261",
            "RO275"
        ],
        "status": "Active",
        "post_code": "LS15 8ZB",
        "uprn": "Unknown"
    },
    {
        "org_id": "S7T0C",
        "name": "SOUTH YORKSHIRE SMHPC (ADULT SECURE)",
        "primary_role_id": "RO261",
        "role_ids": [
            "RO261",
            "RO277"
        ],
        "status": "Active",
        "post_code": "S10 3TH",
        "uprn": "100052082032"
    },
    {
        "org_id": "K5B5Y",
        "name": "SOUTH YORKSHIRE SMHPC (CYPMHS TIER 4)",
        "primary_role_id": "RO261",
        "role_ids": [
            "RO261",
            "RO275"
        ],
        "status": "Active",
        "post_code": "S10 2TH",
        "uprn": "100052218098"
    },
    {
        "org_id": "X8H3R",
        "name": "SOUTH YORKSHIRE SMHPC (ADULT EATING DISORDERS)",
        "primary_role_id": "RO261",
        "role_ids": [
            "RO261",
            "RO276"
        ],
        "status": "Active",
        "post_code": "DN4 8QN",
        "uprn": "10006709715"
    },
    {
        "org_id": "P7L6U",
        "name": "HUMBER SMHPC (ADULT SECURE)",
        "primary_role_id": "RO261",
        "role_ids": [
            "RO261",
            "RO277"
        ],
        "status": "Active",
        "post_code": "HU10 6ED",
        "uprn": "200000641045"
    },
    {
        "org_id": "C9Z7X",
        "name": "HUMBER SMHPC (CYPMHS TIER 4)",
        "primary_role_id": "RO261",
        "role_ids": [
            "RO261",
            "RO275"
        ],
        "status": "Active",
        "post_code": "HU10 6ED",
        "uprn": "200000641045"
    },
    {
        "org_id": "N8S0C",
        "name": "HUMBER SMHPC (ADULT EATING DISORDERS)",
        "primary_role_id": "RO261",
        "role_ids": [
            "RO261",
            "RO276"
        ],
        "status": "Active",
        "post_code": "HU10 6ED",
        "uprn": "200000641045"
    },
    {
        "org_id": "F9H5S",
        "name": "NORTH EAST AND CUMBRIA SPECIALIST SERVICES PARTNERSHIP SMHPC (CYPMHS TIER 4)",
        "primary_role_id": "RO261",
        "role_ids": [
            "RO261",
            "RO275"
        ],
        "status": "Active",
        "post_code": "NE3 3XT",
        "uprn": "4510059403"
    },
    {
        "org_id": "Q7O8U",
        "name": "NORTH EAST AND CUMBRIA SPECIALIST SERVICES PARTNERSHIP SMHPC (ADULT EATING DISORDERS)",
        "primary_role_id": "RO261",
        "role_ids": [
            "RO261",
            "RO276"
        ],
        "status": "Active",
        "post_code": "NE3 3XT",
        "uprn": "4510059403"
    },
    {
        "org_id": "F3I2L",
        "name": "NORTH EAST & CUMBRIA MENTAL HEALTH, LEARNING DISABILITY & AUTISM PARTNERSHIP SMHPC (ADULT SECURE)",
        "primary_role_id": "RO261",
        "role_ids": [
            "RO261",
            "RO277"
        ],
        "status": "Active",
        "post_code": "DL2 2TS",
        "uprn": "10003082063"
    },
    {
        "org_id": "A8R9E",
        "name": "CHESHIRE AND MERSEYSIDE SMHPC (CYPMHS TIER 4)",
        "primary_role_id": "RO261",
        "role_ids": [
            "RO261",
            "RO275"
        ],
        "status": "Active",
        "post_code": "CH2 1BQ",
        "uprn": "10012220485"
    },
    {
        "org_id": "I0H0N",
        "name": "GREATER MANCHESTER SMHPC (ADULT SECURE)",
        "primary_role_id": "RO261",
        "role_ids": [
            "RO261",
            "RO277"
        ],
        "status": "Active",
        "post_code": "M25 3BL",
        "uprn": "100012689272"
    },
    {
        "org_id": "S5L0S",
        "name": "GREATER MANCHESTER SMHPC (CYPMHS TIER 4)",
        "primary_role_id": "RO261",
        "role_ids": [
            "RO261",
            "RO275"
        ],
        "status": "Active",
        "post_code": "OL6 7SR",
        "uprn": "10091824335"
    },
    {
        "org_id": "O5V1Z",
        "name": "LANCASHIRE AND SOUTH CUMBRIA SMHPC (ADULT SECURE)",
        "primary_role_id": "RO261",
        "role_ids": [
            "RO261",
            "RO277"
        ],
        "status": "Active",
        "post_code": "PR5 6AW",
        "uprn": "10013247881"
    },
    {
        "org_id": "N5T4E",
        "name": "LANCASHIRE AND SOUTH CUMBRIA SMHPC (CYPMHS TIER 4)",
        "primary_role_id": "RO261",
        "role_ids": [
            "RO261",
            "RO275"
        ],
        "status": "Active",
        "post_code": "PR5 6AW",
        "uprn": "10013247881"
    },
    {
        "org_id": "J3T7D",
        "name": "NORTH WEST SMHPC (ADULT EATING DISORDERS)",
        "primary_role_id": "RO261",
        "role_ids": [
            "RO261",
            "RO276"
        ],
        "status": "Active",
        "post_code": "CH2 1BQ",
        "uprn": "10012220485"
    },
    {
        "org_id": "Z0B3G",
        "name": "SOUTH WEST SMHPC (CYPMHS TIER 4)",
        "primary_role_id": "RO261",
        "role_ids": [
            "RO261",
            "RO275"
        ],
        "status": "Active",
        "post_code": "EX2 5AF",
        "uprn": "100041044624"
    },
    {
        "org_id": "W6B3O",
        "name": "SOUTH WEST SMHPC (ADULT EATING DISORDERS)",
        "primary_role_id": "RO261",
        "role_ids": [
            "RO261",
            "RO276"
        ],
        "status": "Active",
        "post_code": "EX2 5AF",
        "uprn": "100041044624"
    },
    {
        "org_id": "R7G8O",
        "name": "KENT AND SUSSEX SMHPC (ADULT EATING DISORDERS)",
        "primary_role_id": "RO261",
        "role_ids": [
            "RO261",
            "RO276"
        ],
        "status": "Active",
        "post_code": "BN13 3EP",
        "uprn": "200004018207"
    },
    {
        "org_id": "C8S2X",
        "name": "HOPE - THAMES VALLEY AND WESSEX SMHPC (ADULT EATING DISORDERS)",
        "primary_role_id": "RO261",
        "role_ids": [
            "RO261",
            "RO276"
        ],
        "status": "Active",
        "post_code": "OX3 7JX",
        "uprn": "100121297786"
    },
    {
        "org_id": "A3Y0R",
        "name": "DORSET, HAMPSHIRE AND ISLE OF WIGHT SMHPC (ADULT EATING DISORDERS)",
        "primary_role_id": "RO261",
        "role_ids": [
            "RO261",
            "RO276"
        ],
        "status": "Active",
        "post_code": "BH17 0RB",
        "uprn": "100041056290"
    },
    {
        "org_id": "N5E8H",
        "name": "SURREY HEARTLANDS - SOUTH EAST SMHPC (CYPMHS TIER 4)",
        "primary_role_id": "RO261",
        "role_ids": [
            "RO261",
            "RO275"
        ],
        "status": "Active",
        "post_code": "KT22 7AD",
        "uprn": "100062604307"
    },
    {
        "org_id": "B0N9F",
        "name": "HAMPSHIRE, SUSSEX AND KENT SMHPC (CYPMHS TIER 4).",
        "primary_role_id": "RO261",
        "role_ids": [
            "RO261",
            "RO275"
        ],
        "status": "Active",
        "post_code": "BN13 3EP",
        "uprn": "200004018207"
    },
    {
        "org_id": "V8A1W",
        "name": "SURREY HEARTLANDS SMHPC (ADULT EATING DISORDERS)",
        "primary_role_id": "RO261",
        "role_ids": [
            "RO261",
            "RO276"
        ],
        "status": "Active",
        "post_code": "KT22 7AD",
        "uprn": "100062604307"
    },
    {
        "org_id": "A9M1K",
        "name": "CHESHIRE AND MERSEYSIDE SMHPC (PERINATAL MH)",
        "primary_role_id": "RO261",
        "role_ids": [
            "RO261",
            "RO324"
        ],
        "status": "Active",
        "post_code": "CH2 1BQ",
        "uprn": "10012220485"
    },
    {
        "org_id": "I2E2B",
        "name": "EAST MIDLANDS SMHPC (PERINATAL MH)",
        "primary_role_id": "RO261",
        "role_ids": [
            "RO261",
            "RO324"
        ],
        "status": "Active",
        "post_code": "DE22 3LZ",
        "uprn": "100032007023"
    },
    {
        "org_id": "Y8M9K",
        "name": "EAST OF ENGLAND SMHPC (PERINATAL MH)",
        "primary_role_id": "RO261",
        "role_ids": [
            "RO261",
            "RO324"
        ],
        "status": "Active",
        "post_code": "AL10 8YE",
        "uprn": "10007553984"
    },
    {
        "org_id": "M0J4Y",
        "name": "GREATER MANCHESTER SMHPC (PERINATAL MH)",
        "primary_role_id": "RO261",
        "role_ids": [
            "RO261",
            "RO324"
        ],
        "status": "Active",
        "post_code": "M25 3BL",
        "uprn": "100012689272"
    },
    {
        "org_id": "H4H9E",
        "name": "LANCASHIRE AND SOUTH CUMBRIA SMHPC (PERINATAL MH)",
        "primary_role_id": "RO261",
        "role_ids": [
            "RO261",
            "RO324"
        ],
        "status": "Active",
        "post_code": "PR5 6AW",
        "uprn": "10013247881"
    },
    {
        "org_id": "S0R1W",
        "name": "NORTH CENTRAL AND EAST LONDON SMHPC (PERINATAL MH)",
        "primary_role_id": "RO261",
        "role_ids": [
            "RO261",
            "RO324"
        ],
        "status": "Active",
        "post_code": "E1 8DE",
        "uprn": "Unknown"
    },
    {
        "org_id": "E2E4T",
        "name": "NORTH EAST AND NORTH CUMBRIA SMHPC (PERINATAL MH)",
        "primary_role_id": "RO261",
        "role_ids": [
            "RO261",
            "RO324"
        ],
        "status": "Active",
        "post_code": "NE3 3XT",
        "uprn": "Unknown"
    },
    {
        "org_id": "S3A4C",
        "name": "NORTH WEST LONDON SMHPC (PERINATAL MH)",
        "primary_role_id": "RO261",
        "role_ids": [
            "RO261",
            "RO324"
        ],
        "status": "Active",
        "post_code": "NW1 3AX",
        "uprn": "5192658"
    },
    {
        "org_id": "I3N3Q",
        "name": "SOUTH LONDON PARTNERSHIP SMHPC (PERINATAL MH)",
        "primary_role_id": "RO261",
        "role_ids": [
            "RO261",
            "RO324"
        ],
        "status": "Active",
        "post_code": "BR3 3BX",
        "uprn": "Unknown"
    },
    {
        "org_id": "F5F5R",
        "name": "SOUTH EAST SMHPC (PERINATAL MH)",
        "primary_role_id": "RO261",
        "role_ids": [
            "RO261",
            "RO324"
        ],
        "status": "Active",
        "post_code": "ME16 9PH",
        "uprn": "Unknown"
    },
    {
        "org_id": "J5V7C",
        "name": "SOUTH WEST SMHPC (PERINATAL MH)",
        "primary_role_id": "RO261",
        "role_ids": [
            "RO261",
            "RO324"
        ],
        "status": "Active",
        "post_code": "EX2 5AF",
        "uprn": "100041044624"
    },
    {
        "org_id": "A2L1D",
        "name": "WEST MIDLANDS SMHPC (PERINATAL MH)",
        "primary_role_id": "RO261",
        "role_ids": [
            "RO261",
            "RO324"
        ],
        "status": "Active",
        "post_code": "ST16 3SR",
        "uprn": "Unknown"
    },
    {
        "org_id": "O7Q5S",
        "name": "YORKSHIRE AND HUMBER SMHPC (PERINATAL MH)",
        "primary_role_id": "RO261",
        "role_ids": [
            "RO261",
            "RO324"
        ],
        "status": "Active",
        "post_code": "LS7 3JX",
        "uprn": "72194548"
    }
]