[
    {
        "org_id": "E",
        "name": "EAST MIDLANDS GOVERNMENT OFFICE REGION",
        "primary_role_id": "RO128",
        "role_ids": [
            "RO128"
        ],
        "status": "Active",
        "post_code": "NG1 5GG",
        "uprn": "Unknown"
    },
    {
        "org_id": "G",
        "name": "EAST OF ENGLAND GOVERNMENT OFFICE REGION",
        "primary_role_id": "RO128",
        "role_ids": [
            "RO128"
        ],
        "status": "Active",
        "post_code": "CB4 1YG",
        "uprn": "Unknown"
    },
    {
        "org_id": "J",
        "name": "SOUTH EAST GOVERNMENT OFFICE REGION",
        "primary_role_id": "RO128",
        "role_ids": [
            "RO128"
        ],
        "status": "Active",
        "post_code": "GU1 4GA",
        "uprn": "Unknown"
    },
    {
        "org_id": "F",
        "name": "WEST MIDLANDS GOVERNMENT OFFICE REGION",
        "primary_role_id": "RO128",
        "role_ids": [
            "RO128"
        ],
        "status": "Active",
        "post_code": "B1 2DT",
        "uprn": "Unknown"
    },
    {
        "org_id": "H",
        "name": "LONDON GOVERNMENT OFFICE REGION",
        "primary_role_id": "RO128",
        "role_ids": [
            "RO128"
        ],
        "status": "Active",
        "post_code": "SW1P 4RR",
        "uprn": "Unknown"
    },
    {
        "org_id": "D",
        "name": "YORKSHIRE & THE HUMBER GOVERNMENT OFFICE REGION",
        "primary_role_id": "RO128",
        "role_ids": [
            "RO128"
        ],
        "status": "Active",
        "post_code": "LS1 4JB",
        "uprn": "Unknown"
    },
    {
        "org_id": "B",
        "name": "NORTH WEST GOVERNMENT OFFICE REGION",
        "primary_role_id": "RO128",
        "role_ids": [
            "RO128"
        ],
        "status": "Active",
        "post_code": "M1 4BE",
        "uprn": "Unknown"
    },
    {
        "org_id": "A",
        "name": "NORTH EAST GOVERNMENT OFFICE REGION",
        "primary_role_id": "RO128",
        "role_ids": [
            "RO128"
        ],
        "status": "Active",
        "post_code": "NE1 4HW",
        "uprn": "Unknown"
    },
    {
        "org_id": "K",
        "name": "SOUTH WEST GOVERNMENT OFFICE REGION",
        "primary_role_id": "RO128",
        "role_ids": [
            "RO128"
        ],
        "status": "Active",
        "post_code": "BS1 2ND",
        "uprn": "Unknown"
    },
    {
        "org_id": "W",
        "name": "WALES GOVERNMENT OFFICE REGION",
        "primary_role_id": "RO128",
        "role_ids": [
            "RO128"
        ],
        "status": "Active",
        "post_code": "CF24 0HA",
        "uprn": "Unknown"
    }
]