[
    {
        "org_id": "VA8",
        "name": "DEVON & CORNWALL CONSTABULARY POLICE HEADQUARTERS",
        "primary_role_id": "RO233",
        "role_ids": [
            "RO233"
        ],
        "status": "Active",
        "post_code": "EX2 7HQ",
        "uprn": "Unknown"
    },
    {
        "org_id": "VER",
        "name": "BRITISH TRANSPORT POLICE B DIVISION",
        "primary_role_id": "RO233",
        "role_ids": [
            "RO233"
        ],
        "status": "Active",
        "post_code": "NW1 9LN",
        "uprn": "5086651"
    },
    {
        "org_id": "WQA",
        "name": "BRITISH TRANSPORT POLICE C DIVISION",
        "primary_role_id": "RO233",
        "role_ids": [
            "RO233"
        ],
        "status": "Active",
        "post_code": "M1 3BE",
        "uprn": "10023061113"
    },
    {
        "org_id": "VA0",
        "name": "AVON & SOMERSET CONSTABULARY POLICE HEADQUARTERS",
        "primary_role_id": "RO233",
        "role_ids": [
            "RO233"
        ],
        "status": "Active",
        "post_code": "BS20 8QJ",
        "uprn": "Unknown"
    },
    {
        "org_id": "VA1",
        "name": "BEDFORDSHIRE CONSTABULARY POLICE HEADQUARTERS",
        "primary_role_id": "RO233",
        "role_ids": [
            "RO233"
        ],
        "status": "Active",
        "post_code": "MK43 9AX",
        "uprn": "10033178751"
    },
    {
        "org_id": "VA2",
        "name": "CAMBRIDGESHIRE CONSTABULARY POLICE HEADQUARTERS",
        "primary_role_id": "RO233",
        "role_ids": [
            "RO233"
        ],
        "status": "Active",
        "post_code": "PE29 6NP",
        "uprn": "Unknown"
    },
    {
        "org_id": "VA3",
        "name": "CHESHIRE CONSTABULARY POLICE HEADQUARTERS",
        "primary_role_id": "RO233",
        "role_ids": [
            "RO233"
        ],
        "status": "Active",
        "post_code": "CW7 2UA",
        "uprn": "10011717900"
    },
    {
        "org_id": "VA4",
        "name": "CITY OF LONDON CONSTABULARY POLICE HEADQUARTERS",
        "primary_role_id": "RO233",
        "role_ids": [
            "RO233"
        ],
        "status": "Active",
        "post_code": "EC2M 4NP",
        "uprn": "100022933684"
    },
    {
        "org_id": "VA5",
        "name": "CLEVELAND CONSTABULARY POLICE HEADQUARTERS",
        "primary_role_id": "RO233",
        "role_ids": [
            "RO233"
        ],
        "status": "Active",
        "post_code": "TS8 9GL",
        "uprn": "10093977711"
    },
    {
        "org_id": "VA6",
        "name": "CUMBRIA CONSTABULARY POLICE HEADQUARTERS",
        "primary_role_id": "RO233",
        "role_ids": [
            "RO233"
        ],
        "status": "Active",
        "post_code": "CA10 2AU",
        "uprn": "Unknown"
    },
    {
        "org_id": "VA7",
        "name": "DERBYSHIRE CONSTABULARY POLICE HEADQUARTERS",
        "primary_role_id": "RO233",
        "role_ids": [
            "RO233"
        ],
        "status": "Active",
        "post_code": "DE5 3RS",
        "uprn": "Unknown"
    },
    {
        "org_id": "VA9",
        "name": "DORSET CONSTABULARY POLICE HEADQUARTERS",
        "primary_role_id": "RO233",
        "role_ids": [
            "RO233"
        ],
        "status": "Active",
        "post_code": "DT2 8DZ",
        "uprn": "Unknown"
    },
    {
        "org_id": "VAA",
        "name": "DURHAM CONSTABULARY POLICE HEADQUARTERS",
        "primary_role_id": "RO233",
        "role_ids": [
            "RO233"
        ],
        "status": "Active",
        "post_code": "DH1 5TT",
        "uprn": "Unknown"
    },
    {
        "org_id": "VAC",
        "name": "GLOUCESTERSHIRE CONSTABULARY POLICE HEADQUARTERS",
        "primary_role_id": "RO233",
        "role_ids": [
            "RO233"
        ],
        "status": "Active",
        "post_code": "GL2 2AN",
        "uprn": "10007310864"
    },
    {
        "org_id": "VAD",
        "name": "GREATER MANCHESTER CONSTABULARY POLICE HEADQUARTERS",
        "primary_role_id": "RO233",
        "role_ids": [
            "RO233"
        ],
        "status": "Active",
        "post_code": "M40 5BP",
        "uprn": "Unknown"
    },
    {
        "org_id": "VAE",
        "name": "HAMPSHIRE CONSTABULARY POLICE HEADQUARTERS",
        "primary_role_id": "RO233",
        "role_ids": [
            "RO233"
        ],
        "status": "Active",
        "post_code": "SO23 8ZD",
        "uprn": "100062521063"
    },
    {
        "org_id": "VAF",
        "name": "HERTFORDSHIRE CONSTABULARY POLICE HEADQUARTERS",
        "primary_role_id": "RO233",
        "role_ids": [
            "RO233"
        ],
        "status": "Active",
        "post_code": "AL8 6XF",
        "uprn": "Unknown"
    },
    {
        "org_id": "VAH",
        "name": "HUMBERSIDE CONSTABULARY POLICE HEADQUARTERS",
        "primary_role_id": "RO233",
        "role_ids": [
            "RO233"
        ],
        "status": "Active",
        "post_code": "HU5 5SF",
        "uprn": "Unknown"
    },
    {
        "org_id": "VAJ",
        "name": "LANCASHIRE CONSTABULARY POLICE HEADQUARTERS",
        "primary_role_id": "RO233",
        "role_ids": [
            "RO233"
        ],
        "status": "Active",
        "post_code": "PR4 5SA",
        "uprn": "100012843504"
    },
    {
        "org_id": "VAK",
        "name": "LEICESTERSHIRE CONSTABULARY POLICE HEADQUARTERS",
        "primary_role_id": "RO233",
        "role_ids": [
            "RO233"
        ],
        "status": "Active",
        "post_code": "LE19 2BX",
        "uprn": "Unknown"
    },
    {
        "org_id": "VAL",
        "name": "LINCOLNSHIRE CONSTABULARY POLICE HEADQUARTERS",
        "primary_role_id": "RO233",
        "role_ids": [
            "RO233"
        ],
        "status": "Active",
        "post_code": "LN5 7PH",
        "uprn": "Unknown"
    },
    {
        "org_id": "VAM",
        "name": "MERSEYSIDE CONSTABULARY POLICE HEADQUARTERS",
        "primary_role_id": "RO233",
        "role_ids": [
            "RO233"
        ],
        "status": "Active",
        "post_code": "L3 3AN",
        "uprn": "38337563"
    },
    {
        "org_id": "VAN",
        "name": "NORFOLK CONSTABULARY POLICE HEADQUARTERS",
        "primary_role_id": "RO233",
        "role_ids": [
            "RO233"
        ],
        "status": "Active",
        "post_code": "NR18 0WW",
        "uprn": "Unknown"
    },
    {
        "org_id": "VAP",
        "name": "NORTH YORKSHIRE CONSTABULARY POLICE HEADQUARTERS",
        "primary_role_id": "RO233",
        "role_ids": [
            "RO233"
        ],
        "status": "Active",
        "post_code": "DL6 1BF",
        "uprn": "100052238429"
    },
    {
        "org_id": "VAQ",
        "name": "NORTHAMPTONSHIRE CONSTABULARY POLICE HEADQUARTERS",
        "primary_role_id": "RO233",
        "role_ids": [
            "RO233"
        ],
        "status": "Active",
        "post_code": "NN4 0JQ",
        "uprn": "Unknown"
    },
    {
        "org_id": "VAR",
        "name": "NORTHUMBRIA CONSTABULARY POLICE HEADQUARTERS",
        "primary_role_id": "RO233",
        "role_ids": [
            "RO233"
        ],
        "status": "Active",
        "post_code": "NE20 0BL",
        "uprn": "Unknown"
    },
    {
        "org_id": "VAT",
        "name": "SOUTH YORKSHIRE CONSTABULARY POLICE HEADQUARTERS",
        "primary_role_id": "RO233",
        "role_ids": [
            "RO233"
        ],
        "status": "Active",
        "post_code": "S9 2EH",
        "uprn": "100052119692"
    },
    {
        "org_id": "VAV",
        "name": "SUFFOLK CONSTABULARY POLICE HEADQUARTERS",
        "primary_role_id": "RO233",
        "role_ids": [
            "RO233"
        ],
        "status": "Active",
        "post_code": "IP5 3QS",
        "uprn": "10013604594"
    },
    {
        "org_id": "VAW",
        "name": "SURREY CONSTABULARY POLICE HEADQUARTERS",
        "primary_role_id": "RO233",
        "role_ids": [
            "RO233"
        ],
        "status": "Active",
        "post_code": "GU3 1HG",
        "uprn": "Unknown"
    },
    {
        "org_id": "VAX",
        "name": "SUSSEX CONSTABULARY POLICE HEADQUARTERS",
        "primary_role_id": "RO233",
        "role_ids": [
            "RO233"
        ],
        "status": "Active",
        "post_code": "BN7 2DZ",
        "uprn": "Unknown"
    },
    {
        "org_id": "VAY",
        "name": "THAMES VALLEY CONSTABULARY POLICE HEADQUARTERS",
        "primary_role_id": "RO233",
        "role_ids": [
            "RO233"
        ],
        "status": "Active",
        "post_code": "OX5 2NX",
        "uprn": "Unknown"
    },
    {
        "org_id": "WCM",
        "name": "ESSEX CONSTABULARY POLICE HEADQUARTERS",
        "primary_role_id": "RO233",
        "role_ids": [
            "RO233"
        ],
        "status": "Active",
        "post_code": "CM2 6DA",
        "uprn": "Unknown"
    },
    {
        "org_id": "VHH",
        "name": "KENT COUNTY CONSTABULARY POLICE HEADQUARTERS",
        "primary_role_id": "RO233",
        "role_ids": [
            "RO233"
        ],
        "status": "Active",
        "post_code": "ME15 9BZ",
        "uprn": "Unknown"
    },
    {
        "org_id": "VJ5",
        "name": "METROPOLITAN POLICE SERVICE HEADQUARTERS",
        "primary_role_id": "RO233",
        "role_ids": [
            "RO233"
        ],
        "status": "Active",
        "post_code": "SW1A 2JL",
        "uprn": "100023336983"
    },
    {
        "org_id": "WQT",
        "name": "NOTTINGHAMSHIRE CONSTABULARY POLICE HEADQUARTERS",
        "primary_role_id": "RO233",
        "role_ids": [
            "RO233"
        ],
        "status": "Active",
        "post_code": "NG5 8PP",
        "uprn": "Unknown"
    },
    {
        "org_id": "WTG",
        "name": "STAFFORDSHIRE CONSTABULARY POLICE HEADQUARTERS",
        "primary_role_id": "RO233",
        "role_ids": [
            "RO233"
        ],
        "status": "Active",
        "post_code": "ST18 0YY",
        "uprn": "Unknown"
    },
    {
        "org_id": "WND",
        "name": "WARWICKSHIRE CONSTABULARY POLICE HEADQUARTERS",
        "primary_role_id": "RO233",
        "role_ids": [
            "RO233"
        ],
        "status": "Active",
        "post_code": "CV35 7QB",
        "uprn": "Unknown"
    },
    {
        "org_id": "WLX",
        "name": "WEST MERCIA CONSTABULARY POLICE HEADQUARTERS",
        "primary_role_id": "RO233",
        "role_ids": [
            "RO233"
        ],
        "status": "Active",
        "post_code": "WR3 8SP",
        "uprn": "10013944057"
    },
    {
        "org_id": "VPT",
        "name": "WEST MIDLANDS CONSTABULARY POLICE HEADQUARTERS",
        "primary_role_id": "RO233",
        "role_ids": [
            "RO233"
        ],
        "status": "Active",
        "post_code": "B4 6AT",
        "uprn": "100071411482"
    },
    {
        "org_id": "VDT",
        "name": "WEST YORKSHIRE CONSTABULARY POLICE HEADQUARTERS",
        "primary_role_id": "RO233",
        "role_ids": [
            "RO233"
        ],
        "status": "Active",
        "post_code": "WF1 3QS",
        "uprn": "63182276"
    },
    {
        "org_id": "VXW",
        "name": "WILTSHIRE CONSTABULARY POLICE HEADQUARTERS",
        "primary_role_id": "RO233",
        "role_ids": [
            "RO233"
        ],
        "status": "Active",
        "post_code": "SN10 2DN",
        "uprn": "Unknown"
    },
    {
        "org_id": "WW5",
        "name": "DYFED-POWYS CONSTABULARY HEADQUARTERS",
        "primary_role_id": "RO233",
        "role_ids": [
            "RO233"
        ],
        "status": "Active",
        "post_code": "SA31 2PF",
        "uprn": "Unknown"
    },
    {
        "org_id": "VHL",
        "name": "GWENT CONSTABULARY HEADQUARTERS",
        "primary_role_id": "RO233",
        "role_ids": [
            "RO233"
        ],
        "status": "Active",
        "post_code": "NP44 3FW",
        "uprn": "10091513195"
    },
    {
        "org_id": "VK5",
        "name": "NORTH WALES CONSTABULARY HEADQUARTERS",
        "primary_role_id": "RO233",
        "role_ids": [
            "RO233"
        ],
        "status": "Active",
        "post_code": "LL29 8AW",
        "uprn": "Unknown"
    },
    {
        "org_id": "VX2",
        "name": "SOUTH WALES CONSTABULARY HEADQUARTERS",
        "primary_role_id": "RO233",
        "role_ids": [
            "RO233"
        ],
        "status": "Active",
        "post_code": "CF31 3SU",
        "uprn": "Unknown"
    },
    {
        "org_id": "WFH",
        "name": "MIDDLESBROUGH POLICE HEADQUARTERS",
        "primary_role_id": "RO233",
        "role_ids": [
            "RO233"
        ],
        "status": "Active",
        "post_code": "TS2 1AB",
        "uprn": "Unknown"
    }
]