[
    {
        "org_id": "623AC",
        "name": "CAMBRIDGE COUNTY COUNCIL PUBLIC HEALTH TEAM",
        "primary_role_id": "RO222",
        "role_ids": [
            "RO222"
        ],
        "status": "Active",
        "post_code": "CB3 0AP",
        "uprn": "Unknown"
    },
    {
        "org_id": "212AA",
        "name": "LEEDS CITY COUNCIL CHILD SERVICES",
        "primary_role_id": "RO222",
        "role_ids": [
            "RO222"
        ],
        "status": "Active",
        "post_code": "LS2 8BB",
        "uprn": "Unknown"
    },
    {
        "org_id": "908AC",
        "name": "BATH AND NORTH EAST SOMERSET COUNCIL PUBLIC HEALTH TEAM",
        "primary_role_id": "RO222",
        "role_ids": [
            "RO222"
        ],
        "status": "Active",
        "post_code": "BA2 5RP",
        "uprn": "Unknown"
    },
    {
        "org_id": "206AC",
        "name": "ROTHERHAM METROPOLITAN BOROUGH COUNCIL",
        "primary_role_id": "RO222",
        "role_ids": [
            "RO222"
        ],
        "status": "Active",
        "post_code": "S60 1AE",
        "uprn": "Unknown"
    },
    {
        "org_id": "815AA",
        "name": "EAST SUSSEX COUNCIL PUBLIC HEALTH",
        "primary_role_id": "RO222",
        "role_ids": [
            "RO222"
        ],
        "status": "Active",
        "post_code": "BN7 1UE",
        "uprn": "Unknown"
    },
    {
        "org_id": "108AA",
        "name": "NORTH TYNESIDE SOCIAL SERVICES DIRECTORATE",
        "primary_role_id": "RO222",
        "role_ids": [
            "RO222"
        ],
        "status": "Active",
        "post_code": "NE27 0BY",
        "uprn": "Unknown"
    },
    {
        "org_id": "313AA",
        "name": "WIGAN SOCIAL SERVICES DIRECTORATE",
        "primary_role_id": "RO222",
        "role_ids": [
            "RO222"
        ],
        "status": "Active",
        "post_code": "WN1 1YN",
        "uprn": "Unknown"
    },
    {
        "org_id": "323AA",
        "name": "LANCASHIRE SOCIAL SERVICES DIRECTORATE",
        "primary_role_id": "RO222",
        "role_ids": [
            "RO222"
        ],
        "status": "Active",
        "post_code": "PR1 8XJ",
        "uprn": "Unknown"
    },
    {
        "org_id": "213AA",
        "name": "WAKEFIELD SOCIAL SERVICES DIRECTORATE",
        "primary_role_id": "RO222",
        "role_ids": [
            "RO222"
        ],
        "status": "Active",
        "post_code": "WF1 2QL",
        "uprn": "Unknown"
    },
    {
        "org_id": "411AA",
        "name": "WALSALL SOCIAL SERVICES DIRECTORATE",
        "primary_role_id": "RO222",
        "role_ids": [
            "RO222"
        ],
        "status": "Active",
        "post_code": "WS1 1TP",
        "uprn": "Unknown"
    },
    {
        "org_id": "702AA",
        "name": "CAMDEN SOCIAL SERVICES DIRECTORATE",
        "primary_role_id": "RO222",
        "role_ids": [
            "RO222"
        ],
        "status": "Active",
        "post_code": "WC1H 9JE",
        "uprn": "Unknown"
    },
    {
        "org_id": "704AA",
        "name": "HACKNEY SOCIAL SERVICES DIRECTORATE",
        "primary_role_id": "RO222",
        "role_ids": [
            "RO222"
        ],
        "status": "Active",
        "post_code": "E8 1EA",
        "uprn": "Unknown"
    },
    {
        "org_id": "706AA",
        "name": "ISLINGTON SOCIAL SERVICES DIRECTORATE",
        "primary_role_id": "RO222",
        "role_ids": [
            "RO222"
        ],
        "status": "Active",
        "post_code": "N1 1XR",
        "uprn": "5300094897"
    },
    {
        "org_id": "711AA",
        "name": "TOWER HAMLETS SOCIAL SERVICES DIRECTORATE",
        "primary_role_id": "RO222",
        "role_ids": [
            "RO222"
        ],
        "status": "Active",
        "post_code": "E14 2BG",
        "uprn": "Unknown"
    },
    {
        "org_id": "723AA",
        "name": "ENFIELD SOCIAL SERVICES DIRECTORATE",
        "primary_role_id": "RO222",
        "role_ids": [
            "RO222"
        ],
        "status": "Active",
        "post_code": "EN1 3ES",
        "uprn": "Unknown"
    },
    {
        "org_id": "724AA",
        "name": "HARINGEY SOCIAL SERVICES DIRECTORATE",
        "primary_role_id": "RO222",
        "role_ids": [
            "RO222"
        ],
        "status": "Active",
        "post_code": "N22 8LE",
        "uprn": "Unknown"
    },
    {
        "org_id": "731AA",
        "name": "NEWHAM SOCIAL SERVICES DIRECTORATE",
        "primary_role_id": "RO222",
        "role_ids": [
            "RO222"
        ],
        "status": "Active",
        "post_code": "E6 2RP",
        "uprn": "Unknown"
    },
    {
        "org_id": "216AA",
        "name": "NORTH EAST LINCOLNSHIRE COUNCIL HR TEAM",
        "primary_role_id": "RO222",
        "role_ids": [
            "RO222"
        ],
        "status": "Active",
        "post_code": "DN31 1HU",
        "uprn": "11070357"
    },
    {
        "org_id": "204AA",
        "name": "BARNSLEY METROPOLITAN BOROUGH COUNCIL PUBLIC HEALTH",
        "primary_role_id": "RO222",
        "role_ids": [
            "RO222"
        ],
        "status": "Active",
        "post_code": "S70 2TA",
        "uprn": "Unknown"
    },
    {
        "org_id": "718AC",
        "name": "LONDON BOROUGH OF BEXLEY PUBLIC HEALTH TEAM",
        "primary_role_id": "RO222",
        "role_ids": [
            "RO222"
        ],
        "status": "Active",
        "post_code": "DA14 4AF",
        "uprn": "Unknown"
    },
    {
        "org_id": "809AA",
        "name": "DORSET COUNTY COUNCIL PUBLIC HEALTH",
        "primary_role_id": "RO222",
        "role_ids": [
            "RO222"
        ],
        "status": "Active",
        "post_code": "DT1 1TG",
        "uprn": "Unknown"
    },
    {
        "org_id": "406AA",
        "name": "BIRMINGHAM CITY COUNCIL PUBLIC HEALTH",
        "primary_role_id": "RO222",
        "role_ids": [
            "RO222"
        ],
        "status": "Active",
        "post_code": "B7 4BL",
        "uprn": "10090432728"
    },
    {
        "org_id": "116AD",
        "name": "DURHAM COUNTY COUNCIL PUBLIC HEALTH",
        "primary_role_id": "RO222",
        "role_ids": [
            "RO222"
        ],
        "status": "Active",
        "post_code": "DH1 5UG",
        "uprn": "Unknown"
    },
    {
        "org_id": "113AC",
        "name": "TEES VALLEY PUBLIC HEALTH SHARED SERVICES",
        "primary_role_id": "RO222",
        "role_ids": [
            "RO222"
        ],
        "status": "Active",
        "post_code": "TS17 6SG",
        "uprn": "Unknown"
    },
    {
        "org_id": "813AA",
        "name": "PORTSMOUTH CITY COUNCIL PUBLIC HEALTH",
        "primary_role_id": "RO222",
        "role_ids": [
            "RO222"
        ],
        "status": "Active",
        "post_code": "PO1 2EP",
        "uprn": "Unknown"
    },
    {
        "org_id": "416AA",
        "name": "WORCESTERSHIRE COUNTY COUNCIL PUBLIC HEALTH TEAM",
        "primary_role_id": "RO222",
        "role_ids": [
            "RO222"
        ],
        "status": "Active",
        "post_code": "WR5 2NP",
        "uprn": "100121275521"
    },
    {
        "org_id": "322AA",
        "name": "PUBLIC HEALTH DEPARTMENT",
        "primary_role_id": "RO222",
        "role_ids": [
            "RO222"
        ],
        "status": "Active",
        "post_code": "WA1 2NH",
        "uprn": "Unknown"
    },
    {
        "org_id": "729AA",
        "name": "ADULT SOCIAL CARE - KINGSTON UPON THAMES",
        "primary_role_id": "RO222",
        "role_ids": [
            "RO222"
        ],
        "status": "Active",
        "post_code": "KT1 1EU",
        "uprn": "Unknown"
    },
    {
        "org_id": "319AA",
        "name": "WIRRAL METROPOLITAN BOROUGH COUNCIL - PUBLIC HEALTH",
        "primary_role_id": "RO222",
        "role_ids": [
            "RO222"
        ],
        "status": "Active",
        "post_code": "CH41 6BU",
        "uprn": "Unknown"
    },
    {
        "org_id": "117PH",
        "name": "PUBLIC HEALTH",
        "primary_role_id": "RO222",
        "role_ids": [
            "RO222"
        ],
        "status": "Active",
        "post_code": "DL1 5QT",
        "uprn": "Unknown"
    },
    {
        "org_id": "805AA",
        "name": "DATA CENTRE",
        "primary_role_id": "RO222",
        "role_ids": [
            "RO222"
        ],
        "status": "Active",
        "post_code": "RH1 5GJ",
        "uprn": "Unknown"
    },
    {
        "org_id": "819CH",
        "name": "SWINDON CHILD HEALTH",
        "primary_role_id": "RO222",
        "role_ids": [
            "RO222"
        ],
        "status": "Active",
        "post_code": "SN1 2JH",
        "uprn": "Unknown"
    },
    {
        "org_id": "323AC",
        "name": "LANCASHIRE SAFEGUARDING CHILDREN BOARD",
        "primary_role_id": "RO222",
        "role_ids": [
            "RO222"
        ],
        "status": "Active",
        "post_code": "PR1 3JT",
        "uprn": "Unknown"
    },
    {
        "org_id": "902AA",
        "name": "PUBLIC HEALTH",
        "primary_role_id": "RO222",
        "role_ids": [
            "RO222"
        ],
        "status": "Active",
        "post_code": "TR1 3AY",
        "uprn": "100041023531"
    },
    {
        "org_id": "216AC",
        "name": "PUBLIC HEALTH TEAM",
        "primary_role_id": "RO222",
        "role_ids": [
            "RO222"
        ],
        "status": "Active",
        "post_code": "DN32 7DJ",
        "uprn": "Unknown"
    },
    {
        "org_id": "216AD",
        "name": "CHILDRENS HEALTH PROVISION",
        "primary_role_id": "RO222",
        "role_ids": [
            "RO222"
        ],
        "status": "Active",
        "post_code": "DN32 7DJ",
        "uprn": "Unknown"
    },
    {
        "org_id": "506AA",
        "name": "PUBLIC HEALTH DERBYSHIRE COUNTY COUNCIL",
        "primary_role_id": "RO222",
        "role_ids": [
            "RO222"
        ],
        "status": "Active",
        "post_code": "DE4 3AG",
        "uprn": "10070103225"
    },
    {
        "org_id": "319CH",
        "name": "RIVERSIDE",
        "primary_role_id": "RO222",
        "role_ids": [
            "RO222"
        ],
        "status": "Active",
        "post_code": "CH62 3QX",
        "uprn": "Unknown"
    },
    {
        "org_id": "413AA",
        "name": "STAFFORDSHIRE COUNTY COUNCIL - PUBLIC HEALTH TEAM",
        "primary_role_id": "RO222",
        "role_ids": [
            "RO222"
        ],
        "status": "Active",
        "post_code": "ST16 2DH",
        "uprn": "Unknown"
    },
    {
        "org_id": "316AA",
        "name": "PUBLIC HEALTH LIVERPOOL CITY COUNCIL",
        "primary_role_id": "RO222",
        "role_ids": [
            "RO222"
        ],
        "status": "Active",
        "post_code": "L3 2AA",
        "uprn": "Unknown"
    },
    {
        "org_id": "608AA",
        "name": "OXFORDSHIRE COUNTY COUNCIL - COUNTY HALL",
        "primary_role_id": "RO222",
        "role_ids": [
            "RO222"
        ],
        "status": "Active",
        "post_code": "OX1 1ND",
        "uprn": "100121293944"
    },
    {
        "org_id": "608AC",
        "name": "OXFORDSHIRE COUNTY COUNCIL - JUBILEE HOUSE",
        "primary_role_id": "RO222",
        "role_ids": [
            "RO222"
        ],
        "status": "Active",
        "post_code": "OX4 2LH",
        "uprn": "200004675793"
    },
    {
        "org_id": "215AA",
        "name": "YPS SSM SERVICE (REFRESH)",
        "primary_role_id": "RO222",
        "role_ids": [
            "RO222"
        ],
        "status": "Active",
        "post_code": "HU1 3DT",
        "uprn": "21114789"
    },
    {
        "org_id": "315CP",
        "name": "INFORMATION TECHNOLOGIES SERVICE",
        "primary_role_id": "RO222",
        "role_ids": [
            "RO222"
        ],
        "status": "Active",
        "post_code": "L36 9GL",
        "uprn": "Unknown"
    },
    {
        "org_id": "611AA",
        "name": "LBC DATACENTRE",
        "primary_role_id": "RO222",
        "role_ids": [
            "RO222"
        ],
        "status": "Active",
        "post_code": "LU2 0QX",
        "uprn": "Unknown"
    },
    {
        "org_id": "209AA",
        "name": "PUBLIC HEALTH - CITY OF BRADFORD METROPOLITAN DISTRICT COUNCIL",
        "primary_role_id": "RO222",
        "role_ids": [
            "RO222"
        ],
        "status": "Active",
        "post_code": "BD1 1HX",
        "uprn": "Unknown"
    },
    {
        "org_id": "307AA",
        "name": "UNITY ICT DATA CENTRE",
        "primary_role_id": "RO222",
        "role_ids": [
            "RO222"
        ],
        "status": "Active",
        "post_code": "OL1 1UT",
        "uprn": "Unknown"
    },
    {
        "org_id": "904AA",
        "name": "MDS SPRING PARK SITE",
        "primary_role_id": "RO222",
        "role_ids": [
            "RO222"
        ],
        "status": "Active",
        "post_code": "SN13 9GB",
        "uprn": "Unknown"
    },
    {
        "org_id": "418AA",
        "name": "DARBY HOUSE",
        "primary_role_id": "RO222",
        "role_ids": [
            "RO222"
        ],
        "status": "Active",
        "post_code": "TF3 4JA",
        "uprn": "Unknown"
    },
    {
        "org_id": "102AA",
        "name": "CUMBRIA COUNTY COUNCIL HQ",
        "primary_role_id": "RO222",
        "role_ids": [
            "RO222"
        ],
        "status": "Active",
        "post_code": "CA3 8NA",
        "uprn": "Unknown"
    },
    {
        "org_id": "102AC",
        "name": "CUMBRIA COUNTY COUNCIL DATA CENTRE",
        "primary_role_id": "RO222",
        "role_ids": [
            "RO222"
        ],
        "status": "Active",
        "post_code": "CA1 1RZ",
        "uprn": "Unknown"
    },
    {
        "org_id": "102AD",
        "name": "CUMBRIA FIRE & RESCUE SERVICE HEADQUARTERS",
        "primary_role_id": "RO222",
        "role_ids": [
            "RO222"
        ],
        "status": "Active",
        "post_code": "CA10 2FA",
        "uprn": "Unknown"
    },
    {
        "org_id": "376AA",
        "name": "WORTHING WELLBEING",
        "primary_role_id": "RO222",
        "role_ids": [
            "RO222"
        ],
        "status": "Active",
        "post_code": "BN11 1HS",
        "uprn": "Unknown"
    },
    {
        "org_id": "105AA",
        "name": "ADUR WELLBEING",
        "primary_role_id": "RO222",
        "role_ids": [
            "RO222"
        ],
        "status": "Active",
        "post_code": "BN11 1HS",
        "uprn": "Unknown"
    },
    {
        "org_id": "166AA",
        "name": "CRAWLEY WELLBEING",
        "primary_role_id": "RO222",
        "role_ids": [
            "RO222"
        ],
        "status": "Active",
        "post_code": "RH11 9BQ",
        "uprn": "Unknown"
    },
    {
        "org_id": "231AA",
        "name": "HORSHAM WELLBEING",
        "primary_role_id": "RO222",
        "role_ids": [
            "RO222"
        ],
        "status": "Active",
        "post_code": "RH12 1RL",
        "uprn": "Unknown"
    },
    {
        "org_id": "155AA",
        "name": "CHICHESTER WELLBEING",
        "primary_role_id": "RO222",
        "role_ids": [
            "RO222"
        ],
        "status": "Active",
        "post_code": "PO19 1RJ",
        "uprn": "Unknown"
    },
    {
        "org_id": "119AA",
        "name": "ARUN WELLBEING",
        "primary_role_id": "RO222",
        "role_ids": [
            "RO222"
        ],
        "status": "Active",
        "post_code": "BN17 5LF",
        "uprn": "Unknown"
    },
    {
        "org_id": "250AA",
        "name": "MID SUSSEX WELLBEING",
        "primary_role_id": "RO222",
        "role_ids": [
            "RO222"
        ],
        "status": "Active",
        "post_code": "RH16 1SS",
        "uprn": "Unknown"
    },
    {
        "org_id": "211AA",
        "name": "KIRKLEES COUNCIL HQ",
        "primary_role_id": "RO222",
        "role_ids": [
            "RO222"
        ],
        "status": "Active",
        "post_code": "HD1 2EH",
        "uprn": "Unknown"
    },
    {
        "org_id": "211AC",
        "name": "KIRKLEES COUNCIL- PUBLIC HEALTH",
        "primary_role_id": "RO222",
        "role_ids": [
            "RO222"
        ],
        "status": "Active",
        "post_code": "HD1 1SR",
        "uprn": "Unknown"
    },
    {
        "org_id": "734AA",
        "name": "CHILDREN'S SOCIAL SERVICES DEPARTMENT",
        "primary_role_id": "RO222",
        "role_ids": [
            "RO222"
        ],
        "status": "Active",
        "post_code": "SM1 1EA",
        "uprn": "Unknown"
    },
    {
        "org_id": "116AA",
        "name": "COMELEON HOUSE",
        "primary_role_id": "RO222",
        "role_ids": [
            "RO222"
        ],
        "status": "Active",
        "post_code": "DH9 9NX",
        "uprn": "Unknown"
    },
    {
        "org_id": "116AC",
        "name": "COUNCIL OFFICES",
        "primary_role_id": "RO222",
        "role_ids": [
            "RO222"
        ],
        "status": "Active",
        "post_code": "DL16 6JQ",
        "uprn": "Unknown"
    },
    {
        "org_id": "219AA",
        "name": "YORK CITY COUNCIL - WEST OFFICES",
        "primary_role_id": "RO222",
        "role_ids": [
            "RO222"
        ],
        "status": "Active",
        "post_code": "YO1 6GA",
        "uprn": "Unknown"
    },
    {
        "org_id": "219AC",
        "name": "YORK COUNCIL PUBLIC HEALTH",
        "primary_role_id": "RO222",
        "role_ids": [
            "RO222"
        ],
        "status": "Active",
        "post_code": "YO1 6GA",
        "uprn": "Unknown"
    },
    {
        "org_id": "714AA",
        "name": "CORPORATION OF THE CITY OF LONDON - DEPARTMENT OF COMMUNITY AND CHILDREN SERVICES",
        "primary_role_id": "RO222",
        "role_ids": [
            "RO222"
        ],
        "status": "Active",
        "post_code": "EC2P 2EJ",
        "uprn": "Unknown"
    },
    {
        "org_id": "711AC",
        "name": "LONDON BOROUGH OF TOWER HAMLETS PUBLIC HEALTH",
        "primary_role_id": "RO222",
        "role_ids": [
            "RO222"
        ],
        "status": "Active",
        "post_code": "E14 2BG",
        "uprn": "Unknown"
    },
    {
        "org_id": "408AA",
        "name": "EDNAM ROAD DATA CENTRE",
        "primary_role_id": "RO222",
        "role_ids": [
            "RO222"
        ],
        "status": "Active",
        "post_code": "DY1 1HL",
        "uprn": "Unknown"
    },
    {
        "org_id": "408AC",
        "name": "ST JAMES ROAD DATA CENTRE",
        "primary_role_id": "RO222",
        "role_ids": [
            "RO222"
        ],
        "status": "Active",
        "post_code": "DY1 1HZ",
        "uprn": "Unknown"
    },
    {
        "org_id": "503AA",
        "name": "SEXUAL HEALTH CLINIC",
        "primary_role_id": "RO222",
        "role_ids": [
            "RO222"
        ],
        "status": "Active",
        "post_code": "PE21 8RU",
        "uprn": "Unknown"
    },
    {
        "org_id": "503AC",
        "name": "UNIVERSITY HEALTH CARE",
        "primary_role_id": "RO222",
        "role_ids": [
            "RO222"
        ],
        "status": "Active",
        "post_code": "LN6 7FY",
        "uprn": "Unknown"
    },
    {
        "org_id": "503AD",
        "name": "RIVERSDALE HEALTH CLINIC",
        "primary_role_id": "RO222",
        "role_ids": [
            "RO222"
        ],
        "status": "Active",
        "post_code": "NG34 7PJ",
        "uprn": "Unknown"
    },
    {
        "org_id": "503AE",
        "name": "BOSTON HEALTH CLINIC",
        "primary_role_id": "RO222",
        "role_ids": [
            "RO222"
        ],
        "status": "Active",
        "post_code": "PE21 8RU",
        "uprn": "Unknown"
    },
    {
        "org_id": "503AF",
        "name": "LINDON HOUSE",
        "primary_role_id": "RO222",
        "role_ids": [
            "RO222"
        ],
        "status": "Active",
        "post_code": "LN6 7TU",
        "uprn": "Unknown"
    },
    {
        "org_id": "503AG",
        "name": "HOLBEACH HEALTH CLINIC",
        "primary_role_id": "RO222",
        "role_ids": [
            "RO222"
        ],
        "status": "Active",
        "post_code": "PE12 7EE",
        "uprn": "Unknown"
    },
    {
        "org_id": "503AH",
        "name": "HORNCASTLE HEALTH CENTRE",
        "primary_role_id": "RO222",
        "role_ids": [
            "RO222"
        ],
        "status": "Active",
        "post_code": "LN9 5HF",
        "uprn": "Unknown"
    },
    {
        "org_id": "503AJ",
        "name": "SKEGNESS HOSPITAL",
        "primary_role_id": "RO222",
        "role_ids": [
            "RO222"
        ],
        "status": "Active",
        "post_code": "PE25 2BS",
        "uprn": "Unknown"
    },
    {
        "org_id": "503AK",
        "name": "GRANTHAM & DISTRICT HOSPITAL",
        "primary_role_id": "RO222",
        "role_ids": [
            "RO222"
        ],
        "status": "Active",
        "post_code": "NG31 8DG",
        "uprn": "Unknown"
    },
    {
        "org_id": "503AL",
        "name": "GAINSBOROUGH HEALTH CLINIC",
        "primary_role_id": "RO222",
        "role_ids": [
            "RO222"
        ],
        "status": "Active",
        "post_code": "DN21 2DZ",
        "uprn": "Unknown"
    },
    {
        "org_id": "503AM",
        "name": "NEWLAND INTEGRATED CLINIC",
        "primary_role_id": "RO222",
        "role_ids": [
            "RO222"
        ],
        "status": "Active",
        "post_code": "LN1 1XP",
        "uprn": "Unknown"
    },
    {
        "org_id": "503AN",
        "name": "THE JOHNSON COMMUNITY HOSPITAL",
        "primary_role_id": "RO222",
        "role_ids": [
            "RO222"
        ],
        "status": "Active",
        "post_code": "PE11 3DT",
        "uprn": "Unknown"
    },
    {
        "org_id": "503AP",
        "name": "JOHN COUPLAND COMMUNITY HOSPITAL",
        "primary_role_id": "RO222",
        "role_ids": [
            "RO222"
        ],
        "status": "Active",
        "post_code": "DN21 2TJ",
        "uprn": "Unknown"
    },
    {
        "org_id": "503AQ",
        "name": "LOUTH COMMUNITY HOSPITAL",
        "primary_role_id": "RO222",
        "role_ids": [
            "RO222"
        ],
        "status": "Active",
        "post_code": "LN11 0EU",
        "uprn": "Unknown"
    },
    {
        "org_id": "503AR",
        "name": "BOSTON ENTERPRISE CENTRE",
        "primary_role_id": "RO222",
        "role_ids": [
            "RO222"
        ],
        "status": "Active",
        "post_code": "PE21 7TW",
        "uprn": "Unknown"
    },
    {
        "org_id": "503AT",
        "name": "MARISCO MEDICAL PRACTICE",
        "primary_role_id": "RO222",
        "role_ids": [
            "RO222"
        ],
        "status": "Active",
        "post_code": "LN12 1DP",
        "uprn": "Unknown"
    },
    {
        "org_id": "503AV",
        "name": "MARKET RASEN CLINIC",
        "primary_role_id": "RO222",
        "role_ids": [
            "RO222"
        ],
        "status": "Active",
        "post_code": "LN8 3AT",
        "uprn": "Unknown"
    },
    {
        "org_id": "503AY",
        "name": "NORTH HYKEHAM DENTAL CLINIC",
        "primary_role_id": "RO222",
        "role_ids": [
            "RO222"
        ],
        "status": "Active",
        "post_code": "LN6 9BA",
        "uprn": "Unknown"
    },
    {
        "org_id": "503TQ",
        "name": "BIRCHWOOD MEDICAL PRACTICE",
        "primary_role_id": "RO222",
        "role_ids": [
            "RO222"
        ],
        "status": "Active",
        "post_code": "LN6 0QQ",
        "uprn": "Unknown"
    },
    {
        "org_id": "503TR",
        "name": "GRANTHAM HEALTH CLINIC",
        "primary_role_id": "RO222",
        "role_ids": [
            "RO222"
        ],
        "status": "Active",
        "post_code": "NG31 6TT",
        "uprn": "Unknown"
    },
    {
        "org_id": "503TV",
        "name": "STAMFORD AND RUTLAND HOSPITAL",
        "primary_role_id": "RO222",
        "role_ids": [
            "RO222"
        ],
        "status": "Active",
        "post_code": "PE9 1UA",
        "uprn": "Unknown"
    },
    {
        "org_id": "503TY",
        "name": "SKEGNESS HEALTH CLINIC",
        "primary_role_id": "RO222",
        "role_ids": [
            "RO222"
        ],
        "status": "Active",
        "post_code": "PE25 2BX",
        "uprn": "Unknown"
    },
    {
        "org_id": "503VA",
        "name": "PILGRIM HOSPITAL",
        "primary_role_id": "RO222",
        "role_ids": [
            "RO222"
        ],
        "status": "Active",
        "post_code": "PE21 9QS",
        "uprn": "Unknown"
    },
    {
        "org_id": "503VC",
        "name": "LINCOLN COUNTY HOSPITAL",
        "primary_role_id": "RO222",
        "role_ids": [
            "RO222"
        ],
        "status": "Active",
        "post_code": "LN2 5QY",
        "uprn": "Unknown"
    },
    {
        "org_id": "503VD",
        "name": "WALK IN CENTRE",
        "primary_role_id": "RO222",
        "role_ids": [
            "RO222"
        ],
        "status": "Active",
        "post_code": "LN2 5HP",
        "uprn": "Unknown"
    },
    {
        "org_id": "503VE",
        "name": "BOURNE HEALTH CLINIC",
        "primary_role_id": "RO222",
        "role_ids": [
            "RO222"
        ],
        "status": "Active",
        "post_code": "PE10 9XA",
        "uprn": "Unknown"
    },
    {
        "org_id": "503VF",
        "name": "HORNCASTLE WAR MEMORIAL HOSPITAL",
        "primary_role_id": "RO222",
        "role_ids": [
            "RO222"
        ],
        "status": "Active",
        "post_code": "LN9 5DX",
        "uprn": "Unknown"
    },
    {
        "org_id": "503VG",
        "name": "BOULTHAM PARK MEDICAL PRACTICE",
        "primary_role_id": "RO222",
        "role_ids": [
            "RO222"
        ],
        "status": "Active",
        "post_code": "LN6 7SS",
        "uprn": "Unknown"
    },
    {
        "org_id": "503VH",
        "name": "NETTLEHAM MEDICAL PRACTICE",
        "primary_role_id": "RO222",
        "role_ids": [
            "RO222"
        ],
        "status": "Active",
        "post_code": "LN2 2RS",
        "uprn": "Unknown"
    },
    {
        "org_id": "503VJ",
        "name": "SAXILBY HEALTH CENTRE",
        "primary_role_id": "RO222",
        "role_ids": [
            "RO222"
        ],
        "status": "Active",
        "post_code": "LN1 2NU",
        "uprn": "Unknown"
    },
    {
        "org_id": "503VK",
        "name": "STAMFORD CLINIC",
        "primary_role_id": "RO222",
        "role_ids": [
            "RO222"
        ],
        "status": "Active",
        "post_code": "PE9 1TU",
        "uprn": "Unknown"
    },
    {
        "org_id": "503VL",
        "name": "MARKET DEEPING HEALTH CENTRE",
        "primary_role_id": "RO222",
        "role_ids": [
            "RO222"
        ],
        "status": "Active",
        "post_code": "PE6 8DD",
        "uprn": "Unknown"
    },
    {
        "org_id": "503VM",
        "name": "CAISTOR HEALTH CLINIC",
        "primary_role_id": "RO222",
        "role_ids": [
            "RO222"
        ],
        "status": "Active",
        "post_code": "LN7 6NX",
        "uprn": "Unknown"
    },
    {
        "org_id": "503VN",
        "name": "GRACE SWAN HEALTH CLINIC",
        "primary_role_id": "RO222",
        "role_ids": [
            "RO222"
        ],
        "status": "Active",
        "post_code": "PE23 5LS",
        "uprn": "Unknown"
    },
    {
        "org_id": "503VP",
        "name": "TASBURGH LODGE SURGERY",
        "primary_role_id": "RO222",
        "role_ids": [
            "RO222"
        ],
        "status": "Active",
        "post_code": "LN10 6TX",
        "uprn": "Unknown"
    },
    {
        "org_id": "503VQ",
        "name": "MERTON LODGE SRUGERY",
        "primary_role_id": "RO222",
        "role_ids": [
            "RO222"
        ],
        "status": "Active",
        "post_code": "LN13 9HT",
        "uprn": "Unknown"
    },
    {
        "org_id": "503CA",
        "name": "BINBROOK SURGERY",
        "primary_role_id": "RO222",
        "role_ids": [
            "RO222"
        ],
        "status": "Active",
        "post_code": "LN8 6ED",
        "uprn": "Unknown"
    },
    {
        "org_id": "503CC",
        "name": "WELTON FAMILY HEALTH CENTRE",
        "primary_role_id": "RO222",
        "role_ids": [
            "RO222"
        ],
        "status": "Active",
        "post_code": "LN2 3JH",
        "uprn": "Unknown"
    },
    {
        "org_id": "503CD",
        "name": "INGHAM MEDICAL PRACTICE",
        "primary_role_id": "RO222",
        "role_ids": [
            "RO222"
        ],
        "status": "Active",
        "post_code": "LN1 2XF",
        "uprn": "Unknown"
    },
    {
        "org_id": "503CE",
        "name": "LINDUM MEDICAL PRACTICE",
        "primary_role_id": "RO222",
        "role_ids": [
            "RO222"
        ],
        "status": "Active",
        "post_code": "LN2 2JP",
        "uprn": "Unknown"
    },
    {
        "org_id": "503CF",
        "name": "NEW SPRINGWELLS PRACTICE",
        "primary_role_id": "RO222",
        "role_ids": [
            "RO222"
        ],
        "status": "Active",
        "post_code": "NG34 0QQ",
        "uprn": "Unknown"
    },
    {
        "org_id": "503CG",
        "name": "MARKET CROSS SURGERY",
        "primary_role_id": "RO222",
        "role_ids": [
            "RO222"
        ],
        "status": "Active",
        "post_code": "NG33 4BB",
        "uprn": "Unknown"
    },
    {
        "org_id": "503CH",
        "name": "ST JOHNS MEDICAL CENTRE",
        "primary_role_id": "RO222",
        "role_ids": [
            "RO222"
        ],
        "status": "Active",
        "post_code": "NG31 6HR",
        "uprn": "Unknown"
    },
    {
        "org_id": "503CJ",
        "name": "ST PETERS HILL SURGERY",
        "primary_role_id": "RO222",
        "role_ids": [
            "RO222"
        ],
        "status": "Active",
        "post_code": "NG31 6QA",
        "uprn": "Unknown"
    },
    {
        "org_id": "503CK",
        "name": "CROWLAND HEALTH CENTRE",
        "primary_role_id": "RO222",
        "role_ids": [
            "RO222"
        ],
        "status": "Active",
        "post_code": "PE6 0AL",
        "uprn": "Unknown"
    },
    {
        "org_id": "503CL",
        "name": "WELBY PRACTICE",
        "primary_role_id": "RO222",
        "role_ids": [
            "RO222"
        ],
        "status": "Active",
        "post_code": "NG13 0AN",
        "uprn": "Unknown"
    },
    {
        "org_id": "503CM",
        "name": "BELVOIR VALE SURGERY",
        "primary_role_id": "RO222",
        "role_ids": [
            "RO222"
        ],
        "status": "Active",
        "post_code": "NG13 0AN",
        "uprn": "Unknown"
    },
    {
        "org_id": "503CN",
        "name": "HARLAXTON PRACTICE",
        "primary_role_id": "RO222",
        "role_ids": [
            "RO222"
        ],
        "status": "Active",
        "post_code": "NG32 1HT",
        "uprn": "Unknown"
    },
    {
        "org_id": "503CP",
        "name": "HEREWARD GROUP PRACTICE",
        "primary_role_id": "RO222",
        "role_ids": [
            "RO222"
        ],
        "status": "Active",
        "post_code": "PE10 9XR",
        "uprn": "Unknown"
    },
    {
        "org_id": "503CQ",
        "name": "WALTHAM ON THE WOLDS PRACTICE",
        "primary_role_id": "RO222",
        "role_ids": [
            "RO222"
        ],
        "status": "Active",
        "post_code": "LE14 4AB",
        "uprn": "Unknown"
    },
    {
        "org_id": "503CR",
        "name": "WOODLAND MEDICAL PRACTICE",
        "primary_role_id": "RO222",
        "role_ids": [
            "RO222"
        ],
        "status": "Active",
        "post_code": "LN6 0QQ",
        "uprn": "Unknown"
    },
    {
        "org_id": "503CT",
        "name": "CITY CARE CENTRE",
        "primary_role_id": "RO222",
        "role_ids": [
            "RO222"
        ],
        "status": "Active",
        "post_code": "PE3 6DB",
        "uprn": "Unknown"
    },
    {
        "org_id": "503CV",
        "name": "BLUECOATS ANNEX",
        "primary_role_id": "RO222",
        "role_ids": [
            "RO222"
        ],
        "status": "Active",
        "post_code": "PE9 1HE",
        "uprn": "Unknown"
    },
    {
        "org_id": "503CY",
        "name": "WELTON HOUSE",
        "primary_role_id": "RO222",
        "role_ids": [
            "RO222"
        ],
        "status": "Active",
        "post_code": "LN2 4WH",
        "uprn": "Unknown"
    },
    {
        "org_id": "503DA",
        "name": "RAVENDALE HEALTH CLINIC",
        "primary_role_id": "RO222",
        "role_ids": [
            "RO222"
        ],
        "status": "Active",
        "post_code": "LN2 2BT",
        "uprn": "Unknown"
    },
    {
        "org_id": "503DC",
        "name": "GRANTHAM COMMUNITY BASE",
        "primary_role_id": "RO222",
        "role_ids": [
            "RO222"
        ],
        "status": "Active",
        "post_code": "NG31 7UH",
        "uprn": "Unknown"
    },
    {
        "org_id": "503DD",
        "name": "GREETWELL PLACE",
        "primary_role_id": "RO222",
        "role_ids": [
            "RO222"
        ],
        "status": "Active",
        "post_code": "LN2 4US",
        "uprn": "Unknown"
    },
    {
        "org_id": "503DE",
        "name": "THE NEW CONINGSBY SURGERY",
        "primary_role_id": "RO222",
        "role_ids": [
            "RO222"
        ],
        "status": "Active",
        "post_code": "LN4 4SG",
        "uprn": "Unknown"
    },
    {
        "org_id": "503DF",
        "name": "WASHINGBOROUGH COMMUNITY CENTRE",
        "primary_role_id": "RO222",
        "role_ids": [
            "RO222"
        ],
        "status": "Active",
        "post_code": "LN4 1AB",
        "uprn": "Unknown"
    },
    {
        "org_id": "503DG",
        "name": "WRAGBY SURGERY",
        "primary_role_id": "RO222",
        "role_ids": [
            "RO222"
        ],
        "status": "Active",
        "post_code": "LN8 5DA",
        "uprn": "Unknown"
    },
    {
        "org_id": "503DH",
        "name": "BRANT ROAD SURGERY",
        "primary_role_id": "RO222",
        "role_ids": [
            "RO222"
        ],
        "status": "Active",
        "post_code": "LN5 9AB",
        "uprn": "Unknown"
    },
    {
        "org_id": "503DJ",
        "name": "THE HEATH SURGERY",
        "primary_role_id": "RO222",
        "role_ids": [
            "RO222"
        ],
        "status": "Active",
        "post_code": "LN4 2LA",
        "uprn": "Unknown"
    },
    {
        "org_id": "503DK",
        "name": "HAWTHORN MEDICAL PRACTICE",
        "primary_role_id": "RO222",
        "role_ids": [
            "RO222"
        ],
        "status": "Active",
        "post_code": "PE25 3TD",
        "uprn": "Unknown"
    },
    {
        "org_id": "503DL",
        "name": "LONG SUTTON MEDICAL CENTRE",
        "primary_role_id": "RO222",
        "role_ids": [
            "RO222"
        ],
        "status": "Active",
        "post_code": "PE12 9HB",
        "uprn": "Unknown"
    },
    {
        "org_id": "503DM",
        "name": "HIBALDSTOW SURGERY",
        "primary_role_id": "RO222",
        "role_ids": [
            "RO222"
        ],
        "status": "Active",
        "post_code": "DN20 9ED",
        "uprn": "Unknown"
    },
    {
        "org_id": "503DN",
        "name": "BURGH LE MARSH VILLAGE HALL",
        "primary_role_id": "RO222",
        "role_ids": [
            "RO222"
        ],
        "status": "Active",
        "post_code": "PE24 5LA",
        "uprn": "Unknown"
    },
    {
        "org_id": "503DP",
        "name": "BRACEBRIDGE COMMUNITY CENTRE",
        "primary_role_id": "RO222",
        "role_ids": [
            "RO222"
        ],
        "status": "Active",
        "post_code": "LN5 8QS",
        "uprn": "Unknown"
    },
    {
        "org_id": "503DQ",
        "name": "SURFLEET VILLAGE HALL",
        "primary_role_id": "RO222",
        "role_ids": [
            "RO222"
        ],
        "status": "Active",
        "post_code": "PE11 4DB",
        "uprn": "Unknown"
    },
    {
        "org_id": "503DR",
        "name": "ST GEORGES COMMUNITY CENTRE",
        "primary_role_id": "RO222",
        "role_ids": [
            "RO222"
        ],
        "status": "Active",
        "post_code": "DN21 1SH",
        "uprn": "Unknown"
    },
    {
        "org_id": "503DT",
        "name": "SUDBROOKE COMMUNITY CENTRE",
        "primary_role_id": "RO222",
        "role_ids": [
            "RO222"
        ],
        "status": "Active",
        "post_code": "LN2 2EF",
        "uprn": "Unknown"
    },
    {
        "org_id": "503DV",
        "name": "WINGS MEADOW ACTIVITY CENTRE",
        "primary_role_id": "RO222",
        "role_ids": [
            "RO222"
        ],
        "status": "Active",
        "post_code": "PE21 0JR",
        "uprn": "Unknown"
    },
    {
        "org_id": "503DY",
        "name": "CURLEW CENTRE",
        "primary_role_id": "RO222",
        "role_ids": [
            "RO222"
        ],
        "status": "Active",
        "post_code": "PE12 9SA",
        "uprn": "Unknown"
    },
    {
        "org_id": "503EA",
        "name": "SCOTTER/HAWTHORN SURGERY",
        "primary_role_id": "RO222",
        "role_ids": [
            "RO222"
        ],
        "status": "Active",
        "post_code": "DN21 3SB",
        "uprn": "Unknown"
    },
    {
        "org_id": "503ED",
        "name": "NEWMARKET SURGERY",
        "primary_role_id": "RO222",
        "role_ids": [
            "RO222"
        ],
        "status": "Active",
        "post_code": "LN11 9EH",
        "uprn": "Unknown"
    },
    {
        "org_id": "503EE",
        "name": "JAMES STREET SURGERY",
        "primary_role_id": "RO222",
        "role_ids": [
            "RO222"
        ],
        "status": "Active",
        "post_code": "LN11 0JN",
        "uprn": "Unknown"
    },
    {
        "org_id": "503EG",
        "name": "GREYFRIARS SURGERY",
        "primary_role_id": "RO222",
        "role_ids": [
            "RO222"
        ],
        "status": "Active",
        "post_code": "PE21 6JU",
        "uprn": "Unknown"
    },
    {
        "org_id": "503EH",
        "name": "HORNCASTLE BANOVALLUM SCHOOL",
        "primary_role_id": "RO222",
        "role_ids": [
            "RO222"
        ],
        "status": "Active",
        "post_code": "LN9 6DA",
        "uprn": "Unknown"
    },
    {
        "org_id": "503EJ",
        "name": "LOUTH CHILDRENS CENTRE",
        "primary_role_id": "RO222",
        "role_ids": [
            "RO222"
        ],
        "status": "Active",
        "post_code": "LN11 8DQ",
        "uprn": "Unknown"
    },
    {
        "org_id": "503EK",
        "name": "BARDENEY HEALTH CLINIC",
        "primary_role_id": "RO222",
        "role_ids": [
            "RO222"
        ],
        "status": "Active",
        "post_code": "LN3 5SU",
        "uprn": "Unknown"
    },
    {
        "org_id": "503EL",
        "name": "UNITED REFORM CHURCH",
        "primary_role_id": "RO222",
        "role_ids": [
            "RO222"
        ],
        "status": "Active",
        "post_code": "NG34 7RY",
        "uprn": "Unknown"
    },
    {
        "org_id": "503EN",
        "name": "THE DEEPINGS COMMUNITY CENTRE",
        "primary_role_id": "RO222",
        "role_ids": [
            "RO222"
        ],
        "status": "Active",
        "post_code": "PE6 8PA",
        "uprn": "Unknown"
    },
    {
        "org_id": "503EP",
        "name": "ELSEA PARK COMMUNITY TRUST",
        "primary_role_id": "RO222",
        "role_ids": [
            "RO222"
        ],
        "status": "Active",
        "post_code": "PE10 0US",
        "uprn": "Unknown"
    },
    {
        "org_id": "503EQ",
        "name": "SCREDINGTON COMMUNITY CENTRE",
        "primary_role_id": "RO222",
        "role_ids": [
            "RO222"
        ],
        "status": "Active",
        "post_code": "NG34 0AG",
        "uprn": "Unknown"
    },
    {
        "org_id": "503ER",
        "name": "GONERBY SOCIAL CLUB",
        "primary_role_id": "RO222",
        "role_ids": [
            "RO222"
        ],
        "status": "Active",
        "post_code": "NG31 8JP",
        "uprn": "Unknown"
    },
    {
        "org_id": "503EV",
        "name": "ST JOHNS CHURCH HALL",
        "primary_role_id": "RO222",
        "role_ids": [
            "RO222"
        ],
        "status": "Active",
        "post_code": "LN4 4QZ",
        "uprn": "Unknown"
    },
    {
        "org_id": "503EY",
        "name": "LUDFORD VILLAGE HALL",
        "primary_role_id": "RO222",
        "role_ids": [
            "RO222"
        ],
        "status": "Active",
        "post_code": "LN8 6AJ",
        "uprn": "Unknown"
    },
    {
        "org_id": "503FA",
        "name": "STAMFORD FREE CHURCH",
        "primary_role_id": "RO222",
        "role_ids": [
            "RO222"
        ],
        "status": "Active",
        "post_code": "PE9 1SU",
        "uprn": "Unknown"
    },
    {
        "org_id": "503FC",
        "name": "MARKET RASEN GP SURGERY",
        "primary_role_id": "RO222",
        "role_ids": [
            "RO222"
        ],
        "status": "Active",
        "post_code": "LN8 3BP",
        "uprn": "Unknown"
    },
    {
        "org_id": "503FD",
        "name": "SUTTON BRIDGE MEDICAL CENTRE",
        "primary_role_id": "RO222",
        "role_ids": [
            "RO222"
        ],
        "status": "Active",
        "post_code": "PE12 9UZ",
        "uprn": "Unknown"
    },
    {
        "org_id": "503FE",
        "name": "WAINFLEET SURGERY",
        "primary_role_id": "RO222",
        "role_ids": [
            "RO222"
        ],
        "status": "Active",
        "post_code": "PE24 4DE",
        "uprn": "Unknown"
    },
    {
        "org_id": "503FF",
        "name": "STICKNEY SURGERY",
        "primary_role_id": "RO222",
        "role_ids": [
            "RO222"
        ],
        "status": "Active",
        "post_code": "PE22 8AA",
        "uprn": "Unknown"
    },
    {
        "org_id": "503FG",
        "name": "BEACON MEDICAL PRACTICE",
        "primary_role_id": "RO222",
        "role_ids": [
            "RO222"
        ],
        "status": "Active",
        "post_code": "PE25 2RN",
        "uprn": "Unknown"
    },
    {
        "org_id": "503FH",
        "name": "NEW LIFE CHRISTIAN FELLOWSHIP CENTRE",
        "primary_role_id": "RO222",
        "role_ids": [
            "RO222"
        ],
        "status": "Active",
        "post_code": "DN21 1UN",
        "uprn": "Unknown"
    },
    {
        "org_id": "503FJ",
        "name": "ROUGHTON VILLAGE HALL",
        "primary_role_id": "RO222",
        "role_ids": [
            "RO222"
        ],
        "status": "Active",
        "post_code": "LN10 6YJ",
        "uprn": "Unknown"
    },
    {
        "org_id": "503FK",
        "name": "SKEGNESS FIRE STATION",
        "primary_role_id": "RO222",
        "role_ids": [
            "RO222"
        ],
        "status": "Active",
        "post_code": "PE25 2RN",
        "uprn": "Unknown"
    },
    {
        "org_id": "503FL",
        "name": "MUNROE MEDICAL CENTRE",
        "primary_role_id": "RO222",
        "role_ids": [
            "RO222"
        ],
        "status": "Active",
        "post_code": "PE11 2BY",
        "uprn": "Unknown"
    },
    {
        "org_id": "503PT",
        "name": "REDCROFT DAY NURSERY",
        "primary_role_id": "RO222",
        "role_ids": [
            "RO222"
        ],
        "status": "Active",
        "post_code": "NG34 7JY",
        "uprn": "Unknown"
    },
    {
        "org_id": "503PV",
        "name": "HAWTONVILLE AND BALDERTON CHILDREN'S CENTRE",
        "primary_role_id": "RO222",
        "role_ids": [
            "RO222"
        ],
        "status": "Active",
        "post_code": "NG24 4EG",
        "uprn": "Unknown"
    },
    {
        "org_id": "503PY",
        "name": "SPRINGCLIFFE SURGERY",
        "primary_role_id": "RO222",
        "role_ids": [
            "RO222"
        ],
        "status": "Active",
        "post_code": "LN5 8LZ",
        "uprn": "Unknown"
    },
    {
        "org_id": "503QA",
        "name": "STEPPING STONES NURSERY",
        "primary_role_id": "RO222",
        "role_ids": [
            "RO222"
        ],
        "status": "Active",
        "post_code": "NG31 6QP",
        "uprn": "Unknown"
    },
    {
        "org_id": "503QC",
        "name": "LINCOLN CENTRAL CHILDREN'S CENTRE",
        "primary_role_id": "RO222",
        "role_ids": [
            "RO222"
        ],
        "status": "Active",
        "post_code": "LN5 7XT",
        "uprn": "Unknown"
    },
    {
        "org_id": "503FM",
        "name": "MERES LEISURE CENTRE",
        "primary_role_id": "RO222",
        "role_ids": [
            "RO222"
        ],
        "status": "Active",
        "post_code": "NG31 7XQ",
        "uprn": "Unknown"
    },
    {
        "org_id": "503FN",
        "name": "OLD LEAKE MEDICAL CENTRE",
        "primary_role_id": "RO222",
        "role_ids": [
            "RO222"
        ],
        "status": "Active",
        "post_code": "PE22 9LE",
        "uprn": "Unknown"
    },
    {
        "org_id": "503QD",
        "name": "WARREN FAMILY CENTRE",
        "primary_role_id": "RO222",
        "role_ids": [
            "RO222"
        ],
        "status": "Active",
        "post_code": "DN21 2TT",
        "uprn": "Unknown"
    },
    {
        "org_id": "503FP",
        "name": "MARKET RASEN CHILDRENS CENTRE",
        "primary_role_id": "RO222",
        "role_ids": [
            "RO222"
        ],
        "status": "Active",
        "post_code": "LN8 3BJ",
        "uprn": "Unknown"
    },
    {
        "org_id": "503FQ",
        "name": "BINBROOK CHILDRENS CENTRE",
        "primary_role_id": "RO222",
        "role_ids": [
            "RO222"
        ],
        "status": "Active",
        "post_code": "LN8 6DU",
        "uprn": "Unknown"
    },
    {
        "org_id": "503FR",
        "name": "SKEGNESS CHILDRENS CENTRE",
        "primary_role_id": "RO222",
        "role_ids": [
            "RO222"
        ],
        "status": "Active",
        "post_code": "PE25 2QT",
        "uprn": "Unknown"
    },
    {
        "org_id": "503QE",
        "name": "GRIMSBY TOWN HALL",
        "primary_role_id": "RO222",
        "role_ids": [
            "RO222"
        ],
        "status": "Active",
        "post_code": "DN31 1HX",
        "uprn": "Unknown"
    },
    {
        "org_id": "503FT",
        "name": "SPILSBY CHILDRENS CENTRE",
        "primary_role_id": "RO222",
        "role_ids": [
            "RO222"
        ],
        "status": "Active",
        "post_code": "PE23 5EP",
        "uprn": "Unknown"
    },
    {
        "org_id": "503QF",
        "name": "CHURCH SQUARE HOUSE",
        "primary_role_id": "RO222",
        "role_ids": [
            "RO222"
        ],
        "status": "Active",
        "post_code": "DN15 6NL",
        "uprn": "Unknown"
    },
    {
        "org_id": "503FV",
        "name": "WAINFLEET CHILDRENS CENTRE",
        "primary_role_id": "RO222",
        "role_ids": [
            "RO222"
        ],
        "status": "Active",
        "post_code": "PE24 4DD",
        "uprn": "Unknown"
    },
    {
        "org_id": "503QG",
        "name": "FUN FARM DAY NURSERY",
        "primary_role_id": "RO222",
        "role_ids": [
            "RO222"
        ],
        "status": "Active",
        "post_code": "LN6 3QU",
        "uprn": "Unknown"
    },
    {
        "org_id": "503FY",
        "name": "BOURNE CHILDRENS CENTRE",
        "primary_role_id": "RO222",
        "role_ids": [
            "RO222"
        ],
        "status": "Active",
        "post_code": "PE10 9DX",
        "uprn": "Unknown"
    },
    {
        "org_id": "503QH",
        "name": "TREETOPS CATERPILLAR NURSERY",
        "primary_role_id": "RO222",
        "role_ids": [
            "RO222"
        ],
        "status": "Active",
        "post_code": "PE6 8EH",
        "uprn": "Unknown"
    },
    {
        "org_id": "503QJ",
        "name": "HEADSTART NURSERY",
        "primary_role_id": "RO222",
        "role_ids": [
            "RO222"
        ],
        "status": "Active",
        "post_code": "PE6 8LQ",
        "uprn": "Unknown"
    },
    {
        "org_id": "503GA",
        "name": "SWINGBRIDGE CHILDRENS CENTRE",
        "primary_role_id": "RO222",
        "role_ids": [
            "RO222"
        ],
        "status": "Active",
        "post_code": "NG31 7XQ",
        "uprn": "Unknown"
    },
    {
        "org_id": "503GC",
        "name": "BELTON LANE CHILDRENS CENTRE",
        "primary_role_id": "RO222",
        "role_ids": [
            "RO222"
        ],
        "status": "Active",
        "post_code": "NG31 9PP",
        "uprn": "Unknown"
    },
    {
        "org_id": "503GD",
        "name": "BOTTESFORD SURESTART CHILDRENS CENTRE",
        "primary_role_id": "RO222",
        "role_ids": [
            "RO222"
        ],
        "status": "Active",
        "post_code": "NG13 0AX",
        "uprn": "Unknown"
    },
    {
        "org_id": "503QK",
        "name": "ANCASTER VILLAGE HALL",
        "primary_role_id": "RO222",
        "role_ids": [
            "RO222"
        ],
        "status": "Active",
        "post_code": "NG32 3PW",
        "uprn": "Unknown"
    },
    {
        "org_id": "503QL",
        "name": "ROCKING HORSE NURSERY",
        "primary_role_id": "RO222",
        "role_ids": [
            "RO222"
        ],
        "status": "Active",
        "post_code": "PE9 1UP",
        "uprn": "Unknown"
    },
    {
        "org_id": "503GE",
        "name": "SLEAFORD CHILDRENS CENTRE",
        "primary_role_id": "RO222",
        "role_ids": [
            "RO222"
        ],
        "status": "Active",
        "post_code": "NG34 7TW",
        "uprn": "Unknown"
    },
    {
        "org_id": "503GF",
        "name": "MILLVIEW MEDICAL CENTRE",
        "primary_role_id": "RO222",
        "role_ids": [
            "RO222"
        ],
        "status": "Active",
        "post_code": "NG34 9QP",
        "uprn": "Unknown"
    },
    {
        "org_id": "503QM",
        "name": "YMCA BEGINNINGS DAY CARE",
        "primary_role_id": "RO222",
        "role_ids": [
            "RO222"
        ],
        "status": "Active",
        "post_code": "DN21 1NY",
        "uprn": "Unknown"
    },
    {
        "org_id": "503GG",
        "name": "RUSKINGTON MEDICAL PRACTICE",
        "primary_role_id": "RO222",
        "role_ids": [
            "RO222"
        ],
        "status": "Active",
        "post_code": "NG34 9GQ",
        "uprn": "Unknown"
    },
    {
        "org_id": "503GH",
        "name": "BILLINGHAY CHILDRENS CENTRE",
        "primary_role_id": "RO222",
        "role_ids": [
            "RO222"
        ],
        "status": "Active",
        "post_code": "LN4 4HU",
        "uprn": "Unknown"
    },
    {
        "org_id": "503GJ",
        "name": "ANCASTER SURGERY",
        "primary_role_id": "RO222",
        "role_ids": [
            "RO222"
        ],
        "status": "Active",
        "post_code": "NG32 3PP",
        "uprn": "Unknown"
    },
    {
        "org_id": "503GK",
        "name": "CAYTHORPE SURGERY",
        "primary_role_id": "RO222",
        "role_ids": [
            "RO222"
        ],
        "status": "Active",
        "post_code": "NG32 3DN",
        "uprn": "Unknown"
    },
    {
        "org_id": "503QN",
        "name": "HAVEN COTTAGE RESPITE CARE CENTRE",
        "primary_role_id": "RO222",
        "role_ids": [
            "RO222"
        ],
        "status": "Active",
        "post_code": "PE21 0PX",
        "uprn": "Unknown"
    },
    {
        "org_id": "503GL",
        "name": "MEDICAL CENTRE RAF CRANWELL",
        "primary_role_id": "RO222",
        "role_ids": [
            "RO222"
        ],
        "status": "Active",
        "post_code": "NG34 8HB",
        "uprn": "Unknown"
    },
    {
        "org_id": "503GM",
        "name": "RAF DIGBY",
        "primary_role_id": "RO222",
        "role_ids": [
            "RO222"
        ],
        "status": "Active",
        "post_code": "LN4 3LH",
        "uprn": "Unknown"
    },
    {
        "org_id": "503QP",
        "name": "SMARTIE PANTS DAY NURSERY",
        "primary_role_id": "RO222",
        "role_ids": [
            "RO222"
        ],
        "status": "Active",
        "post_code": "LN12 1BP",
        "uprn": "Unknown"
    },
    {
        "org_id": "503QQ",
        "name": "LOUTH HOSPICE",
        "primary_role_id": "RO222",
        "role_ids": [
            "RO222"
        ],
        "status": "Active",
        "post_code": "LN11 0SX",
        "uprn": "Unknown"
    },
    {
        "org_id": "503GN",
        "name": "NEW SURGERY WOODHALL SPA",
        "primary_role_id": "RO222",
        "role_ids": [
            "RO222"
        ],
        "status": "Active",
        "post_code": "LN10 6SQ",
        "uprn": "Unknown"
    },
    {
        "org_id": "503QR",
        "name": "MARKET DEEPING POLICE STATION",
        "primary_role_id": "RO222",
        "role_ids": [
            "RO222"
        ],
        "status": "Active",
        "post_code": "PE6 8PA",
        "uprn": "Unknown"
    },
    {
        "org_id": "503QT",
        "name": "PUDDLE DUCKS PRE SCHOOL",
        "primary_role_id": "RO222",
        "role_ids": [
            "RO222"
        ],
        "status": "Active",
        "post_code": "LN11 0QD",
        "uprn": "Unknown"
    },
    {
        "org_id": "503GP",
        "name": "LINCOLN NORTH CHILDRENS CENTRE",
        "primary_role_id": "RO222",
        "role_ids": [
            "RO222"
        ],
        "status": "Active",
        "post_code": "LN2 2DD",
        "uprn": "Unknown"
    },
    {
        "org_id": "503QV",
        "name": "HONEYPOT DAY NURSERY",
        "primary_role_id": "RO222",
        "role_ids": [
            "RO222"
        ],
        "status": "Active",
        "post_code": "PE12 6DQ",
        "uprn": "Unknown"
    },
    {
        "org_id": "503GQ",
        "name": "CHERRY WILLINGHAM CHILDRENS CENTRE",
        "primary_role_id": "RO222",
        "role_ids": [
            "RO222"
        ],
        "status": "Active",
        "post_code": "LN3 4BD",
        "uprn": "Unknown"
    },
    {
        "org_id": "503QY",
        "name": "TLC TEACHING AND LEARNING CENTRE",
        "primary_role_id": "RO222",
        "role_ids": [
            "RO222"
        ],
        "status": "Active",
        "post_code": "LN12 2DF",
        "uprn": "Unknown"
    },
    {
        "org_id": "503GR",
        "name": "ST GILES CHILDRENS CENTRE",
        "primary_role_id": "RO222",
        "role_ids": [
            "RO222"
        ],
        "status": "Active",
        "post_code": "LN2 4EG",
        "uprn": "Unknown"
    },
    {
        "org_id": "503GT",
        "name": "SPALDING CHILDRENS CENTRE",
        "primary_role_id": "RO222",
        "role_ids": [
            "RO222"
        ],
        "status": "Active",
        "post_code": "PE11 2JG",
        "uprn": "Unknown"
    },
    {
        "org_id": "503GV",
        "name": "HOLBEACH CHILDRENS CENTRE",
        "primary_role_id": "RO222",
        "role_ids": [
            "RO222"
        ],
        "status": "Active",
        "post_code": "PE12 7LZ",
        "uprn": "Unknown"
    },
    {
        "org_id": "503GY",
        "name": "BEECH HOUSE",
        "primary_role_id": "RO222",
        "role_ids": [
            "RO222"
        ],
        "status": "Active",
        "post_code": "LN5 7JH",
        "uprn": "Unknown"
    },
    {
        "org_id": "503RA",
        "name": "HEATH FARM DAY NURSERY",
        "primary_role_id": "RO222",
        "role_ids": [
            "RO222"
        ],
        "status": "Active",
        "post_code": "LN2 3QD",
        "uprn": "Unknown"
    },
    {
        "org_id": "503RC",
        "name": "ALFORD ACCESS CENTRE",
        "primary_role_id": "RO222",
        "role_ids": [
            "RO222"
        ],
        "status": "Active",
        "post_code": "LN13 9EZ",
        "uprn": "Unknown"
    },
    {
        "org_id": "503RD",
        "name": "THE MULBERRY BUSH DAY NURSERY",
        "primary_role_id": "RO222",
        "role_ids": [
            "RO222"
        ],
        "status": "Active",
        "post_code": "PE9 4SN",
        "uprn": "Unknown"
    },
    {
        "org_id": "503RE",
        "name": "THURLBY PRE-SCHOOL",
        "primary_role_id": "RO222",
        "role_ids": [
            "RO222"
        ],
        "status": "Active",
        "post_code": "PE10 0HJ",
        "uprn": "Unknown"
    },
    {
        "org_id": "503HA",
        "name": "BILLINGHAY MEDICAL PRACTICE",
        "primary_role_id": "RO222",
        "role_ids": [
            "RO222"
        ],
        "status": "Active",
        "post_code": "LN4 4AU",
        "uprn": "Unknown"
    },
    {
        "org_id": "503HC",
        "name": "CHURCH OF THE ASCENSION",
        "primary_role_id": "RO222",
        "role_ids": [
            "RO222"
        ],
        "status": "Active",
        "post_code": "NG31 9QZ",
        "uprn": "Unknown"
    },
    {
        "org_id": "503HD",
        "name": "CARHOLME CHILDRENS CENTRE",
        "primary_role_id": "RO222",
        "role_ids": [
            "RO222"
        ],
        "status": "Active",
        "post_code": "LN1 1PU",
        "uprn": "Unknown"
    },
    {
        "org_id": "503HE",
        "name": "ABBEY CHILDRENS CENTRE",
        "primary_role_id": "RO222",
        "role_ids": [
            "RO222"
        ],
        "status": "Active",
        "post_code": "LN2 5AX",
        "uprn": "Unknown"
    },
    {
        "org_id": "503RF",
        "name": "THE HAVEN NACRO EDUCATION CENTRE",
        "primary_role_id": "RO222",
        "role_ids": [
            "RO222"
        ],
        "status": "Active",
        "post_code": "PE21 6HE",
        "uprn": "Unknown"
    },
    {
        "org_id": "503RG",
        "name": "BAUMBER TEACHING AND LEARNING CENTRE",
        "primary_role_id": "RO222",
        "role_ids": [
            "RO222"
        ],
        "status": "Active",
        "post_code": "LN9 5ND",
        "uprn": "Unknown"
    },
    {
        "org_id": "503HF",
        "name": "TESCO",
        "primary_role_id": "RO222",
        "role_ids": [
            "RO222"
        ],
        "status": "Active",
        "post_code": "LN2 4QQ",
        "uprn": "Unknown"
    },
    {
        "org_id": "503HG",
        "name": "SOUTH PARK SURGERY",
        "primary_role_id": "RO222",
        "role_ids": [
            "RO222"
        ],
        "status": "Active",
        "post_code": "LN5 8LT",
        "uprn": "Unknown"
    },
    {
        "org_id": "503RH",
        "name": "GREETWELL - LINCOLN",
        "primary_role_id": "RO222",
        "role_ids": [
            "RO222"
        ],
        "status": "Active",
        "post_code": "LN2 4BD",
        "uprn": "Unknown"
    },
    {
        "org_id": "503RJ",
        "name": "COMMUNITY LEARNING IN PARTNERSHIP (CLIP)",
        "primary_role_id": "RO222",
        "role_ids": [
            "RO222"
        ],
        "status": "Active",
        "post_code": "LN12 2DR",
        "uprn": "Unknown"
    },
    {
        "org_id": "503HH",
        "name": "ST CHRISTOPHERS CHILDRENS CENTRE",
        "primary_role_id": "RO222",
        "role_ids": [
            "RO222"
        ],
        "status": "Active",
        "post_code": "PE21 8HY",
        "uprn": "Unknown"
    },
    {
        "org_id": "503RK",
        "name": "PORTLAND STREET KINDERGARTEN",
        "primary_role_id": "RO222",
        "role_ids": [
            "RO222"
        ],
        "status": "Active",
        "post_code": "LN5 7DB",
        "uprn": "Unknown"
    },
    {
        "org_id": "503RL",
        "name": "FIRST STEPS NURSERY",
        "primary_role_id": "RO222",
        "role_ids": [
            "RO222"
        ],
        "status": "Active",
        "post_code": "NG34 9FJ",
        "uprn": "Unknown"
    },
    {
        "org_id": "503HJ",
        "name": "KIRTON MEDICAL",
        "primary_role_id": "RO222",
        "role_ids": [
            "RO222"
        ],
        "status": "Active",
        "post_code": "PE20 1DS",
        "uprn": "Unknown"
    },
    {
        "org_id": "503RM",
        "name": "LONG BENNINGTON MEDICAL CENTRE",
        "primary_role_id": "RO222",
        "role_ids": [
            "RO222"
        ],
        "status": "Active",
        "post_code": "NG23 5FR",
        "uprn": "Unknown"
    },
    {
        "org_id": "503HK",
        "name": "LIQUORPOND SURGERY",
        "primary_role_id": "RO222",
        "role_ids": [
            "RO222"
        ],
        "status": "Active",
        "post_code": "PE21 8UE",
        "uprn": "Unknown"
    },
    {
        "org_id": "503RN",
        "name": "BOURNE GALLETLY PRACTICE",
        "primary_role_id": "RO222",
        "role_ids": [
            "RO222"
        ],
        "status": "Active",
        "post_code": "PE10 9BT",
        "uprn": "Unknown"
    },
    {
        "org_id": "503RP",
        "name": "PENNYGATE HEALTH CENTRE",
        "primary_role_id": "RO222",
        "role_ids": [
            "RO222"
        ],
        "status": "Active",
        "post_code": "PE11 1LT",
        "uprn": "Unknown"
    },
    {
        "org_id": "503RQ",
        "name": "GIRLS FRIENDLY SOCIETY(GFS)",
        "primary_role_id": "RO222",
        "role_ids": [
            "RO222"
        ],
        "status": "Active",
        "post_code": "PE25 3JZ",
        "uprn": "Unknown"
    },
    {
        "org_id": "503RR",
        "name": "ALBION HOUSE DAY NURSERY",
        "primary_role_id": "RO222",
        "role_ids": [
            "RO222"
        ],
        "status": "Active",
        "post_code": "NG31 8BG",
        "uprn": "Unknown"
    },
    {
        "org_id": "503RT",
        "name": "LITTLE LEAPS DAY NURSERY",
        "primary_role_id": "RO222",
        "role_ids": [
            "RO222"
        ],
        "status": "Active",
        "post_code": "NG31 8HQ",
        "uprn": "Unknown"
    },
    {
        "org_id": "503RV",
        "name": "METHERINGHAM VILLAGE HALL",
        "primary_role_id": "RO222",
        "role_ids": [
            "RO222"
        ],
        "status": "Active",
        "post_code": "LN4 3AA",
        "uprn": "Unknown"
    },
    {
        "org_id": "503RY",
        "name": "THE WILLOWS NURSERY",
        "primary_role_id": "RO222",
        "role_ids": [
            "RO222"
        ],
        "status": "Active",
        "post_code": "PE12 8LL",
        "uprn": "Unknown"
    },
    {
        "org_id": "503TA",
        "name": "CHERRY CHERRUBS",
        "primary_role_id": "RO222",
        "role_ids": [
            "RO222"
        ],
        "status": "Active",
        "post_code": "LN3 4GL",
        "uprn": "Unknown"
    },
    {
        "org_id": "503TC",
        "name": "CLIFF HOUSE",
        "primary_role_id": "RO222",
        "role_ids": [
            "RO222"
        ],
        "status": "Active",
        "post_code": "LN1 3LJ",
        "uprn": "Unknown"
    },
    {
        "org_id": "503TE",
        "name": "SLEAFORD DAY NURSERY",
        "primary_role_id": "RO222",
        "role_ids": [
            "RO222"
        ],
        "status": "Active",
        "post_code": "NG34 7AP",
        "uprn": "Unknown"
    },
    {
        "org_id": "503HL",
        "name": "NORFOLK LODGE CHILDRENS CENTRE",
        "primary_role_id": "RO222",
        "role_ids": [
            "RO222"
        ],
        "status": "Active",
        "post_code": "PE21 6PW",
        "uprn": "Unknown"
    },
    {
        "org_id": "503HM",
        "name": "GAINSBOROUGH CHILDRENS CENTRE",
        "primary_role_id": "RO222",
        "role_ids": [
            "RO222"
        ],
        "status": "Active",
        "post_code": "DN21 2DY",
        "uprn": "Unknown"
    },
    {
        "org_id": "503HN",
        "name": "MOORE HOUSE",
        "primary_role_id": "RO222",
        "role_ids": [
            "RO222"
        ],
        "status": "Active",
        "post_code": "LN2 5RS",
        "uprn": "Unknown"
    },
    {
        "org_id": "503HP",
        "name": "BRAMBLE HALL DAY NURSERY",
        "primary_role_id": "RO222",
        "role_ids": [
            "RO222"
        ],
        "status": "Active",
        "post_code": "PE20 2JH",
        "uprn": "Unknown"
    },
    {
        "org_id": "503HQ",
        "name": "BRANSTON CHURCH HALL",
        "primary_role_id": "RO222",
        "role_ids": [
            "RO222"
        ],
        "status": "Active",
        "post_code": "LN4 1LZ",
        "uprn": "Unknown"
    },
    {
        "org_id": "503HR",
        "name": "NETTLEHAM VILLAGE HALL",
        "primary_role_id": "RO222",
        "role_ids": [
            "RO222"
        ],
        "status": "Active",
        "post_code": "LN2 2SS",
        "uprn": "Unknown"
    },
    {
        "org_id": "503HT",
        "name": "BUSY BEE DAY NURSERY",
        "primary_role_id": "RO222",
        "role_ids": [
            "RO222"
        ],
        "status": "Active",
        "post_code": "LN5 7JZ",
        "uprn": "Unknown"
    },
    {
        "org_id": "503HV",
        "name": "KINGS LYNN SOCIAL SERVICES",
        "primary_role_id": "RO222",
        "role_ids": [
            "RO222"
        ],
        "status": "Active",
        "post_code": "PE30 1BG",
        "uprn": "Unknown"
    },
    {
        "org_id": "503HY",
        "name": "NEWARK ROAD SURGERY",
        "primary_role_id": "RO222",
        "role_ids": [
            "RO222"
        ],
        "status": "Active",
        "post_code": "LN6 8RT",
        "uprn": "Unknown"
    },
    {
        "org_id": "503JA",
        "name": "RICHMOND MEDICAL CENTRE",
        "primary_role_id": "RO222",
        "role_ids": [
            "RO222"
        ],
        "status": "Active",
        "post_code": "LN6 9AY",
        "uprn": "Unknown"
    },
    {
        "org_id": "503JC",
        "name": "CROSSROADS MEDICAL PRACTICE",
        "primary_role_id": "RO222",
        "role_ids": [
            "RO222"
        ],
        "status": "Active",
        "post_code": "LN6 8NH",
        "uprn": "Unknown"
    },
    {
        "org_id": "503JD",
        "name": "BOSTON FAMILY CENTRE",
        "primary_role_id": "RO222",
        "role_ids": [
            "RO222"
        ],
        "status": "Active",
        "post_code": "PE21 8JH",
        "uprn": "Unknown"
    },
    {
        "org_id": "503JE",
        "name": "WASHINGBOROUGH FAMILY PRACTICE",
        "primary_role_id": "RO222",
        "role_ids": [
            "RO222"
        ],
        "status": "Active",
        "post_code": "LN4 1BN",
        "uprn": "Unknown"
    },
    {
        "org_id": "503TF",
        "name": "CARLTON DAY NURSERY",
        "primary_role_id": "RO222",
        "role_ids": [
            "RO222"
        ],
        "status": "Active",
        "post_code": "LN2 4WA",
        "uprn": "Unknown"
    },
    {
        "org_id": "503TH",
        "name": "WOODLANDS NURSERY",
        "primary_role_id": "RO222",
        "role_ids": [
            "RO222"
        ],
        "status": "Active",
        "post_code": "LN10 6QZ",
        "uprn": "Unknown"
    },
    {
        "org_id": "503WD",
        "name": "GOSBERTON MEDICAL CENTRE",
        "primary_role_id": "RO222",
        "role_ids": [
            "RO222"
        ],
        "status": "Active",
        "post_code": "PE11 4NL",
        "uprn": "Unknown"
    },
    {
        "org_id": "503WE",
        "name": "CARHOLME COURT",
        "primary_role_id": "RO222",
        "role_ids": [
            "RO222"
        ],
        "status": "Active",
        "post_code": "LN1 1FS",
        "uprn": "Unknown"
    },
    {
        "org_id": "503WF",
        "name": "THE OLD BARRACKS",
        "primary_role_id": "RO222",
        "role_ids": [
            "RO222"
        ],
        "status": "Active",
        "post_code": "NG31 9AS",
        "uprn": "Unknown"
    },
    {
        "org_id": "503WG",
        "name": "SUNFLOWER LODGE CHILD CARE",
        "primary_role_id": "RO222",
        "role_ids": [
            "RO222"
        ],
        "status": "Active",
        "post_code": "PE11 3UL",
        "uprn": "Unknown"
    },
    {
        "org_id": "503WH",
        "name": "KIRTON FIRE STATION",
        "primary_role_id": "RO222",
        "role_ids": [
            "RO222"
        ],
        "status": "Active",
        "post_code": "PE20 1EF",
        "uprn": "Unknown"
    },
    {
        "org_id": "503WJ",
        "name": "PILGRIM SCHOOL",
        "primary_role_id": "RO222",
        "role_ids": [
            "RO222"
        ],
        "status": "Active",
        "post_code": "PE20 3RF",
        "uprn": "Unknown"
    },
    {
        "org_id": "503WK",
        "name": "WRAGBY PRIMARY SCHOOL - HANSARDS HIVE",
        "primary_role_id": "RO222",
        "role_ids": [
            "RO222"
        ],
        "status": "Active",
        "post_code": "LN8 5PJ",
        "uprn": "Unknown"
    },
    {
        "org_id": "503WL",
        "name": "SPRING NURSERY",
        "primary_role_id": "RO222",
        "role_ids": [
            "RO222"
        ],
        "status": "Active",
        "post_code": "LN5 9NJ",
        "uprn": "Unknown"
    },
    {
        "org_id": "616AA",
        "name": "READING CIVIC OFFICES",
        "primary_role_id": "RO222",
        "role_ids": [
            "RO222"
        ],
        "status": "Active",
        "post_code": "RG1 2LU",
        "uprn": "Unknown"
    },
    {
        "org_id": "508AA",
        "name": "COUNTY HALL",
        "primary_role_id": "RO222",
        "role_ids": [
            "RO222"
        ],
        "status": "Active",
        "post_code": "LE3 8RA",
        "uprn": "Unknown"
    },
    {
        "org_id": "508AC",
        "name": "ROMULUS COURT",
        "primary_role_id": "RO222",
        "role_ids": [
            "RO222"
        ],
        "status": "Active",
        "post_code": "LE19 1YG",
        "uprn": "Unknown"
    },
    {
        "org_id": "503TJ",
        "name": "ANCASTER VILLAGE NURSERY",
        "primary_role_id": "RO222",
        "role_ids": [
            "RO222"
        ],
        "status": "Active",
        "post_code": "NG32 3PP",
        "uprn": "Unknown"
    },
    {
        "org_id": "503TK",
        "name": "HEREWARD HALL",
        "primary_role_id": "RO222",
        "role_ids": [
            "RO222"
        ],
        "status": "Active",
        "post_code": "PE15 8NE",
        "uprn": "Unknown"
    },
    {
        "org_id": "503TL",
        "name": "LITTLE CHERUBS NURSERY",
        "primary_role_id": "RO222",
        "role_ids": [
            "RO222"
        ],
        "status": "Active",
        "post_code": "PE9 1PG",
        "uprn": "Unknown"
    },
    {
        "org_id": "503TM",
        "name": "WELLAND WORKSPACE",
        "primary_role_id": "RO222",
        "role_ids": [
            "RO222"
        ],
        "status": "Active",
        "post_code": "PE11 1QD",
        "uprn": "Unknown"
    },
    {
        "org_id": "503TP",
        "name": "MYLE CROSS CENTRE",
        "primary_role_id": "RO222",
        "role_ids": [
            "RO222"
        ],
        "status": "Active",
        "post_code": "LN2 4EL",
        "uprn": "Unknown"
    },
    {
        "org_id": "503JF",
        "name": "THE BOATHOUSE BUSINESS CENTRE",
        "primary_role_id": "RO222",
        "role_ids": [
            "RO222"
        ],
        "status": "Active",
        "post_code": "PE13 3BH",
        "uprn": "Unknown"
    },
    {
        "org_id": "503JG",
        "name": "PETERBOROUGH CITY HOSPITAL",
        "primary_role_id": "RO222",
        "role_ids": [
            "RO222"
        ],
        "status": "Active",
        "post_code": "PE3 9GZ",
        "uprn": "Unknown"
    },
    {
        "org_id": "503JH",
        "name": "BIRCHWOOD CHILDRENS CENTRE",
        "primary_role_id": "RO222",
        "role_ids": [
            "RO222"
        ],
        "status": "Active",
        "post_code": "LN6 0JE",
        "uprn": "Unknown"
    },
    {
        "org_id": "503JJ",
        "name": "CORONATION HALL",
        "primary_role_id": "RO222",
        "role_ids": [
            "RO222"
        ],
        "status": "Active",
        "post_code": "LN10 6PZ",
        "uprn": "Unknown"
    },
    {
        "org_id": "503JK",
        "name": "PEGASUS CHILD CARE CENTRE",
        "primary_role_id": "RO222",
        "role_ids": [
            "RO222"
        ],
        "status": "Active",
        "post_code": "LN8 3TA",
        "uprn": "Unknown"
    },
    {
        "org_id": "503JM",
        "name": "SPRINGFIELD LODGE MONTESSORI DAY NURSERY",
        "primary_role_id": "RO222",
        "role_ids": [
            "RO222"
        ],
        "status": "Active",
        "post_code": "DN33 3LE",
        "uprn": "Unknown"
    },
    {
        "org_id": "503JN",
        "name": "LITTLE MUCHKINS KINDERGARTON",
        "primary_role_id": "RO222",
        "role_ids": [
            "RO222"
        ],
        "status": "Active",
        "post_code": "PE11 2XA",
        "uprn": "Unknown"
    },
    {
        "org_id": "503JP",
        "name": "MABLETHORPE FIRST COLLEGE",
        "primary_role_id": "RO222",
        "role_ids": [
            "RO222"
        ],
        "status": "Active",
        "post_code": "LN12 2DT",
        "uprn": "Unknown"
    },
    {
        "org_id": "503JT",
        "name": "BUILDING BLOCKS KINDERGARTON",
        "primary_role_id": "RO222",
        "role_ids": [
            "RO222"
        ],
        "status": "Active",
        "post_code": "PE10 9NS",
        "uprn": "Unknown"
    },
    {
        "org_id": "503JV",
        "name": "ALFORD CHILDRENS CENTRE",
        "primary_role_id": "RO222",
        "role_ids": [
            "RO222"
        ],
        "status": "Active",
        "post_code": "LN13 9PS",
        "uprn": "Unknown"
    },
    {
        "org_id": "503JY",
        "name": "SMALL SAINT PRE-SCHOOL",
        "primary_role_id": "RO222",
        "role_ids": [
            "RO222"
        ],
        "status": "Active",
        "post_code": "PE12 7ED",
        "uprn": "Unknown"
    },
    {
        "org_id": "503KA",
        "name": "ROSEBERRY HOUSE FAMILY CENTRE",
        "primary_role_id": "RO222",
        "role_ids": [
            "RO222"
        ],
        "status": "Active",
        "post_code": "PE25 3HA",
        "uprn": "Unknown"
    },
    {
        "org_id": "503KC",
        "name": "CHURCH WALK SURGERY",
        "primary_role_id": "RO222",
        "role_ids": [
            "RO222"
        ],
        "status": "Active",
        "post_code": "LN4 3EZ",
        "uprn": "Unknown"
    },
    {
        "org_id": "503KD",
        "name": "EASTFIELD HOUSE",
        "primary_role_id": "RO222",
        "role_ids": [
            "RO222"
        ],
        "status": "Active",
        "post_code": "LN11 7AN",
        "uprn": "Unknown"
    },
    {
        "org_id": "503KE",
        "name": "VIRGINIA HOUSE",
        "primary_role_id": "RO222",
        "role_ids": [
            "RO222"
        ],
        "status": "Active",
        "post_code": "LN11 8BD",
        "uprn": "Unknown"
    },
    {
        "org_id": "503KF",
        "name": "TOWN AND COUNTRY KIDDIES NURSERY",
        "primary_role_id": "RO222",
        "role_ids": [
            "RO222"
        ],
        "status": "Active",
        "post_code": "LN11 0JW",
        "uprn": "Unknown"
    },
    {
        "org_id": "503KG",
        "name": "MABLETHORPE INTERAGENCY CENTRE",
        "primary_role_id": "RO222",
        "role_ids": [
            "RO222"
        ],
        "status": "Active",
        "post_code": "LN12 1DP",
        "uprn": "Unknown"
    },
    {
        "org_id": "503KH",
        "name": "FISHTOFT ROAD CHILDRENS CENTRE",
        "primary_role_id": "RO222",
        "role_ids": [
            "RO222"
        ],
        "status": "Active",
        "post_code": "PE21 0AA",
        "uprn": "Unknown"
    },
    {
        "org_id": "503KJ",
        "name": "SWINESHEAD MEDICAL CENTRE",
        "primary_role_id": "RO222",
        "role_ids": [
            "RO222"
        ],
        "status": "Active",
        "post_code": "PE20 3JE",
        "uprn": "Unknown"
    },
    {
        "org_id": "503KK",
        "name": "KIDGATE SURGERY",
        "primary_role_id": "RO222",
        "role_ids": [
            "RO222"
        ],
        "status": "Active",
        "post_code": "LN11 9AU",
        "uprn": "Unknown"
    },
    {
        "org_id": "503KL",
        "name": "LITTLE ACORNS",
        "primary_role_id": "RO222",
        "role_ids": [
            "RO222"
        ],
        "status": "Active",
        "post_code": "PE21 6DA",
        "uprn": "Unknown"
    },
    {
        "org_id": "503KM",
        "name": "BARDNEY PRE-SCHOOL",
        "primary_role_id": "RO222",
        "role_ids": [
            "RO222"
        ],
        "status": "Active",
        "post_code": "LN3 5TL",
        "uprn": "Unknown"
    },
    {
        "org_id": "503KN",
        "name": "GRANTHAM SOCIAL SERVICES OFFICE",
        "primary_role_id": "RO222",
        "role_ids": [
            "RO222"
        ],
        "status": "Active",
        "post_code": "NG31 6NZ",
        "uprn": "Unknown"
    },
    {
        "org_id": "503KP",
        "name": "THE LIBRARY EDUCATION CENTRE",
        "primary_role_id": "RO222",
        "role_ids": [
            "RO222"
        ],
        "status": "Active",
        "post_code": "PE1 1RX",
        "uprn": "Unknown"
    },
    {
        "org_id": "503KQ",
        "name": "THE GUILDHALL",
        "primary_role_id": "RO222",
        "role_ids": [
            "RO222"
        ],
        "status": "Active",
        "post_code": "DN21 2NA",
        "uprn": "Unknown"
    },
    {
        "org_id": "503KR",
        "name": "LONGWOOD HOUSE",
        "primary_role_id": "RO222",
        "role_ids": [
            "RO222"
        ],
        "status": "Active",
        "post_code": "DN21 1QB",
        "uprn": "Unknown"
    },
    {
        "org_id": "503KT",
        "name": "HORNCASTLE AREA OFFICE",
        "primary_role_id": "RO222",
        "role_ids": [
            "RO222"
        ],
        "status": "Active",
        "post_code": "LN9 6AQ",
        "uprn": "Unknown"
    },
    {
        "org_id": "503KV",
        "name": "LINCOLN AREA OFFICE",
        "primary_role_id": "RO222",
        "role_ids": [
            "RO222"
        ],
        "status": "Active",
        "post_code": "LN1 1BA",
        "uprn": "Unknown"
    },
    {
        "org_id": "503KY",
        "name": "RICHMOND HOUSE",
        "primary_role_id": "RO222",
        "role_ids": [
            "RO222"
        ],
        "status": "Active",
        "post_code": "LN6 8QY",
        "uprn": "Unknown"
    },
    {
        "org_id": "503LC",
        "name": "VISTA",
        "primary_role_id": "RO222",
        "role_ids": [
            "RO222"
        ],
        "status": "Active",
        "post_code": "PE11 2RA",
        "uprn": "Unknown"
    },
    {
        "org_id": "503LD",
        "name": "LINCOLNSHIRE COUNTY COUNCIL",
        "primary_role_id": "RO222",
        "role_ids": [
            "RO222"
        ],
        "status": "Active",
        "post_code": "PE9 2YN",
        "uprn": "Unknown"
    },
    {
        "org_id": "503LE",
        "name": "CLIFF VILLAGES MEDICAL PRACTICE",
        "primary_role_id": "RO222",
        "role_ids": [
            "RO222"
        ],
        "status": "Active",
        "post_code": "LN5 0JJ",
        "uprn": "Unknown"
    },
    {
        "org_id": "503LF",
        "name": "BASSINGHAM SURGERY",
        "primary_role_id": "RO222",
        "role_ids": [
            "RO222"
        ],
        "status": "Active",
        "post_code": "LN5 9HF",
        "uprn": "Unknown"
    },
    {
        "org_id": "503LG",
        "name": "HARTSHOLME FAMILY CENTRE",
        "primary_role_id": "RO222",
        "role_ids": [
            "RO222"
        ],
        "status": "Active",
        "post_code": "LN6 0DE",
        "uprn": "Unknown"
    },
    {
        "org_id": "503LH",
        "name": "GREETWELL HOLLOW DAY NURSERY",
        "primary_role_id": "RO222",
        "role_ids": [
            "RO222"
        ],
        "status": "Active",
        "post_code": "LN2 4AG",
        "uprn": "Unknown"
    },
    {
        "org_id": "503LJ",
        "name": "FLEUR DE LYS PRESCHOOL",
        "primary_role_id": "RO222",
        "role_ids": [
            "RO222"
        ],
        "status": "Active",
        "post_code": "LN1 2QP",
        "uprn": "Unknown"
    },
    {
        "org_id": "503LK",
        "name": "SUNFLOWERS NURSERY",
        "primary_role_id": "RO222",
        "role_ids": [
            "RO222"
        ],
        "status": "Active",
        "post_code": "LN1 2PE",
        "uprn": "Unknown"
    },
    {
        "org_id": "503LL",
        "name": "LITTLE TREASURES DAY NURSERY",
        "primary_role_id": "RO222",
        "role_ids": [
            "RO222"
        ],
        "status": "Active",
        "post_code": "PE25 2AG",
        "uprn": "Unknown"
    },
    {
        "org_id": "503LM",
        "name": "TEDDY BEARS DAY NURSERY",
        "primary_role_id": "RO222",
        "role_ids": [
            "RO222"
        ],
        "status": "Active",
        "post_code": "LN4 2PZ",
        "uprn": "Unknown"
    },
    {
        "org_id": "503LN",
        "name": "WELLIES PRE SCHOOL",
        "primary_role_id": "RO222",
        "role_ids": [
            "RO222"
        ],
        "status": "Active",
        "post_code": "LN9 5AH",
        "uprn": "Unknown"
    },
    {
        "org_id": "503LP",
        "name": "SCAMPTON PLAYMATES",
        "primary_role_id": "RO222",
        "role_ids": [
            "RO222"
        ],
        "status": "Active",
        "post_code": "LN1 2TR",
        "uprn": "Unknown"
    },
    {
        "org_id": "503LQ",
        "name": "ANGELS CHILDCARE",
        "primary_role_id": "RO222",
        "role_ids": [
            "RO222"
        ],
        "status": "Active",
        "post_code": "LN6 3TA",
        "uprn": "Unknown"
    },
    {
        "org_id": "503LR",
        "name": "RAF CRANWELL KIDZONE",
        "primary_role_id": "RO222",
        "role_ids": [
            "RO222"
        ],
        "status": "Active",
        "post_code": "NG34 8HB",
        "uprn": "Unknown"
    },
    {
        "org_id": "503LT",
        "name": "BOSTON ABC NURSERY",
        "primary_role_id": "RO222",
        "role_ids": [
            "RO222"
        ],
        "status": "Active",
        "post_code": "PE21 6ST",
        "uprn": "Unknown"
    },
    {
        "org_id": "503LV",
        "name": "BUCKNALL BUNNIES NURSERY",
        "primary_role_id": "RO222",
        "role_ids": [
            "RO222"
        ],
        "status": "Active",
        "post_code": "LN10 5DT",
        "uprn": "Unknown"
    },
    {
        "org_id": "503LY",
        "name": "BEARHUGS DAYCARE NURSERY",
        "primary_role_id": "RO222",
        "role_ids": [
            "RO222"
        ],
        "status": "Active",
        "post_code": "PE23 5HD",
        "uprn": "Unknown"
    },
    {
        "org_id": "503MA",
        "name": "BUSIBODIES DAY NURSERY",
        "primary_role_id": "RO222",
        "role_ids": [
            "RO222"
        ],
        "status": "Active",
        "post_code": "PE25 3ST",
        "uprn": "Unknown"
    },
    {
        "org_id": "503MC",
        "name": "CHEEKY MONKEY'S DAY NURSERY",
        "primary_role_id": "RO222",
        "role_ids": [
            "RO222"
        ],
        "status": "Active",
        "post_code": "LN7 6PH",
        "uprn": "Unknown"
    },
    {
        "org_id": "503MD",
        "name": "FRAMPTON COMMUNITY PRE-SCHOOL",
        "primary_role_id": "RO222",
        "role_ids": [
            "RO222"
        ],
        "status": "Active",
        "post_code": "PE20 1AW",
        "uprn": "Unknown"
    },
    {
        "org_id": "503ME",
        "name": "GIPSEY BRIDGE PRE-SCHOOL",
        "primary_role_id": "RO222",
        "role_ids": [
            "RO222"
        ],
        "status": "Active",
        "post_code": "PE22 7BU",
        "uprn": "Unknown"
    },
    {
        "org_id": "503MF",
        "name": "GAPA NURSERY",
        "primary_role_id": "RO222",
        "role_ids": [
            "RO222"
        ],
        "status": "Active",
        "post_code": "DN21 1NL",
        "uprn": "Unknown"
    },
    {
        "org_id": "503MG",
        "name": "BOSTON HOLY TRINITY PRE-SCHOOL",
        "primary_role_id": "RO222",
        "role_ids": [
            "RO222"
        ],
        "status": "Active",
        "post_code": "PE21 9NS",
        "uprn": "Unknown"
    },
    {
        "org_id": "503MH",
        "name": "HAPPY DAYS NURSERY",
        "primary_role_id": "RO222",
        "role_ids": [
            "RO222"
        ],
        "status": "Active",
        "post_code": "DN21 4BY",
        "uprn": "Unknown"
    },
    {
        "org_id": "503MJ",
        "name": "BOSTON HOME NURSERY",
        "primary_role_id": "RO222",
        "role_ids": [
            "RO222"
        ],
        "status": "Active",
        "post_code": "PE21 8SP",
        "uprn": "Unknown"
    },
    {
        "org_id": "503MK",
        "name": "SKEGNESS LITTLE LEARNERS PRE-SCHOOL",
        "primary_role_id": "RO222",
        "role_ids": [
            "RO222"
        ],
        "status": "Active",
        "post_code": "PE25 2DR",
        "uprn": "Unknown"
    },
    {
        "org_id": "503ML",
        "name": "SKEGNESS LITTLE LEARNERS NURSERY",
        "primary_role_id": "RO222",
        "role_ids": [
            "RO222"
        ],
        "status": "Active",
        "post_code": "PE25 2AP",
        "uprn": "Unknown"
    },
    {
        "org_id": "503MM",
        "name": "KIRTON LITTLE EXPLORERS NURSERY",
        "primary_role_id": "RO222",
        "role_ids": [
            "RO222"
        ],
        "status": "Active",
        "post_code": "PE20 1EH",
        "uprn": "Unknown"
    },
    {
        "org_id": "503MN",
        "name": "BOSTON MON-AMI DAY NURSERY",
        "primary_role_id": "RO222",
        "role_ids": [
            "RO222"
        ],
        "status": "Active",
        "post_code": "PE21 8BB",
        "uprn": "Unknown"
    },
    {
        "org_id": "503MP",
        "name": "SWINESHEAD MON-AMI DAY NURSERY",
        "primary_role_id": "RO222",
        "role_ids": [
            "RO222"
        ],
        "status": "Active",
        "post_code": "PE20 3LH",
        "uprn": "Unknown"
    },
    {
        "org_id": "503MQ",
        "name": "WRAGBY MON-AMI DAY NURSERY",
        "primary_role_id": "RO222",
        "role_ids": [
            "RO222"
        ],
        "status": "Active",
        "post_code": "LN8 5RA",
        "uprn": "Unknown"
    },
    {
        "org_id": "503MR",
        "name": "ALFORD MON-AMI DAY NURSERY",
        "primary_role_id": "RO222",
        "role_ids": [
            "RO222"
        ],
        "status": "Active",
        "post_code": "LN13 9EQ",
        "uprn": "Unknown"
    },
    {
        "org_id": "503MT",
        "name": "GAINSBOROUGH MEYNELL KINDERGARTEN",
        "primary_role_id": "RO222",
        "role_ids": [
            "RO222"
        ],
        "status": "Active",
        "post_code": "DN21 3PS",
        "uprn": "Unknown"
    },
    {
        "org_id": "503MV",
        "name": "TRINITY DAY NURSERY",
        "primary_role_id": "RO222",
        "role_ids": [
            "RO222"
        ],
        "status": "Active",
        "post_code": "DN21 1JN",
        "uprn": "Unknown"
    },
    {
        "org_id": "503MY",
        "name": "WHITE HOUSE FARM DAY NURSERY",
        "primary_role_id": "RO222",
        "role_ids": [
            "RO222"
        ],
        "status": "Active",
        "post_code": "NG32 2EN",
        "uprn": "Unknown"
    },
    {
        "org_id": "503NA",
        "name": "HILL HOLT WOOD",
        "primary_role_id": "RO222",
        "role_ids": [
            "RO222"
        ],
        "status": "Active",
        "post_code": "LN6 9JP",
        "uprn": "Unknown"
    },
    {
        "org_id": "503NC",
        "name": "THE CHILDRENS GARDEN NURSERY",
        "primary_role_id": "RO222",
        "role_ids": [
            "RO222"
        ],
        "status": "Active",
        "post_code": "PE9 1PJ",
        "uprn": "Unknown"
    },
    {
        "org_id": "503ND",
        "name": "PARKSIDE MEDICAL CENTRE",
        "primary_role_id": "RO222",
        "role_ids": [
            "RO222"
        ],
        "status": "Active",
        "post_code": "PE21 6PF",
        "uprn": "Unknown"
    },
    {
        "org_id": "503NE",
        "name": "NEW TRIBES MISSION",
        "primary_role_id": "RO222",
        "role_ids": [
            "RO222"
        ],
        "status": "Active",
        "post_code": "DN36 5XU",
        "uprn": "Unknown"
    },
    {
        "org_id": "503NF",
        "name": "MANBY SURGERY",
        "primary_role_id": "RO222",
        "role_ids": [
            "RO222"
        ],
        "status": "Active",
        "post_code": "LN11 8EB",
        "uprn": "Unknown"
    },
    {
        "org_id": "503NG",
        "name": "NORTH SOMERCOATES SURGERY",
        "primary_role_id": "RO222",
        "role_ids": [
            "RO222"
        ],
        "status": "Active",
        "post_code": "LN11 7QU",
        "uprn": "Unknown"
    },
    {
        "org_id": "503NH",
        "name": "HOLTON-LE-CLAY SURGERY",
        "primary_role_id": "RO222",
        "role_ids": [
            "RO222"
        ],
        "status": "Active",
        "post_code": "DN36 5YS",
        "uprn": "Unknown"
    },
    {
        "org_id": "503NJ",
        "name": "REDHEN NURSERY",
        "primary_role_id": "RO222",
        "role_ids": [
            "RO222"
        ],
        "status": "Active",
        "post_code": "LN11 8LS",
        "uprn": "Unknown"
    },
    {
        "org_id": "503NK",
        "name": "RAINBOW CORNER NURSERY",
        "primary_role_id": "RO222",
        "role_ids": [
            "RO222"
        ],
        "status": "Active",
        "post_code": "DN36 5DH",
        "uprn": "Unknown"
    },
    {
        "org_id": "503NL",
        "name": "THE ST FRANCIS SPECIAL SCHOOL",
        "primary_role_id": "RO222",
        "role_ids": [
            "RO222"
        ],
        "status": "Active",
        "post_code": "LN1 3TJ",
        "uprn": "Unknown"
    },
    {
        "org_id": "503NM",
        "name": "ADDACTION",
        "primary_role_id": "RO222",
        "role_ids": [
            "RO222"
        ],
        "status": "Active",
        "post_code": "PE21 6RY",
        "uprn": "Unknown"
    },
    {
        "org_id": "503NN",
        "name": "SHEEPMARKET SURGERY",
        "primary_role_id": "RO222",
        "role_ids": [
            "RO222"
        ],
        "status": "Active",
        "post_code": "PE9 1YA",
        "uprn": "Unknown"
    },
    {
        "org_id": "503NP",
        "name": "SANDHILLS NURSERY",
        "primary_role_id": "RO222",
        "role_ids": [
            "RO222"
        ],
        "status": "Active",
        "post_code": "PE21 8EG",
        "uprn": "Unknown"
    },
    {
        "org_id": "503NQ",
        "name": "LILLIPUT DAY NURSERY",
        "primary_role_id": "RO222",
        "role_ids": [
            "RO222"
        ],
        "status": "Active",
        "post_code": "PE11 1TW",
        "uprn": "Unknown"
    },
    {
        "org_id": "503NR",
        "name": "GRANTHAM HEADSTART NURSERY",
        "primary_role_id": "RO222",
        "role_ids": [
            "RO222"
        ],
        "status": "Active",
        "post_code": "NG31 9AB",
        "uprn": "Unknown"
    },
    {
        "org_id": "503NT",
        "name": "MY NURSERY",
        "primary_role_id": "RO222",
        "role_ids": [
            "RO222"
        ],
        "status": "Active",
        "post_code": "NG31 6PB",
        "uprn": "Unknown"
    },
    {
        "org_id": "503NV",
        "name": "FAMILY CENTRE",
        "primary_role_id": "RO222",
        "role_ids": [
            "RO222"
        ],
        "status": "Active",
        "post_code": "NG31 7NY",
        "uprn": "Unknown"
    },
    {
        "org_id": "503NY",
        "name": "LILLYPUT DAY NURSERY",
        "primary_role_id": "RO222",
        "role_ids": [
            "RO222"
        ],
        "status": "Active",
        "post_code": "PE21 7TT",
        "uprn": "Unknown"
    },
    {
        "org_id": "503PA",
        "name": "DIANA PRINCESS OF WALES HOSPITAL",
        "primary_role_id": "RO222",
        "role_ids": [
            "RO222"
        ],
        "status": "Active",
        "post_code": "DN33 2BA",
        "uprn": "Unknown"
    },
    {
        "org_id": "503PC",
        "name": "LOUTH LIBRARY",
        "primary_role_id": "RO222",
        "role_ids": [
            "RO222"
        ],
        "status": "Active",
        "post_code": "LN11 0LY",
        "uprn": "Unknown"
    },
    {
        "org_id": "503PD",
        "name": "BUILD A FUTURE VOCATIONAL COLLEGE",
        "primary_role_id": "RO222",
        "role_ids": [
            "RO222"
        ],
        "status": "Active",
        "post_code": "LN9 5PT",
        "uprn": "Unknown"
    },
    {
        "org_id": "503PE",
        "name": "STS WILLOW TREE FARM",
        "primary_role_id": "RO222",
        "role_ids": [
            "RO222"
        ],
        "status": "Active",
        "post_code": "LN10 6XS",
        "uprn": "Unknown"
    },
    {
        "org_id": "503PF",
        "name": "RIVERSIDE EARLY YEARS PLAYGROUP",
        "primary_role_id": "RO222",
        "role_ids": [
            "RO222"
        ],
        "status": "Active",
        "post_code": "PE21 9JU",
        "uprn": "Unknown"
    },
    {
        "org_id": "503PG",
        "name": "OPPORTUNE ENGINEERS",
        "primary_role_id": "RO222",
        "role_ids": [
            "RO222"
        ],
        "status": "Active",
        "post_code": "PE22 7HD",
        "uprn": "Unknown"
    },
    {
        "org_id": "503PH",
        "name": "TOPGATE HOUSE",
        "primary_role_id": "RO222",
        "role_ids": [
            "RO222"
        ],
        "status": "Active",
        "post_code": "PE12 0BS",
        "uprn": "Unknown"
    },
    {
        "org_id": "503PJ",
        "name": "NUTWOOD DAY NURSERY",
        "primary_role_id": "RO222",
        "role_ids": [
            "RO222"
        ],
        "status": "Active",
        "post_code": "LN6 8RY",
        "uprn": "Unknown"
    },
    {
        "org_id": "503PK",
        "name": "SLEAFORD NEWLIFE PRE-SCHOOL",
        "primary_role_id": "RO222",
        "role_ids": [
            "RO222"
        ],
        "status": "Active",
        "post_code": "NG34 7JP",
        "uprn": "Unknown"
    },
    {
        "org_id": "503PL",
        "name": "LINCOLN UNIVERSITY TECHNOLOGY COLLEGE",
        "primary_role_id": "RO222",
        "role_ids": [
            "RO222"
        ],
        "status": "Active",
        "post_code": "LN2 1PF",
        "uprn": "Unknown"
    },
    {
        "org_id": "503PM",
        "name": "LITTLE TREASURES NURSERY",
        "primary_role_id": "RO222",
        "role_ids": [
            "RO222"
        ],
        "status": "Active",
        "post_code": "PE11 2XP",
        "uprn": "Unknown"
    },
    {
        "org_id": "503PN",
        "name": "PARK SCHOOL DAY NURSERY",
        "primary_role_id": "RO222",
        "role_ids": [
            "RO222"
        ],
        "status": "Active",
        "post_code": "LN6 9QS",
        "uprn": "Unknown"
    },
    {
        "org_id": "503PP",
        "name": "SWINESHEAD PRE-SCHOOL CENTRE",
        "primary_role_id": "RO222",
        "role_ids": [
            "RO222"
        ],
        "status": "Active",
        "post_code": "PE20 3LZ",
        "uprn": "Unknown"
    },
    {
        "org_id": "503PQ",
        "name": "FEN HOUSE",
        "primary_role_id": "RO222",
        "role_ids": [
            "RO222"
        ],
        "status": "Active",
        "post_code": "LN6 8UZ",
        "uprn": "Unknown"
    },
    {
        "org_id": "503PR",
        "name": "BAILGATE PRE-SCHOOL PLAYGROUP",
        "primary_role_id": "RO222",
        "role_ids": [
            "RO222"
        ],
        "status": "Active",
        "post_code": "LN1 3AR",
        "uprn": "Unknown"
    },
    {
        "org_id": "503TD",
        "name": "QUARRINGTON PRE-SCHOOL",
        "primary_role_id": "RO222",
        "role_ids": [
            "RO222"
        ],
        "status": "Active",
        "post_code": "NG34 7NB",
        "uprn": "Unknown"
    },
    {
        "org_id": "503EC",
        "name": "HOLTON LE CLAY CHILDRENS CENTRE",
        "primary_role_id": "RO222",
        "role_ids": [
            "RO222"
        ],
        "status": "Active",
        "post_code": "DN36 5DR",
        "uprn": "Unknown"
    },
    {
        "org_id": "503EF",
        "name": "NORTH HYKEHAM COUNCIL OFFICES",
        "primary_role_id": "RO222",
        "role_ids": [
            "RO222"
        ],
        "status": "Active",
        "post_code": "LN6 8EY",
        "uprn": "Unknown"
    },
    {
        "org_id": "503EM",
        "name": "RIVERSIDE SURGERY",
        "primary_role_id": "RO222",
        "role_ids": [
            "RO222"
        ],
        "status": "Active",
        "post_code": "NG34 7HD",
        "uprn": "Unknown"
    },
    {
        "org_id": "503ET",
        "name": "TATTERSHALL CHILDRENS CENTRE",
        "primary_role_id": "RO222",
        "role_ids": [
            "RO222"
        ],
        "status": "Active",
        "post_code": "LN4 4QZ",
        "uprn": "Unknown"
    },
    {
        "org_id": "503JL",
        "name": "LINCOLN - BEARHUGS NURSERY",
        "primary_role_id": "RO222",
        "role_ids": [
            "RO222"
        ],
        "status": "Active",
        "post_code": "LN4 4LJ",
        "uprn": "Unknown"
    },
    {
        "org_id": "503JQ",
        "name": "FIRST COLLEGE LINCS (LOUTH)",
        "primary_role_id": "RO222",
        "role_ids": [
            "RO222"
        ],
        "status": "Active",
        "post_code": "LN11 0JT",
        "uprn": "Unknown"
    },
    {
        "org_id": "503JR",
        "name": "BOSTON COLLEGE SPALDING",
        "primary_role_id": "RO222",
        "role_ids": [
            "RO222"
        ],
        "status": "Active",
        "post_code": "PE11 1WD",
        "uprn": "Unknown"
    },
    {
        "org_id": "503LA",
        "name": "COUNCIL OFFICES (SLEAFORD)",
        "primary_role_id": "RO222",
        "role_ids": [
            "RO222"
        ],
        "status": "Active",
        "post_code": "NG34 7EB",
        "uprn": "Unknown"
    },
    {
        "org_id": "503TG",
        "name": "PINCHBECK PENGUINS",
        "primary_role_id": "RO222",
        "role_ids": [
            "RO222"
        ],
        "status": "Active",
        "post_code": "PE11 3RA",
        "uprn": "Unknown"
    },
    {
        "org_id": "503TN",
        "name": "HORNCASTLE - BEARHUGS NURSERY",
        "primary_role_id": "RO222",
        "role_ids": [
            "RO222"
        ],
        "status": "Active",
        "post_code": "LN9 6DT",
        "uprn": "Unknown"
    },
    {
        "org_id": "511AA",
        "name": "MILLENNIUM WAY (DATA CENTRE)",
        "primary_role_id": "RO222",
        "role_ids": [
            "RO222"
        ],
        "status": "Active",
        "post_code": "DE24 8HZ",
        "uprn": "Unknown"
    },
    {
        "org_id": "112AA",
        "name": "RESOLUTION HOUSE",
        "primary_role_id": "RO222",
        "role_ids": [
            "RO222"
        ],
        "status": "Active",
        "post_code": "TS3 8AL",
        "uprn": "Unknown"
    },
    {
        "org_id": "511AC",
        "name": "COUNTY HALL",
        "primary_role_id": "RO222",
        "role_ids": [
            "RO222"
        ],
        "status": "Active",
        "post_code": "NG2 7QP",
        "uprn": "Unknown"
    },
    {
        "org_id": "812AA",
        "name": "HCC WINCHESTER DATA CENTRE",
        "primary_role_id": "RO222",
        "role_ids": [
            "RO222"
        ],
        "status": "Active",
        "post_code": "SO23 8UJ",
        "uprn": "Unknown"
    },
    {
        "org_id": "503VR",
        "name": "CINDERASH PRE SCHOOL (NURSERY)",
        "primary_role_id": "RO222",
        "role_ids": [
            "RO222"
        ],
        "status": "Active",
        "post_code": "PE12 9DJ",
        "uprn": "Unknown"
    },
    {
        "org_id": "109AA",
        "name": "SOUTH TYNESIDE COUNCIL (ROLLING MILL ROAD)",
        "primary_role_id": "RO222",
        "role_ids": [
            "RO222"
        ],
        "status": "Active",
        "post_code": "NE32 3DP",
        "uprn": "Unknown"
    },
    {
        "org_id": "503WM",
        "name": "BUSY BEAN CAFE",
        "primary_role_id": "RO222",
        "role_ids": [
            "RO222"
        ],
        "status": "Active",
        "post_code": "PE12 9JE",
        "uprn": "Unknown"
    },
    {
        "org_id": "503WN",
        "name": "PAPERMOON DAY NURSERY",
        "primary_role_id": "RO222",
        "role_ids": [
            "RO222"
        ],
        "status": "Active",
        "post_code": "LN6 0QQ",
        "uprn": "Unknown"
    },
    {
        "org_id": "205AA",
        "name": "CIVIC OFFICE",
        "primary_role_id": "RO222",
        "role_ids": [
            "RO222"
        ],
        "status": "Active",
        "post_code": "DN1 3BU",
        "uprn": "Unknown"
    },
    {
        "org_id": "205AC",
        "name": "COLONNADES",
        "primary_role_id": "RO222",
        "role_ids": [
            "RO222"
        ],
        "status": "Active",
        "post_code": "DN1 1ER",
        "uprn": "Unknown"
    },
    {
        "org_id": "817AA",
        "name": "WILTSHIRE COUNCIL PDC",
        "primary_role_id": "RO222",
        "role_ids": [
            "RO222"
        ],
        "status": "Active",
        "post_code": "BA14 8JN",
        "uprn": "Unknown"
    },
    {
        "org_id": "817AC",
        "name": "WILTSHIRE COUNCIL SDC",
        "primary_role_id": "RO222",
        "role_ids": [
            "RO222"
        ],
        "status": "Active",
        "post_code": "SN15 1ER",
        "uprn": "Unknown"
    },
    {
        "org_id": "609AA",
        "name": "SUFFOLK HEALTH WELLBEING & CHILDRENS SERVICES",
        "primary_role_id": "RO222",
        "role_ids": [
            "RO222"
        ],
        "status": "Active",
        "post_code": "IP1 2BX",
        "uprn": "Unknown"
    },
    {
        "org_id": "503VT",
        "name": "CAYTHORPE CHILDREN CENTRE",
        "primary_role_id": "RO222",
        "role_ids": [
            "RO222"
        ],
        "status": "Active",
        "post_code": "NG32 3DR",
        "uprn": "Unknown"
    },
    {
        "org_id": "503VV",
        "name": "HEMSWELL CLIFF CHILDRENS CENTRE",
        "primary_role_id": "RO222",
        "role_ids": [
            "RO222"
        ],
        "status": "Active",
        "post_code": "DN21 5XS",
        "uprn": "Unknown"
    },
    {
        "org_id": "503VW",
        "name": "KEILY HOUSE",
        "primary_role_id": "RO222",
        "role_ids": [
            "RO222"
        ],
        "status": "Active",
        "post_code": "LN11 8FG",
        "uprn": "Unknown"
    },
    {
        "org_id": "503VX",
        "name": "MABLETHORPE CHILDREN CENTRE",
        "primary_role_id": "RO222",
        "role_ids": [
            "RO222"
        ],
        "status": "Active",
        "post_code": "LN12 1DP",
        "uprn": "Unknown"
    },
    {
        "org_id": "503VY",
        "name": "MARKET DEEPING CHILDRENS CENTRE",
        "primary_role_id": "RO222",
        "role_ids": [
            "RO222"
        ],
        "status": "Active",
        "post_code": "PE6 8JE",
        "uprn": "Unknown"
    },
    {
        "org_id": "503AW",
        "name": "WADDINGTON CHILDREN CENTRE",
        "primary_role_id": "RO222",
        "role_ids": [
            "RO222"
        ],
        "status": "Active",
        "post_code": "LN5 9BN",
        "uprn": "Unknown"
    },
    {
        "org_id": "503AX",
        "name": "WASHINGBOROUGH CHILDREN CENTRE",
        "primary_role_id": "RO222",
        "role_ids": [
            "RO222"
        ],
        "status": "Active",
        "post_code": "LN4 1BW",
        "uprn": "Unknown"
    },
    {
        "org_id": "503CW",
        "name": "RIVERSIDE PLAYGROUP",
        "primary_role_id": "RO222",
        "role_ids": [
            "RO222"
        ],
        "status": "Active",
        "post_code": "LN11 0HG",
        "uprn": "Unknown"
    },
    {
        "org_id": "503CX",
        "name": "ANCASTER CHILDREN CENTRE",
        "primary_role_id": "RO222",
        "role_ids": [
            "RO222"
        ],
        "status": "Active",
        "post_code": "NG32 3QQ",
        "uprn": "Unknown"
    },
    {
        "org_id": "503DW",
        "name": "CROWLAND CHILDREN CENTRE",
        "primary_role_id": "RO222",
        "role_ids": [
            "RO222"
        ],
        "status": "Active",
        "post_code": "PE6 0JA",
        "uprn": "Unknown"
    },
    {
        "org_id": "503DX",
        "name": "NORTH HYKEHAM CHILDREN CENTRE LING MOOR",
        "primary_role_id": "RO222",
        "role_ids": [
            "RO222"
        ],
        "status": "Active",
        "post_code": "LN6 8QY",
        "uprn": "Unknown"
    },
    {
        "org_id": "503EW",
        "name": "OLD LEAKE CHILDREN CENTRE",
        "primary_role_id": "RO222",
        "role_ids": [
            "RO222"
        ],
        "status": "Active",
        "post_code": "PE22 9HR",
        "uprn": "Unknown"
    },
    {
        "org_id": "503EX",
        "name": "STURTON BY STOW CHILDREN CENTRE",
        "primary_role_id": "RO222",
        "role_ids": [
            "RO222"
        ],
        "status": "Active",
        "post_code": "LN1 2BY",
        "uprn": "Unknown"
    },
    {
        "org_id": "503FW",
        "name": "SUTTON BRIDGE CHILDREN CENTRE",
        "primary_role_id": "RO222",
        "role_ids": [
            "RO222"
        ],
        "status": "Active",
        "post_code": "PE12 9TB",
        "uprn": "Unknown"
    },
    {
        "org_id": "503FX",
        "name": "SWINESHEAD CHILDREN CENTRE",
        "primary_role_id": "RO222",
        "role_ids": [
            "RO222"
        ],
        "status": "Active",
        "post_code": "PE20 3EN",
        "uprn": "Unknown"
    },
    {
        "org_id": "503GW",
        "name": "WELTON CHILDREN CENTRE",
        "primary_role_id": "RO222",
        "role_ids": [
            "RO222"
        ],
        "status": "Active",
        "post_code": "LN2 3JB",
        "uprn": "Unknown"
    },
    {
        "org_id": "503GX",
        "name": "WITHAM ST HUGHS CHILDREN CENTRE",
        "primary_role_id": "RO222",
        "role_ids": [
            "RO222"
        ],
        "status": "Active",
        "post_code": "LN6 9WF",
        "uprn": "Unknown"
    },
    {
        "org_id": "503HW",
        "name": "LITTLE PUDDING NURSERY",
        "primary_role_id": "RO222",
        "role_ids": [
            "RO222"
        ],
        "status": "Active",
        "post_code": "LN6 0UL",
        "uprn": "Unknown"
    },
    {
        "org_id": "503HX",
        "name": "ORCHARD HOUSE",
        "primary_role_id": "RO222",
        "role_ids": [
            "RO222"
        ],
        "status": "Active",
        "post_code": "LN1 1BA",
        "uprn": "Unknown"
    },
    {
        "org_id": "503JW",
        "name": "ST. GILES FAMILY CENTRE",
        "primary_role_id": "RO222",
        "role_ids": [
            "RO222"
        ],
        "status": "Active",
        "post_code": "LN2 4EG",
        "uprn": "Unknown"
    },
    {
        "org_id": "326AA",
        "name": "KELLY HOUSE",
        "primary_role_id": "RO222",
        "role_ids": [
            "RO222"
        ],
        "status": "Active",
        "post_code": "CH1 4QL",
        "uprn": "10023846397"
    },
    {
        "org_id": "807AA",
        "name": "WSCC DATA CENTRE",
        "primary_role_id": "RO222",
        "role_ids": [
            "RO222"
        ],
        "status": "Active",
        "post_code": "PO19 8UJ",
        "uprn": "10091872146"
    },
    {
        "org_id": "213AC",
        "name": "WAKEFIELD DISTRICT SAFEGUARDING CHILDREN'S BOARD",
        "primary_role_id": "RO222",
        "role_ids": [
            "RO222"
        ],
        "status": "Active",
        "post_code": "WF1 2QW",
        "uprn": "10091863574"
    },
    {
        "org_id": "908AD",
        "name": "KINGSMEAD BT EXCHANGE",
        "primary_role_id": "RO222",
        "role_ids": [
            "RO222"
        ],
        "status": "Active",
        "post_code": "BA1 2AL",
        "uprn": "10001123130"
    },
    {
        "org_id": "908AE",
        "name": "KEYNSHAM CIVIC CENTRE",
        "primary_role_id": "RO222",
        "role_ids": [
            "RO222"
        ],
        "status": "Active",
        "post_code": "BS31 1FS",
        "uprn": "10091546108"
    },
    {
        "org_id": "618AA",
        "name": "ROYAL BOROUGH OF WINDSOR & MAIDENHEAD- TINKERS LANE",
        "primary_role_id": "RO222",
        "role_ids": [
            "RO222"
        ],
        "status": "Active",
        "post_code": "SL4 4LR",
        "uprn": "Unknown"
    },
    {
        "org_id": "611AC",
        "name": "EQUINIX MANCHESTER",
        "primary_role_id": "RO222",
        "role_ids": [
            "RO222"
        ],
        "status": "Active",
        "post_code": "M15 5RL",
        "uprn": "10090665978"
    },
    {
        "org_id": "213AH",
        "name": "BRADFORD L&D",
        "primary_role_id": "RO222",
        "role_ids": [
            "RO222"
        ],
        "status": "Active",
        "post_code": "BD5 0DX",
        "uprn": "10010583399"
    },
    {
        "org_id": "503WA",
        "name": "SPINNING TOPS DAY NURSERY",
        "primary_role_id": "RO222",
        "role_ids": [
            "RO222"
        ],
        "status": "Active",
        "post_code": "PE25 2AG",
        "uprn": "Unknown"
    },
    {
        "org_id": "503WC",
        "name": "THE CHAPPELL CENTRE SPALDING",
        "primary_role_id": "RO222",
        "role_ids": [
            "RO222"
        ],
        "status": "Active",
        "post_code": "PE11 1QF",
        "uprn": "Unknown"
    },
    {
        "org_id": "214AA",
        "name": "COUNTY HALL",
        "primary_role_id": "RO222",
        "role_ids": [
            "RO222"
        ],
        "status": "Active",
        "post_code": "HU17 9BA",
        "uprn": "Unknown"
    },
    {
        "org_id": "615AA",
        "name": "MARKET STREET COUNCIL OFFICES",
        "primary_role_id": "RO222",
        "role_ids": [
            "RO222"
        ],
        "status": "Active",
        "post_code": "RG14 5LD",
        "uprn": "Unknown"
    },
    {
        "org_id": "213AD",
        "name": "WAKEFIELD L&D",
        "primary_role_id": "RO222",
        "role_ids": [
            "RO222"
        ],
        "status": "Active",
        "post_code": "WF6 2DZ",
        "uprn": "63156882"
    },
    {
        "org_id": "213AE",
        "name": "CALDERDALE L&D",
        "primary_role_id": "RO222",
        "role_ids": [
            "RO222"
        ],
        "status": "Active",
        "post_code": "HX1 5TW",
        "uprn": "10010188638"
    },
    {
        "org_id": "213AF",
        "name": "KIRKLEES L&D",
        "primary_role_id": "RO222",
        "role_ids": [
            "RO222"
        ],
        "status": "Active",
        "post_code": "HD1 2NJ",
        "uprn": "Unknown"
    },
    {
        "org_id": "213AG",
        "name": "LEEDS L&D",
        "primary_role_id": "RO222",
        "role_ids": [
            "RO222"
        ],
        "status": "Active",
        "post_code": "LS11 8BU",
        "uprn": "Unknown"
    },
    {
        "org_id": "212AC",
        "name": "LEEDS CITY COUNCIL ADULTS AND HEALTH",
        "primary_role_id": "RO222",
        "role_ids": [
            "RO222"
        ],
        "status": "Active",
        "post_code": "LS2 8BB",
        "uprn": "Unknown"
    },
    {
        "org_id": "413AC",
        "name": "STAFFORDSHIRE COUNTY COUNCIL - EASTGATE STREET DATA CENTRE",
        "primary_role_id": "RO222",
        "role_ids": [
            "RO222"
        ],
        "status": "Active",
        "post_code": "ST16 2LZ",
        "uprn": "Unknown"
    },
    {
        "org_id": "106AA",
        "name": "CIVIC CENTRE",
        "primary_role_id": "RO222",
        "role_ids": [
            "RO222"
        ],
        "status": "Active",
        "post_code": "NE8 1HH",
        "uprn": "10091819139"
    },
    {
        "org_id": "735AA",
        "name": "THE CENTRAL LIBRARY",
        "primary_role_id": "RO222",
        "role_ids": [
            "RO222"
        ],
        "status": "Active",
        "post_code": "E17 7JN",
        "uprn": "100022983155"
    },
    {
        "org_id": "819AA",
        "name": "ON TRAK",
        "primary_role_id": "RO222",
        "role_ids": [
            "RO222"
        ],
        "status": "Active",
        "post_code": "SN1 2SG",
        "uprn": "10010426075"
    },
    {
        "org_id": "106AC",
        "name": "NORTHERN DESIGN CENTRE",
        "primary_role_id": "RO222",
        "role_ids": [
            "RO222"
        ],
        "status": "Active",
        "post_code": "NE8 3DF",
        "uprn": "Unknown"
    },
    {
        "org_id": "206AA",
        "name": "AUTISM INFORMATION AND ADVICE SERVICE",
        "primary_role_id": "RO222",
        "role_ids": [
            "RO222"
        ],
        "status": "Active",
        "post_code": "S61 1HE",
        "uprn": "Unknown"
    },
    {
        "org_id": "212AD",
        "name": "LEEDS CITY COUNCIL APEX DATACENTRE",
        "primary_role_id": "RO222",
        "role_ids": [
            "RO222"
        ],
        "status": "Active",
        "post_code": "LS11 5LT",
        "uprn": "72726423"
    },
    {
        "org_id": "416AC",
        "name": "WORCESTERSHIRE COUNTY COUNCIL - WILDWOOD",
        "primary_role_id": "RO222",
        "role_ids": [
            "RO222"
        ],
        "status": "Active",
        "post_code": "WR5 2QT",
        "uprn": "10090445315"
    },
    {
        "org_id": "815AC",
        "name": "EAST SUSSEX SPOA",
        "primary_role_id": "RO222",
        "role_ids": [
            "RO222"
        ],
        "status": "Active",
        "post_code": "BN21 1EP",
        "uprn": "100062248480"
    },
    {
        "org_id": "815AD",
        "name": "I-ROCK HASTINGS",
        "primary_role_id": "RO222",
        "role_ids": [
            "RO222"
        ],
        "status": "Active",
        "post_code": "TN34 1DT",
        "uprn": "Unknown"
    },
    {
        "org_id": "815AE",
        "name": "I-ROCK EASTBOURNE",
        "primary_role_id": "RO222",
        "role_ids": [
            "RO222"
        ],
        "status": "Active",
        "post_code": "BN21 3UT",
        "uprn": "Unknown"
    },
    {
        "org_id": "815AF",
        "name": "I-ROCK NEWHAVEN",
        "primary_role_id": "RO222",
        "role_ids": [
            "RO222"
        ],
        "status": "Active",
        "post_code": "BN9 9BA",
        "uprn": "10033266394"
    },
    {
        "org_id": "306AA",
        "name": "MCC DC1 (MANOC 6)",
        "primary_role_id": "RO222",
        "role_ids": [
            "RO222"
        ],
        "status": "Active",
        "post_code": "M32 0QY",
        "uprn": "Unknown"
    },
    {
        "org_id": "306AC",
        "name": "MCC DC2 (MANOC 9)",
        "primary_role_id": "RO222",
        "role_ids": [
            "RO222"
        ],
        "status": "Active",
        "post_code": "M15 5QJ",
        "uprn": "Unknown"
    },
    {
        "org_id": "406AC",
        "name": "LANCASTER CIRCUS",
        "primary_role_id": "RO222",
        "role_ids": [
            "RO222"
        ],
        "status": "Active",
        "post_code": "B4 7DJ",
        "uprn": "Unknown"
    },
    {
        "org_id": "406AD",
        "name": "COUNCIL HOUSE EXTENSION",
        "primary_role_id": "RO222",
        "role_ids": [
            "RO222"
        ],
        "status": "Active",
        "post_code": "B3 3BG",
        "uprn": "Unknown"
    },
    {
        "org_id": "726AA",
        "name": "HAVERING COUNCIL SECONDARY LINK",
        "primary_role_id": "RO222",
        "role_ids": [
            "RO222"
        ],
        "status": "Active",
        "post_code": "E15 3LX",
        "uprn": "Unknown"
    },
    {
        "org_id": "731AC",
        "name": "LONDON BOROUGH OF NEWHAM SECONDARY LINK",
        "primary_role_id": "RO222",
        "role_ids": [
            "RO222"
        ],
        "status": "Active",
        "post_code": "RM1 3BB",
        "uprn": "Unknown"
    },
    {
        "org_id": "717AA",
        "name": "LONDON BOROUGH OF BARNET - HENDON",
        "primary_role_id": "RO222",
        "role_ids": [
            "RO222"
        ],
        "status": "Active",
        "post_code": "NW4 4BG",
        "uprn": "Unknown"
    },
    {
        "org_id": "717AC",
        "name": "LONDON BOROUGH OF BARNET - COLINDALE",
        "primary_role_id": "RO222",
        "role_ids": [
            "RO222"
        ],
        "status": "Active",
        "post_code": "NW9 4EW",
        "uprn": "Unknown"
    },
    {
        "org_id": "415AA",
        "name": "HILLSIDE INTERMEDIATE CARE CENTRE",
        "primary_role_id": "RO222",
        "role_ids": [
            "RO222"
        ],
        "status": "Active",
        "post_code": "HR2 7LB",
        "uprn": "200002630400"
    },
    {
        "org_id": "512AA",
        "name": "WOODTHORPE PARK DATA CENTRE",
        "primary_role_id": "RO222",
        "role_ids": [
            "RO222"
        ],
        "status": "Active",
        "post_code": "NG5 4HA",
        "uprn": "Unknown"
    },
    {
        "org_id": "K2C6S",
        "name": "SHAND HOUSE",
        "primary_role_id": "RO222",
        "role_ids": [
            "RO222"
        ],
        "status": "Active",
        "post_code": "DE4 3RY",
        "uprn": "Unknown"
    },
    {
        "org_id": "T5Z6U",
        "name": "WEST SUSSEX MHSTS",
        "primary_role_id": "RO222",
        "role_ids": [
            "RO222"
        ],
        "status": "Active",
        "post_code": "PO19 1RQ",
        "uprn": "Unknown"
    },
    {
        "org_id": "E8U4S",
        "name": "COMMUNITY LINK WORKERS - WIGAN COUNCIL",
        "primary_role_id": "RO222",
        "role_ids": [
            "RO222"
        ],
        "status": "Active",
        "post_code": "WN1 1NJ",
        "uprn": "10014066701"
    },
    {
        "org_id": "A6V4V",
        "name": "MERSEYTRAVEL GEORGES DOCK",
        "primary_role_id": "RO222",
        "role_ids": [
            "RO222"
        ],
        "status": "Active",
        "post_code": "L3 1DD",
        "uprn": "38060803"
    },
    {
        "org_id": "R6B7T",
        "name": "ARK DATA CENTRES - SPRING PARK",
        "primary_role_id": "RO222",
        "role_ids": [
            "RO222"
        ],
        "status": "Active",
        "post_code": "SN13 9GB",
        "uprn": "10014607929"
    },
    {
        "org_id": "K2X3Q",
        "name": "POWERGATE (LB HARROW)",
        "primary_role_id": "RO222",
        "role_ids": [
            "RO222"
        ],
        "status": "Active",
        "post_code": "NW10 6PW",
        "uprn": "12141021"
    },
    {
        "org_id": "W2C8D",
        "name": "HORSHAM DISTRICT WELLBEING",
        "primary_role_id": "RO222",
        "role_ids": [
            "RO222"
        ],
        "status": "Active",
        "post_code": "RH12 1XH",
        "uprn": "200004788710"
    },
    {
        "org_id": "C7S0Y",
        "name": "GLOUCESTER RECORDS OFFICE",
        "primary_role_id": "RO222",
        "role_ids": [
            "RO222"
        ],
        "status": "Active",
        "post_code": "GL1 3DW",
        "uprn": "Unknown"
    },
    {
        "org_id": "O0O5B",
        "name": "GLIC -GLOBAL LANGUAGES IMMERSION CENTRE",
        "primary_role_id": "RO222",
        "role_ids": [
            "RO222"
        ],
        "status": "Active",
        "post_code": "GL1 2EA",
        "uprn": "10007315591"
    },
    {
        "org_id": "J0S3U",
        "name": "DURSLEY LIBRARY",
        "primary_role_id": "RO222",
        "role_ids": [
            "RO222"
        ],
        "status": "Active",
        "post_code": "GL11 4JH",
        "uprn": "Unknown"
    },
    {
        "org_id": "J9R3A",
        "name": "BROCKWORTH LIBRARY",
        "primary_role_id": "RO222",
        "role_ids": [
            "RO222"
        ],
        "status": "Active",
        "post_code": "GL3 4EX",
        "uprn": "10013765138"
    },
    {
        "org_id": "V5T2D",
        "name": "CIRENCESTER LIBRARY",
        "primary_role_id": "RO222",
        "role_ids": [
            "RO222"
        ],
        "status": "Active",
        "post_code": "GL7 2PZ",
        "uprn": "10013885931"
    },
    {
        "org_id": "R0Q3E",
        "name": "CIRENCESTER AREA OFFICE",
        "primary_role_id": "RO222",
        "role_ids": [
            "RO222"
        ],
        "status": "Active",
        "post_code": "GL51 7SA",
        "uprn": "100121370481"
    },
    {
        "org_id": "S3L4L",
        "name": "COLEFORD LIBRARY",
        "primary_role_id": "RO222",
        "role_ids": [
            "RO222"
        ],
        "status": "Active",
        "post_code": "GL16 8RH",
        "uprn": "Unknown"
    },
    {
        "org_id": "J3B8V",
        "name": "CORONATION SQUARE",
        "primary_role_id": "RO222",
        "role_ids": [
            "RO222"
        ],
        "status": "Active",
        "post_code": "GL51 7SA",
        "uprn": "100121370488"
    },
    {
        "org_id": "O3C8S",
        "name": "TEWKSBURY YOUTH CENTRE",
        "primary_role_id": "RO222",
        "role_ids": [
            "RO222"
        ],
        "status": "Active",
        "post_code": "GL20 5JQ",
        "uprn": "100121258518"
    },
    {
        "org_id": "N1D4D",
        "name": "WINCHCOME LIBRARY",
        "primary_role_id": "RO222",
        "role_ids": [
            "RO222"
        ],
        "status": "Active",
        "post_code": "GL54 5PZ",
        "uprn": "100121261299"
    },
    {
        "org_id": "Y1P2N",
        "name": "TREVONE HOUSE",
        "primary_role_id": "RO222",
        "role_ids": [
            "RO222"
        ],
        "status": "Active",
        "post_code": "GL1 3HZ",
        "uprn": "100121247114"
    },
    {
        "org_id": "L4E9O",
        "name": "STROUD LIBRARY",
        "primary_role_id": "RO222",
        "role_ids": [
            "RO222"
        ],
        "status": "Active",
        "post_code": "GL5 1BB",
        "uprn": "Unknown"
    },
    {
        "org_id": "Y0K2D",
        "name": "REDWOOD HOUSE",
        "primary_role_id": "RO222",
        "role_ids": [
            "RO222"
        ],
        "status": "Active",
        "post_code": "GL5 4BH",
        "uprn": "Unknown"
    },
    {
        "org_id": "F7J5N",
        "name": "PARLIAMENT CHILDRENS CENTRE",
        "primary_role_id": "RO222",
        "role_ids": [
            "RO222"
        ],
        "status": "Active",
        "post_code": "GL5 1NL",
        "uprn": "100120513427"
    },
    {
        "org_id": "I5B6Z",
        "name": "NEWENT LIBRARY",
        "primary_role_id": "RO222",
        "role_ids": [
            "RO222"
        ],
        "status": "Active",
        "post_code": "GL18 1AN",
        "uprn": "100121244226"
    },
    {
        "org_id": "U8P3T",
        "name": "MORETON IN THE MARSH",
        "primary_role_id": "RO222",
        "role_ids": [
            "RO222"
        ],
        "status": "Active",
        "post_code": "GL56 0DR",
        "uprn": "100121237151"
    },
    {
        "org_id": "G1N5X",
        "name": "MINCHINHAMPTON LIBRARY",
        "primary_role_id": "RO222",
        "role_ids": [
            "RO222"
        ],
        "status": "Active",
        "post_code": "GL6 9BP",
        "uprn": "100121257712"
    },
    {
        "org_id": "K0N0X",
        "name": "LYDNEY LIBRARY",
        "primary_role_id": "RO222",
        "role_ids": [
            "RO222"
        ],
        "status": "Active",
        "post_code": "GL15 5HW",
        "uprn": "10014328461"
    },
    {
        "org_id": "T9P1P",
        "name": "HUCCLECOTE LIBRARY",
        "primary_role_id": "RO222",
        "role_ids": [
            "RO222"
        ],
        "status": "Active",
        "post_code": "GL3 3RT",
        "uprn": "Unknown"
    },
    {
        "org_id": "A6M6P",
        "name": "HIGHWAYS DEPOT CANNOP",
        "primary_role_id": "RO222",
        "role_ids": [
            "RO222"
        ],
        "status": "Active",
        "post_code": "GL16 7EH",
        "uprn": "10008090053"
    },
    {
        "org_id": "M8P0H",
        "name": "GIS HEALTHCARE",
        "primary_role_id": "RO222",
        "role_ids": [
            "RO222"
        ],
        "status": "Active",
        "post_code": "GL17 0DD",
        "uprn": "Unknown"
    },
    {
        "org_id": "C5Y5V",
        "name": "OAKLEY ANNEX",
        "primary_role_id": "RO222",
        "role_ids": [
            "RO222"
        ],
        "status": "Active",
        "post_code": "GL52 5QH",
        "uprn": "Unknown"
    },
    {
        "org_id": "V2H7D",
        "name": "CINDERFORD REGISTRARS",
        "primary_role_id": "RO222",
        "role_ids": [
            "RO222"
        ],
        "status": "Active",
        "post_code": "GL14 2AB",
        "uprn": "10012748275"
    },
    {
        "org_id": "X1P6Y",
        "name": "BISHOP CLEEVES LIBRARY",
        "primary_role_id": "RO222",
        "role_ids": [
            "RO222"
        ],
        "status": "Active",
        "post_code": "GL52 8NN",
        "uprn": "100121261095"
    },
    {
        "org_id": "N3H1L",
        "name": "BERKELEY COMMUNITY LIBRARY",
        "primary_role_id": "RO222",
        "role_ids": [
            "RO222"
        ],
        "status": "Active",
        "post_code": "GL13 9DQ",
        "uprn": "100121373320"
    },
    {
        "org_id": "M8M3J",
        "name": "HIGHWAYS DEPOT BAMFURLONG",
        "primary_role_id": "RO222",
        "role_ids": [
            "RO222"
        ],
        "status": "Active",
        "post_code": "GL51 6SU",
        "uprn": "10092010792"
    },
    {
        "org_id": "F3K3A",
        "name": "STOW ON THE WOLD LIBRARY",
        "primary_role_id": "RO222",
        "role_ids": [
            "RO222"
        ],
        "status": "Active",
        "post_code": "GL54 1AF",
        "uprn": "10022845929"
    },
    {
        "org_id": "E3X4Y",
        "name": "STROUD YOUTH CENTRE",
        "primary_role_id": "RO222",
        "role_ids": [
            "RO222"
        ],
        "status": "Active",
        "post_code": "GL5 1JR",
        "uprn": "10001169191"
    },
    {
        "org_id": "N4T6G",
        "name": "TEWKSBURY AREA OFFICE",
        "primary_role_id": "RO222",
        "role_ids": [
            "RO222"
        ],
        "status": "Active",
        "post_code": "GL20 5TT",
        "uprn": "10091794282"
    },
    {
        "org_id": "R8M3E",
        "name": "DURSLEY FIRE STATION",
        "primary_role_id": "RO222",
        "role_ids": [
            "RO222"
        ],
        "status": "Active",
        "post_code": "GL11 4BZ",
        "uprn": "200003105442"
    },
    {
        "org_id": "L1N7O",
        "name": "DEAN HOUSE",
        "primary_role_id": "RO222",
        "role_ids": [
            "RO222"
        ],
        "status": "Active",
        "post_code": "GL14 2JF",
        "uprn": "Unknown"
    },
    {
        "org_id": "A0B4E",
        "name": "COLWELL CENTRE FOR ARTS AND EDUCATION",
        "primary_role_id": "RO222",
        "role_ids": [
            "RO222"
        ],
        "status": "Active",
        "post_code": "GL1 4AD",
        "uprn": "200002914084"
    },
    {
        "org_id": "I2R9V",
        "name": "HIGHWAYS DEPOT MORETON",
        "primary_role_id": "RO222",
        "role_ids": [
            "RO222"
        ],
        "status": "Active",
        "post_code": "GL56 0NJ",
        "uprn": "100120434087"
    },
    {
        "org_id": "H3U1N",
        "name": "INDEPENDENT LIVING CENTRE",
        "primary_role_id": "RO222",
        "role_ids": [
            "RO222"
        ],
        "status": "Active",
        "post_code": "GL51 0BY",
        "uprn": "100121231142"
    },
    {
        "org_id": "I3Q0U",
        "name": "LECHLADE LIBRARY",
        "primary_role_id": "RO222",
        "role_ids": [
            "RO222"
        ],
        "status": "Active",
        "post_code": "GL7 3AB",
        "uprn": "10013879629"
    },
    {
        "org_id": "H4M0J",
        "name": "TEWKSBURY LIBRARY",
        "primary_role_id": "RO222",
        "role_ids": [
            "RO222"
        ],
        "status": "Active",
        "post_code": "GL20 5NX",
        "uprn": "100121258456"
    },
    {
        "org_id": "A9A4S",
        "name": "GEORGE MOORE / BOURTON LIBRARY",
        "primary_role_id": "RO222",
        "role_ids": [
            "RO222"
        ],
        "status": "Active",
        "post_code": "GL54 2AZ",
        "uprn": "10013882336"
    },
    {
        "org_id": "D4X1B",
        "name": "CHELTENHAM LIBRARY CAMPUS",
        "primary_role_id": "RO222",
        "role_ids": [
            "RO222"
        ],
        "status": "Active",
        "post_code": "GL50 3JT",
        "uprn": "100121370414"
    },
    {
        "org_id": "X1V5S",
        "name": "GLOUCESTER LIBRARY",
        "primary_role_id": "RO222",
        "role_ids": [
            "RO222"
        ],
        "status": "Active",
        "post_code": "GL1 1HT",
        "uprn": "200004487018"
    },
    {
        "org_id": "K7U2F",
        "name": "LONGLEVENS LIBRARY",
        "primary_role_id": "RO222",
        "role_ids": [
            "RO222"
        ],
        "status": "Active",
        "post_code": "GL2 0AJ",
        "uprn": "100120497983"
    },
    {
        "org_id": "Q1E9N",
        "name": "MATSON LIBRARY",
        "primary_role_id": "RO222",
        "role_ids": [
            "RO222"
        ],
        "status": "Active",
        "post_code": "GL4 6NG",
        "uprn": "100120496437"
    },
    {
        "org_id": "A3Q5K",
        "name": "MITCHELDEAN LIBRARY",
        "primary_role_id": "RO222",
        "role_ids": [
            "RO222"
        ],
        "status": "Active",
        "post_code": "GL17 0HN",
        "uprn": "100121243374"
    },
    {
        "org_id": "W6T6C",
        "name": "ROYAL FOREST CENTRE",
        "primary_role_id": "RO222",
        "role_ids": [
            "RO222"
        ],
        "status": "Active",
        "post_code": "GL14 2DB",
        "uprn": "Unknown"
    },
    {
        "org_id": "U6F3O",
        "name": "PRESTBURY LIBRARY",
        "primary_role_id": "RO222",
        "role_ids": [
            "RO222"
        ],
        "status": "Active",
        "post_code": "GL52 3DN",
        "uprn": "10024304081"
    },
    {
        "org_id": "X6B9O",
        "name": "QUEDGELEY LIBRARY",
        "primary_role_id": "RO222",
        "role_ids": [
            "RO222"
        ],
        "status": "Active",
        "post_code": "GL2 4PE",
        "uprn": "100121248863"
    },
    {
        "org_id": "E5G9P",
        "name": "TUFFLEY LIBRARY",
        "primary_role_id": "RO222",
        "role_ids": [
            "RO222"
        ],
        "status": "Active",
        "post_code": "GL4 0RT",
        "uprn": "100121249555"
    },
    {
        "org_id": "S7Y8Z",
        "name": "GIS HEALTH CARE PROSPECT WORKS",
        "primary_role_id": "RO222",
        "role_ids": [
            "RO222"
        ],
        "status": "Active",
        "post_code": "GL2 5HS",
        "uprn": "100121249281"
    },
    {
        "org_id": "H1M9Q",
        "name": "WATERWELLS",
        "primary_role_id": "RO222",
        "role_ids": [
            "RO222"
        ],
        "status": "Active",
        "post_code": "GL2 2AX",
        "uprn": "10091793951"
    },
    {
        "org_id": "A0X9G",
        "name": "STONEHOUSE LIBRARY",
        "primary_role_id": "RO222",
        "role_ids": [
            "RO222"
        ],
        "status": "Active",
        "post_code": "GL10 2NG",
        "uprn": "200003109699"
    },
    {
        "org_id": "M1T0F",
        "name": "FOXES BRIDGE DAY CENTRE",
        "primary_role_id": "RO222",
        "role_ids": [
            "RO222"
        ],
        "status": "Active",
        "post_code": "GL14 2LJ",
        "uprn": "100121240914"
    },
    {
        "org_id": "P3U4L",
        "name": "FAIRFORD LIBRARY",
        "primary_role_id": "RO222",
        "role_ids": [
            "RO222"
        ],
        "status": "Active",
        "post_code": "GL7 4AQ",
        "uprn": "100121369781"
    },
    {
        "org_id": "A6Y6X",
        "name": "CHURCHDOWN LIBRARY",
        "primary_role_id": "RO222",
        "role_ids": [
            "RO222"
        ],
        "status": "Active",
        "post_code": "GL3 2AF",
        "uprn": "100121259707"
    },
    {
        "org_id": "D7X8T",
        "name": "COUNTY OFFICES CHELTENHAM",
        "primary_role_id": "RO222",
        "role_ids": [
            "RO222"
        ],
        "status": "Active",
        "post_code": "GL50 3EW",
        "uprn": "100121229737"
    },
    {
        "org_id": "N7M4V",
        "name": "CHARLTON KINGS",
        "primary_role_id": "RO222",
        "role_ids": [
            "RO222"
        ],
        "status": "Active",
        "post_code": "GL53 8AR",
        "uprn": "Unknown"
    },
    {
        "org_id": "X1Y9W",
        "name": "WIGAN COUNCIL WEIGHT MANAGEMENT (T2)",
        "primary_role_id": "RO222",
        "role_ids": [
            "RO222"
        ],
        "status": "Active",
        "post_code": "WN1 1YN",
        "uprn": "Unknown"
    },
    {
        "org_id": "B7C3P",
        "name": "SYWELL COUNTRY PARK",
        "primary_role_id": "RO222",
        "role_ids": [
            "RO222"
        ],
        "status": "Active",
        "post_code": "NN6 0QX",
        "uprn": "100032151076"
    },
    {
        "org_id": "J3U9A",
        "name": "BREAM LIBRARY",
        "primary_role_id": "RO222",
        "role_ids": [
            "RO222"
        ],
        "status": "Active",
        "post_code": "GL15 6JW",
        "uprn": "100121242491"
    },
    {
        "org_id": "C1P2W",
        "name": "HIGHWAY DEPOT CIRENCESTER",
        "primary_role_id": "RO222",
        "role_ids": [
            "RO222"
        ],
        "status": "Active",
        "post_code": "GL7 1YG",
        "uprn": "10013393336"
    },
    {
        "org_id": "E6X6B",
        "name": "OAKLEY AOC",
        "primary_role_id": "RO222",
        "role_ids": [
            "RO222"
        ],
        "status": "Active",
        "post_code": "GL52 5QG",
        "uprn": "100121233709"
    },
    {
        "org_id": "K1U1W",
        "name": "HIGHWAYS DEPOT STROUDWATER",
        "primary_role_id": "RO222",
        "role_ids": [
            "RO222"
        ],
        "status": "Active",
        "post_code": "GL2 7NJ",
        "uprn": "10001168081"
    },
    {
        "org_id": "Y8G6Z",
        "name": "PAINSWICK LIBRARY",
        "primary_role_id": "RO222",
        "role_ids": [
            "RO222"
        ],
        "status": "Active",
        "post_code": "GL6 6QA",
        "uprn": "Unknown"
    },
    {
        "org_id": "W2K0Z",
        "name": "TETBURY LIBRARY",
        "primary_role_id": "RO222",
        "role_ids": [
            "RO222"
        ],
        "status": "Active",
        "post_code": "GL8 8DU",
        "uprn": "10022851754"
    },
    {
        "org_id": "V1S3T",
        "name": "TEWKSBURY DAY CENTRE",
        "primary_role_id": "RO222",
        "role_ids": [
            "RO222"
        ],
        "status": "Active",
        "post_code": "GL20 5DR",
        "uprn": "100121258779"
    },
    {
        "org_id": "F6I2E",
        "name": "CINDERFORD LIBRARY",
        "primary_role_id": "RO222",
        "role_ids": [
            "RO222"
        ],
        "status": "Active",
        "post_code": "GL14 2BZ",
        "uprn": "10012748237"
    },
    {
        "org_id": "A0X8J",
        "name": "UP HATHERLEY LIBRARY",
        "primary_role_id": "RO222",
        "role_ids": [
            "RO222"
        ],
        "status": "Active",
        "post_code": "GL51 3BW",
        "uprn": "200002687660"
    },
    {
        "org_id": "J0V0Q",
        "name": "WOTTON UNDER EDGE",
        "primary_role_id": "RO222",
        "role_ids": [
            "RO222"
        ],
        "status": "Active",
        "post_code": "GL12 7JJ",
        "uprn": "100121252629"
    },
    {
        "org_id": "J8K1Z",
        "name": "NEWNHAM LIBRARY",
        "primary_role_id": "RO222",
        "role_ids": [
            "RO222"
        ],
        "status": "Active",
        "post_code": "GL14 1AB",
        "uprn": "10093514983"
    },
    {
        "org_id": "C8J8Y",
        "name": "NAILSWORTH LIBRARY",
        "primary_role_id": "RO222",
        "role_ids": [
            "RO222"
        ],
        "status": "Active",
        "post_code": "GL6 0DU",
        "uprn": "100121256580"
    },
    {
        "org_id": "M4Z3C",
        "name": "HARTWOOD HOUSE",
        "primary_role_id": "RO222",
        "role_ids": [
            "RO222"
        ],
        "status": "Active",
        "post_code": "GL5 4AE",
        "uprn": "10009414770"
    },
    {
        "org_id": "N8E7O",
        "name": "GROSVENOR YOUTH & COMMUNITY CENTRE",
        "primary_role_id": "RO222",
        "role_ids": [
            "RO222"
        ],
        "status": "Active",
        "post_code": "GL52 2SG",
        "uprn": "200002681520"
    },
    {
        "org_id": "B5F7C",
        "name": "NORFOLK COUNTY COUNCIL - CHILDREN'S SERVICES",
        "primary_role_id": "RO222",
        "role_ids": [
            "RO222"
        ],
        "status": "Active",
        "post_code": "NR1 2DH",
        "uprn": "Unknown"
    },
    {
        "org_id": "E2B0X",
        "name": "EAST SUSSEX SWIFT",
        "primary_role_id": "RO222",
        "role_ids": [
            "RO222"
        ],
        "status": "Active",
        "post_code": "BN21 1EP",
        "uprn": "100062248480"
    },
    {
        "org_id": "S5K7Z",
        "name": "WEIGHT MANAGEMENT",
        "primary_role_id": "RO222",
        "role_ids": [
            "RO222"
        ],
        "status": "Active",
        "post_code": "NE27 0BY",
        "uprn": "Unknown"
    },
    {
        "org_id": "I4I5W",
        "name": "SALT AYRE LEISURE CENTRE",
        "primary_role_id": "RO222",
        "role_ids": [
            "RO222"
        ],
        "status": "Active",
        "post_code": "LA1 5JS",
        "uprn": "10009272160"
    },
    {
        "org_id": "V5D0W",
        "name": "ARK CONTINUITY",
        "primary_role_id": "RO222",
        "role_ids": [
            "RO222"
        ],
        "status": "Active",
        "post_code": "GU14 0LX",
        "uprn": "Unknown"
    },
    {
        "org_id": "N6T9H",
        "name": "COUNCIL OFFICES (PEMBROKE ROAD)",
        "primary_role_id": "RO222",
        "role_ids": [
            "RO222"
        ],
        "status": "Active",
        "post_code": "W8 6PW",
        "uprn": "217105242"
    },
    {
        "org_id": "N0F4E",
        "name": "HESTERS WAY LIBRARY",
        "primary_role_id": "RO222",
        "role_ids": [
            "RO222"
        ],
        "status": "Active",
        "post_code": "GL51 7RT",
        "uprn": "100121231895"
    },
    {
        "org_id": "Y6N5S",
        "name": "CHIPPING CAMDEN LIBRARY",
        "primary_role_id": "RO222",
        "role_ids": [
            "RO222"
        ],
        "status": "Active",
        "post_code": "GL55 6AT",
        "uprn": "Unknown"
    },
    {
        "org_id": "N5D9X",
        "name": "STROUD REGISTRAR OF BIRTHS DEATHS & MARRIAGES",
        "primary_role_id": "RO222",
        "role_ids": [
            "RO222"
        ],
        "status": "Active",
        "post_code": "GL5 1DY",
        "uprn": "100121374315"
    },
    {
        "org_id": "S1K3V",
        "name": "GREATER LONDON AUTHORITY, UNION STREET",
        "primary_role_id": "RO222",
        "role_ids": [
            "RO222"
        ],
        "status": "Active",
        "post_code": "SE1 0LL",
        "uprn": "Unknown"
    },
    {
        "org_id": "R6U6Y",
        "name": "NORTHUMBERLAND HEALTH TRAINERS",
        "primary_role_id": "RO222",
        "role_ids": [
            "RO222"
        ],
        "status": "Active",
        "post_code": "NE61 2EF",
        "uprn": "2920008846"
    },
    {
        "org_id": "T9T1J",
        "name": "LODGE PARK SPORTS CENTRE",
        "primary_role_id": "RO222",
        "role_ids": [
            "RO222"
        ],
        "status": "Active",
        "post_code": "NN17 2SG",
        "uprn": "100032145858"
    },
    {
        "org_id": "J2Z3Z",
        "name": "HAZELWOOD NEIGHBOURHOOD CENTRE",
        "primary_role_id": "RO222",
        "role_ids": [
            "RO222"
        ],
        "status": "Active",
        "post_code": "NN18 0QF",
        "uprn": "100032261757"
    },
    {
        "org_id": "D2J4C",
        "name": "CYP FAMILY FOCUS TEAM",
        "primary_role_id": "RO222",
        "role_ids": [
            "RO222"
        ],
        "status": "Active",
        "post_code": "GL52 3AN",
        "uprn": "Unknown"
    },
    {
        "org_id": "Z7I7A",
        "name": "THE DOLPHIN CENTRE",
        "primary_role_id": "RO222",
        "role_ids": [
            "RO222"
        ],
        "status": "Active",
        "post_code": "DL1 5RP",
        "uprn": "100110745585"
    },
    {
        "org_id": "C9A6Q",
        "name": "WEST YORKSHIRE LIAISON & DIVERSION AND RECONNECT SERVICE",
        "primary_role_id": "RO222",
        "role_ids": [
            "RO222"
        ],
        "status": "Active",
        "post_code": "WF1 1LT",
        "uprn": "Unknown"
    },
    {
        "org_id": "Z6G5D",
        "name": "ARK DATA CENTRE - CODY PARK",
        "primary_role_id": "RO222",
        "role_ids": [
            "RO222"
        ],
        "status": "Active",
        "post_code": "GU14 0LH",
        "uprn": "10008961667"
    },
    {
        "org_id": "I7J6N",
        "name": "CUMBRIA COUNCIL HQ",
        "primary_role_id": "RO222",
        "role_ids": [
            "RO222"
        ],
        "status": "Active",
        "post_code": "CA3 8NA",
        "uprn": "10091905500"
    },
    {
        "org_id": "R1H2W",
        "name": "CUMBRIA COUNCIL DATA CENTRE",
        "primary_role_id": "RO222",
        "role_ids": [
            "RO222"
        ],
        "status": "Active",
        "post_code": "CA1 1RD",
        "uprn": "10008710524"
    },
    {
        "org_id": "S3S9J",
        "name": "CUMBRIA FIRE & RESCUE SERVICE HEADQUARTERS",
        "primary_role_id": "RO222",
        "role_ids": [
            "RO222"
        ],
        "status": "Active",
        "post_code": "CA10 2FA",
        "uprn": "Unknown"
    },
    {
        "org_id": "C7C3Y",
        "name": "0-19 PUBLIC HEALTH NURSING SERVICE",
        "primary_role_id": "RO222",
        "role_ids": [
            "RO222"
        ],
        "status": "Active",
        "post_code": "S70 2DR",
        "uprn": "10022877298"
    },
    {
        "org_id": "E1C7S",
        "name": "ARK ENFIELD (MPK)",
        "primary_role_id": "RO222",
        "role_ids": [
            "RO222"
        ],
        "status": "Active",
        "post_code": "N9 0BD",
        "uprn": "Unknown"
    },
    {
        "org_id": "L9H4P",
        "name": "ARLE COURT TRANSPORT HUB",
        "primary_role_id": "RO222",
        "role_ids": [
            "RO222"
        ],
        "status": "Active",
        "post_code": "GL51 6SY",
        "uprn": "200002682223"
    },
    {
        "org_id": "Y9T9L",
        "name": "BARNWOOD CHILDREN'S HOME",
        "primary_role_id": "RO222",
        "role_ids": [
            "RO222"
        ],
        "status": "Active",
        "post_code": "GL2 0RX",
        "uprn": "Unknown"
    },
    {
        "org_id": "Z3Y3N",
        "name": "LONDON ROAD CHILDREN'S HOMES",
        "primary_role_id": "RO222",
        "role_ids": [
            "RO222"
        ],
        "status": "Active",
        "post_code": "GL1 3NZ",
        "uprn": "100121247312"
    },
    {
        "org_id": "F3I2C",
        "name": "REDWELL HOUSE",
        "primary_role_id": "RO222",
        "role_ids": [
            "RO222"
        ],
        "status": "Active",
        "post_code": "GL4 6JH",
        "uprn": "Unknown"
    },
    {
        "org_id": "G2C9V",
        "name": "THE VIBE YOUTH SUPPORT CENTRE",
        "primary_role_id": "RO222",
        "role_ids": [
            "RO222"
        ],
        "status": "Active",
        "post_code": "GL4 4RE",
        "uprn": "10007312338"
    },
    {
        "org_id": "X1J2V",
        "name": "WHADDON YOUTH AND COMMUNITY CENTRE",
        "primary_role_id": "RO222",
        "role_ids": [
            "RO222"
        ],
        "status": "Active",
        "post_code": "GL52 5QW",
        "uprn": "100121370455"
    },
    {
        "org_id": "I5O1M",
        "name": "PUBLIC HEALTH NURSING DEVON",
        "primary_role_id": "RO222",
        "role_ids": [
            "RO222"
        ],
        "status": "Active",
        "post_code": "EX2 4QD",
        "uprn": "100041046262"
    },
    {
        "org_id": "A7G2M",
        "name": "INFORMATION TECHNOLOGIES SERVICE - DATA CENTRE",
        "primary_role_id": "RO222",
        "role_ids": [
            "RO222"
        ],
        "status": "Active",
        "post_code": "L7 9NJ",
        "uprn": "Unknown"
    },
    {
        "org_id": "Y9R1Q",
        "name": "INFORMATION TECHNOLOGIES SERVICE - DATA CENTRE RECOVERY SITE",
        "primary_role_id": "RO222",
        "role_ids": [
            "RO222"
        ],
        "status": "Active",
        "post_code": "WA7 4QX",
        "uprn": "Unknown"
    },
    {
        "org_id": "T8K6A",
        "name": "BRIGHTON & HOVE CITY COUNCIL (HEAD OFFICE)",
        "primary_role_id": "RO222",
        "role_ids": [
            "RO222"
        ],
        "status": "Active",
        "post_code": "BN3 3BQ",
        "uprn": "22198287"
    },
    {
        "org_id": "B6I1G",
        "name": "WAKEFIELD CYP BUSINESS INTELLIGENCE AND REPORTING",
        "primary_role_id": "RO222",
        "role_ids": [
            "RO222"
        ],
        "status": "Active",
        "post_code": "WF1 2EB",
        "uprn": "63181892"
    }
]