[
    {
        "org_id": "5J9",
        "name": "DARLINGTON PCT",
        "primary_role_id": "RO179",
        "role_ids": [
            "RO22",
            "RO179"
        ],
        "status": "Active",
        "post_code": "DL3 6JL",
        "uprn": "Unknown"
    },
    {
        "org_id": "5J5",
        "name": "OLDHAM PCT",
        "primary_role_id": "RO179",
        "role_ids": [
            "RO22",
            "RO179"
        ],
        "status": "Active",
        "post_code": "OL9 6EE",
        "uprn": "Unknown"
    },
    {
        "org_id": "5P6",
        "name": "WEST SUSSEX PCT",
        "primary_role_id": "RO179",
        "role_ids": [
            "RO22",
            "RO179"
        ],
        "status": "Active",
        "post_code": "BN12 6BT",
        "uprn": "Unknown"
    },
    {
        "org_id": "5QT",
        "name": "ISLE OF WIGHT NHS PCT",
        "primary_role_id": "RO179",
        "role_ids": [
            "RO22",
            "RO179"
        ],
        "status": "Active",
        "post_code": "PO30 5TG",
        "uprn": "Unknown"
    },
    {
        "org_id": "5NQ",
        "name": "HEYWOOD, MIDDLETON AND ROCHDALE PCT",
        "primary_role_id": "RO179",
        "role_ids": [
            "RO22",
            "RO179"
        ],
        "status": "Active",
        "post_code": "OL16 1JA",
        "uprn": "Unknown"
    },
    {
        "org_id": "5QM",
        "name": "DORSET PCT",
        "primary_role_id": "RO179",
        "role_ids": [
            "RO22",
            "RO179"
        ],
        "status": "Active",
        "post_code": "DT1 2PN",
        "uprn": "Unknown"
    },
    {
        "org_id": "5EM",
        "name": "NOTTINGHAM CITY PCT",
        "primary_role_id": "RO179",
        "role_ids": [
            "RO22",
            "RO179"
        ],
        "status": "Active",
        "post_code": "NG1 6GN",
        "uprn": "Unknown"
    },
    {
        "org_id": "5P2",
        "name": "BEDFORDSHIRE PCT",
        "primary_role_id": "RO179",
        "role_ids": [
            "RO22",
            "RO179"
        ],
        "status": "Active",
        "post_code": "MK40 2AW",
        "uprn": "Unknown"
    },
    {
        "org_id": "5QJ",
        "name": "BRISTOL PCT",
        "primary_role_id": "RO179",
        "role_ids": [
            "RO22",
            "RO179"
        ],
        "status": "Active",
        "post_code": "BS1 3NX",
        "uprn": "Unknown"
    },
    {
        "org_id": "5M2",
        "name": "SHROPSHIRE COUNTY PCT",
        "primary_role_id": "RO179",
        "role_ids": [
            "RO22",
            "RO179"
        ],
        "status": "Active",
        "post_code": "SY3 8XL",
        "uprn": "Unknown"
    },
    {
        "org_id": "5MK",
        "name": "TELFORD AND WREKIN PCT",
        "primary_role_id": "RO179",
        "role_ids": [
            "RO22",
            "RO179"
        ],
        "status": "Active",
        "post_code": "TF7 4LN",
        "uprn": "Unknown"
    },
    {
        "org_id": "5NL",
        "name": "LIVERPOOL PCT",
        "primary_role_id": "RO179",
        "role_ids": [
            "RO22",
            "RO179"
        ],
        "status": "Active",
        "post_code": "L1 4AZ",
        "uprn": "Unknown"
    },
    {
        "org_id": "5H1",
        "name": "HAMMERSMITH AND FULHAM PCT",
        "primary_role_id": "RO179",
        "role_ids": [
            "RO22",
            "RO179"
        ],
        "status": "Active",
        "post_code": "W6 9JU",
        "uprn": "Unknown"
    },
    {
        "org_id": "5CC",
        "name": "BLACKBURN WITH DARWEN PCT",
        "primary_role_id": "RO179",
        "role_ids": [
            "RO22",
            "RO179"
        ],
        "status": "Active",
        "post_code": "BB1 2QH",
        "uprn": "Unknown"
    },
    {
        "org_id": "5PP",
        "name": "CAMBRIDGESHIRE PCT",
        "primary_role_id": "RO179",
        "role_ids": [
            "RO22",
            "RO179"
        ],
        "status": "Active",
        "post_code": "CB2 8FH",
        "uprn": "Unknown"
    },
    {
        "org_id": "5NY",
        "name": "BRADFORD AND AIREDALE TEACHING PCT",
        "primary_role_id": "RO179",
        "role_ids": [
            "RO22",
            "RO179"
        ],
        "status": "Active",
        "post_code": "BD5 7JR",
        "uprn": "Unknown"
    },
    {
        "org_id": "5C4",
        "name": "TOWER HAMLETS PCT",
        "primary_role_id": "RO179",
        "role_ids": [
            "RO22",
            "RO179"
        ],
        "status": "Active",
        "post_code": "E1 1RD",
        "uprn": "Unknown"
    },
    {
        "org_id": "5N4",
        "name": "SHEFFIELD PCT",
        "primary_role_id": "RO179",
        "role_ids": [
            "RO22",
            "RO179"
        ],
        "status": "Active",
        "post_code": "S9 4EU",
        "uprn": "Unknown"
    }
]