[
    {
        "org_id": "SA9",
        "name": "AYRSHIRE AND ARRAN",
        "primary_role_id": "RO190",
        "role_ids": [
            "RO190"
        ],
        "status": "Active",
        "post_code": "KA6 6AB",
        "uprn": "141040973"
    },
    {
        "org_id": "SB9",
        "name": "BORDERS",
        "primary_role_id": "RO190",
        "role_ids": [
            "RO190"
        ],
        "status": "Active",
        "post_code": "TD6 9BS",
        "uprn": "116051140"
    },
    {
        "org_id": "SF9",
        "name": "FIFE",
        "primary_role_id": "RO190",
        "role_ids": [
            "RO190"
        ],
        "status": "Active",
        "post_code": "KY2 5AH",
        "uprn": "320181565"
    },
    {
        "org_id": "SG9",
        "name": "GREATER GLASGOW AND CLYDE",
        "primary_role_id": "RO190",
        "role_ids": [
            "RO190"
        ],
        "status": "Active",
        "post_code": "G12 0XH",
        "uprn": "906700059404"
    },
    {
        "org_id": "SH9",
        "name": "HIGHLAND",
        "primary_role_id": "RO190",
        "role_ids": [
            "RO190"
        ],
        "status": "Active",
        "post_code": "IV2 3BW",
        "uprn": "130124400"
    },
    {
        "org_id": "SL9",
        "name": "LANARKSHIRE",
        "primary_role_id": "RO190",
        "role_ids": [
            "RO190"
        ],
        "status": "Active",
        "post_code": "G71 8BB",
        "uprn": "484056657"
    },
    {
        "org_id": "SN9",
        "name": "GRAMPIAN",
        "primary_role_id": "RO190",
        "role_ids": [
            "RO190"
        ],
        "status": "Active",
        "post_code": "AB15 6RE",
        "uprn": "9051021307"
    },
    {
        "org_id": "SR9",
        "name": "ORKNEY",
        "primary_role_id": "RO190",
        "role_ids": [
            "RO190"
        ],
        "status": "Active",
        "post_code": "KW15 1NZ",
        "uprn": "134020600"
    },
    {
        "org_id": "SS9",
        "name": "LOTHIAN",
        "primary_role_id": "RO190",
        "role_ids": [
            "RO190"
        ],
        "status": "Active",
        "post_code": "EH1 3EG",
        "uprn": "Unknown"
    },
    {
        "org_id": "ST9",
        "name": "TAYSIDE",
        "primary_role_id": "RO190",
        "role_ids": [
            "RO190"
        ],
        "status": "Active",
        "post_code": "DD1 9SY",
        "uprn": "Unknown"
    },
    {
        "org_id": "SV9",
        "name": "FORTH VALLEY",
        "primary_role_id": "RO190",
        "role_ids": [
            "RO190"
        ],
        "status": "Active",
        "post_code": "FK9 4SW",
        "uprn": "Unknown"
    },
    {
        "org_id": "SW9",
        "name": "WESTERN ISLES",
        "primary_role_id": "RO190",
        "role_ids": [
            "RO190"
        ],
        "status": "Active",
        "post_code": "HS1 2BB",
        "uprn": "139013675"
    },
    {
        "org_id": "SY9",
        "name": "DUMFRIES AND GALLOWAY",
        "primary_role_id": "RO190",
        "role_ids": [
            "RO190"
        ],
        "status": "Active",
        "post_code": "DG1 4AP",
        "uprn": "137014660"
    },
    {
        "org_id": "SZ9",
        "name": "SHETLAND",
        "primary_role_id": "RO190",
        "role_ids": [
            "RO190"
        ],
        "status": "Active",
        "post_code": "ZE1 0LA",
        "uprn": "Unknown"
    }
]