[
    {
        "org_id": "P074",
        "name": "CLEVECHEM LTD",
        "primary_role_id": "RO181",
        "role_ids": [
            "RO181"
        ],
        "status": "Active",
        "post_code": "TS10 1RH",
        "uprn": "Unknown"
    },
    {
        "org_id": "P534",
        "name": "GP PHARMACIES LTD",
        "primary_role_id": "RO181",
        "role_ids": [
            "RO181"
        ],
        "status": "Active",
        "post_code": "CO7 8PW",
        "uprn": "Unknown"
    },
    {
        "org_id": "P556",
        "name": "CLIFFE AVENUE LTD",
        "primary_role_id": "RO181",
        "role_ids": [
            "RO181"
        ],
        "status": "Active",
        "post_code": "BD17 6NX",
        "uprn": "100051936305"
    },
    {
        "org_id": "P802",
        "name": "IAN MCARDLE LTD",
        "primary_role_id": "RO181",
        "role_ids": [
            "RO181"
        ],
        "status": "Active",
        "post_code": "DY5 3AP",
        "uprn": "90123597"
    },
    {
        "org_id": "P0LY",
        "name": "MR SHUIAB REHMAT",
        "primary_role_id": "RO181",
        "role_ids": [
            "RO181"
        ],
        "status": "Active",
        "post_code": "DE23 6UU",
        "uprn": "100030342128"
    },
    {
        "org_id": "P0M2",
        "name": "IDEAL PHARMA LTD",
        "primary_role_id": "RO181",
        "role_ids": [
            "RO181"
        ],
        "status": "Active",
        "post_code": "GU14 6EJ",
        "uprn": "Unknown"
    },
    {
        "org_id": "P0M4",
        "name": "MR & MRS AA ALAGBE",
        "primary_role_id": "RO181",
        "role_ids": [
            "RO181"
        ],
        "status": "Active",
        "post_code": "DA1 5HY",
        "uprn": "200000531809"
    },
    {
        "org_id": "P0YH",
        "name": "STR TRAINING LTD",
        "primary_role_id": "RO181",
        "role_ids": [
            "RO181"
        ],
        "status": "Active",
        "post_code": "BL9 6LL",
        "uprn": "Unknown"
    },
    {
        "org_id": "P0YJ",
        "name": "MR MUBARAK ASMAL",
        "primary_role_id": "RO181",
        "role_ids": [
            "RO181"
        ],
        "status": "Active",
        "post_code": "WF12 9DU",
        "uprn": "83202906"
    },
    {
        "org_id": "P0YK",
        "name": "NEW PARK PHARMACY LTD",
        "primary_role_id": "RO181",
        "role_ids": [
            "RO181"
        ],
        "status": "Active",
        "post_code": "SW2 4ES",
        "uprn": "100021874487"
    },
    {
        "org_id": "P0TG",
        "name": "APPLE & WAY LTD",
        "primary_role_id": "RO181",
        "role_ids": [
            "RO181"
        ],
        "status": "Active",
        "post_code": "E12 5AD",
        "uprn": "Unknown"
    },
    {
        "org_id": "P3EL",
        "name": "OAK HEALTHCARE LTD",
        "primary_role_id": "RO181",
        "role_ids": [
            "RO181"
        ],
        "status": "Active",
        "post_code": "NG19 8AH",
        "uprn": "Unknown"
    },
    {
        "org_id": "P3EN",
        "name": "NINE BLESSINGS LIMITED",
        "primary_role_id": "RO181",
        "role_ids": [
            "RO181"
        ],
        "status": "Active",
        "post_code": "RM6 6LU",
        "uprn": "Unknown"
    },
    {
        "org_id": "P3EQ",
        "name": "DERMACIA LIMITED",
        "primary_role_id": "RO181",
        "role_ids": [
            "RO181"
        ],
        "status": "Active",
        "post_code": "N1 2UQ",
        "uprn": "10008977073"
    },
    {
        "org_id": "P3ER",
        "name": "GSI PHARMA LTD",
        "primary_role_id": "RO181",
        "role_ids": [
            "RO181"
        ],
        "status": "Active",
        "post_code": "L20 1EE",
        "uprn": "Unknown"
    },
    {
        "org_id": "P3ET",
        "name": "PHARMA-CLINIC LTD",
        "primary_role_id": "RO181",
        "role_ids": [
            "RO181"
        ],
        "status": "Active",
        "post_code": "S65 1QY",
        "uprn": "100050867645"
    },
    {
        "org_id": "P3EW",
        "name": "ZSA TRADERS",
        "primary_role_id": "RO181",
        "role_ids": [
            "RO181"
        ],
        "status": "Active",
        "post_code": "B14 7DG",
        "uprn": "Unknown"
    },
    {
        "org_id": "P0MG",
        "name": "BESTWAY NATIONAL CHEMISTS LTD",
        "primary_role_id": "RO181",
        "role_ids": [
            "RO181"
        ],
        "status": "Active",
        "post_code": "M3 4LZ",
        "uprn": "Unknown"
    },
    {
        "org_id": "P2W1",
        "name": "SALTLEY LTD",
        "primary_role_id": "RO181",
        "role_ids": [
            "RO181"
        ],
        "status": "Active",
        "post_code": "B98 7RY",
        "uprn": "Unknown"
    },
    {
        "org_id": "P2W2",
        "name": "DV-PHARM LTD",
        "primary_role_id": "RO181",
        "role_ids": [
            "RO181"
        ],
        "status": "Active",
        "post_code": "L30 1RE",
        "uprn": "Unknown"
    },
    {
        "org_id": "P2W4",
        "name": "C & S PHARMACY LIMITED",
        "primary_role_id": "RO181",
        "role_ids": [
            "RO181"
        ],
        "status": "Active",
        "post_code": "PR1 3TS",
        "uprn": "100012746186"
    },
    {
        "org_id": "P0MA",
        "name": "PHARM-ASSIST (HEALTHCARE) LTD",
        "primary_role_id": "RO181",
        "role_ids": [
            "RO181",
            "RO268"
        ],
        "status": "Active",
        "post_code": "LS15 7JR",
        "uprn": "Unknown"
    },
    {
        "org_id": "P0ME",
        "name": "GLEDRESA LIMITED",
        "primary_role_id": "RO181",
        "role_ids": [
            "RO181"
        ],
        "status": "Active",
        "post_code": "CT17 0SP",
        "uprn": "100060907640"
    },
    {
        "org_id": "P0MF",
        "name": "MR DANA FATHIPOUR",
        "primary_role_id": "RO181",
        "role_ids": [
            "RO181"
        ],
        "status": "Active",
        "post_code": "CR0 8SS",
        "uprn": "100022908351"
    },
    {
        "org_id": "P0MJ",
        "name": "PHARMACY WORLD LTD",
        "primary_role_id": "RO181",
        "role_ids": [
            "RO181"
        ],
        "status": "Active",
        "post_code": "TS19 9BX",
        "uprn": "100110782023"
    },
    {
        "org_id": "P7A8",
        "name": "BA WHITTLE CHEMISTS",
        "primary_role_id": "RO181",
        "role_ids": [
            "RO181"
        ],
        "status": "Active",
        "post_code": "HU18 1PB",
        "uprn": "Unknown"
    },
    {
        "org_id": "P7AF",
        "name": "CATTO CHEMISTS LTD",
        "primary_role_id": "RO181",
        "role_ids": [
            "RO181"
        ],
        "status": "Active",
        "post_code": "E12 6RH",
        "uprn": "46095878"
    },
    {
        "org_id": "P7AG",
        "name": "ALEXANDRIA PHARMACY",
        "primary_role_id": "RO181",
        "role_ids": [
            "RO181"
        ],
        "status": "Active",
        "post_code": "FY8 1JF",
        "uprn": "100012619372"
    },
    {
        "org_id": "P7AJ",
        "name": "ASIFS NEW PHARMACY",
        "primary_role_id": "RO181",
        "role_ids": [
            "RO181"
        ],
        "status": "Active",
        "post_code": "SS7 2RF",
        "uprn": "Unknown"
    },
    {
        "org_id": "P7AP",
        "name": "YOGI CHEMIST",
        "primary_role_id": "RO181",
        "role_ids": [
            "RO181"
        ],
        "status": "Active",
        "post_code": "CM6 1AX",
        "uprn": "100090647048"
    },
    {
        "org_id": "P7AR",
        "name": "HAYWOOD PHARMACY",
        "primary_role_id": "RO181",
        "role_ids": [
            "RO181"
        ],
        "status": "Active",
        "post_code": "ST18 0SS",
        "uprn": "Unknown"
    },
    {
        "org_id": "P9A2",
        "name": "MELBOURNE PHARMACY",
        "primary_role_id": "RO181",
        "role_ids": [
            "RO181"
        ],
        "status": "Active",
        "post_code": "CM1 2DW",
        "uprn": "100091430752"
    },
    {
        "org_id": "P9A4",
        "name": "PRINJA PHARMACIST",
        "primary_role_id": "RO181",
        "role_ids": [
            "RO181"
        ],
        "status": "Active",
        "post_code": "B24 0PP",
        "uprn": "100070322308"
    },
    {
        "org_id": "P0TL",
        "name": "MR NEIL ANSELL & MRS ANNA ANSELL",
        "primary_role_id": "RO181",
        "role_ids": [
            "RO181"
        ],
        "status": "Active",
        "post_code": "EX16 9ND",
        "uprn": "100041034861"
    },
    {
        "org_id": "P0TM",
        "name": "MR ANWAR PATHAK",
        "primary_role_id": "RO181",
        "role_ids": [
            "RO181"
        ],
        "status": "Active",
        "post_code": "M14 4GP",
        "uprn": "Unknown"
    },
    {
        "org_id": "P0YQ",
        "name": "COOPERS CHEMIST MARSKE LTD",
        "primary_role_id": "RO181",
        "role_ids": [
            "RO181"
        ],
        "status": "Active",
        "post_code": "TS10 3JZ",
        "uprn": "100110776259"
    },
    {
        "org_id": "P0YR",
        "name": "PAMC LIMITED",
        "primary_role_id": "RO181",
        "role_ids": [
            "RO181"
        ],
        "status": "Active",
        "post_code": "CR0 1QD",
        "uprn": "Unknown"
    },
    {
        "org_id": "P114",
        "name": "BENJAMIN CORY LTD",
        "primary_role_id": "RO181",
        "role_ids": [
            "RO181"
        ],
        "status": "Active",
        "post_code": "N16 7JD",
        "uprn": "Unknown"
    },
    {
        "org_id": "P11J",
        "name": "POLYPHARM LTD",
        "primary_role_id": "RO181",
        "role_ids": [
            "RO181"
        ],
        "status": "Active",
        "post_code": "SW18 4JE",
        "uprn": "Unknown"
    },
    {
        "org_id": "P0P1",
        "name": "E-NOVA HEALTHCARE LIMITED",
        "primary_role_id": "RO181",
        "role_ids": [
            "RO181"
        ],
        "status": "Active",
        "post_code": "CT5 1AY",
        "uprn": "Unknown"
    },
    {
        "org_id": "P0P2",
        "name": "MR SARBJIT ROOPRAI",
        "primary_role_id": "RO181",
        "role_ids": [
            "RO181"
        ],
        "status": "Active",
        "post_code": "SY2 5SR",
        "uprn": "Unknown"
    },
    {
        "org_id": "P0NC",
        "name": "MR BEN MODI",
        "primary_role_id": "RO181",
        "role_ids": [
            "RO181"
        ],
        "status": "Active",
        "post_code": "LE11 1TG",
        "uprn": "Unknown"
    },
    {
        "org_id": "P0MX",
        "name": "PAN HEALTHCARE LIMITED",
        "primary_role_id": "RO181",
        "role_ids": [
            "RO181"
        ],
        "status": "Active",
        "post_code": "B26 3YH",
        "uprn": "Unknown"
    },
    {
        "org_id": "P0MY",
        "name": "GODDAY AVBULIMEN",
        "primary_role_id": "RO181",
        "role_ids": [
            "RO181"
        ],
        "status": "Active",
        "post_code": "SE22 8DR",
        "uprn": "200003440987"
    },
    {
        "org_id": "P0N2",
        "name": "MEDICINES 4 U LTD",
        "primary_role_id": "RO181",
        "role_ids": [
            "RO181"
        ],
        "status": "Active",
        "post_code": "CB6 3XD",
        "uprn": "10002605992"
    },
    {
        "org_id": "P0N5",
        "name": "ZEMMEL J",
        "primary_role_id": "RO181",
        "role_ids": [
            "RO181"
        ],
        "status": "Active",
        "post_code": "M20 6UR",
        "uprn": "Unknown"
    },
    {
        "org_id": "P0N6",
        "name": "SOMMERVILLE R",
        "primary_role_id": "RO181",
        "role_ids": [
            "RO181"
        ],
        "status": "Active",
        "post_code": "M9 7BD",
        "uprn": "77033885"
    },
    {
        "org_id": "P0N8",
        "name": "THACKER P",
        "primary_role_id": "RO181",
        "role_ids": [
            "RO181"
        ],
        "status": "Active",
        "post_code": "M23 9AB",
        "uprn": "Unknown"
    },
    {
        "org_id": "P1E6",
        "name": "GODDCARE PARTNERS LTD",
        "primary_role_id": "RO181",
        "role_ids": [
            "RO181"
        ],
        "status": "Active",
        "post_code": "RM10 8QS",
        "uprn": "Unknown"
    },
    {
        "org_id": "P0TW",
        "name": "ICENI DEVELOPMENT LTD",
        "primary_role_id": "RO181",
        "role_ids": [
            "RO181"
        ],
        "status": "Active",
        "post_code": "CB23 3QQ",
        "uprn": "Unknown"
    },
    {
        "org_id": "P0TX",
        "name": "MR B PARKASH",
        "primary_role_id": "RO181",
        "role_ids": [
            "RO181"
        ],
        "status": "Active",
        "post_code": "LU6 3BS",
        "uprn": "100081292893"
    },
    {
        "org_id": "P0V3",
        "name": "BUTT & HOBBS LTD",
        "primary_role_id": "RO181",
        "role_ids": [
            "RO181"
        ],
        "status": "Active",
        "post_code": "WF13 2EG",
        "uprn": "Unknown"
    },
    {
        "org_id": "P0V6",
        "name": "DALHART PHARMACY LTD",
        "primary_role_id": "RO181",
        "role_ids": [
            "RO181"
        ],
        "status": "Active",
        "post_code": "NE21 6AD",
        "uprn": "Unknown"
    },
    {
        "org_id": "P1LY",
        "name": "FLAGSHIP (DORSET) LTD",
        "primary_role_id": "RO181",
        "role_ids": [
            "RO181"
        ],
        "status": "Active",
        "post_code": "DT8 3AA",
        "uprn": "100040620699"
    },
    {
        "org_id": "P1M1",
        "name": "MARLBOROUGH UK LTD",
        "primary_role_id": "RO181",
        "role_ids": [
            "RO181"
        ],
        "status": "Active",
        "post_code": "SE11 4HQ",
        "uprn": "Unknown"
    },
    {
        "org_id": "P0YX",
        "name": "SP PHARM LIMITED",
        "primary_role_id": "RO181",
        "role_ids": [
            "RO181"
        ],
        "status": "Active",
        "post_code": "TW18 4PA",
        "uprn": "33036937"
    },
    {
        "org_id": "P3EY",
        "name": "CADUCIFER MEDICAL SERVICES LTD",
        "primary_role_id": "RO181",
        "role_ids": [
            "RO181"
        ],
        "status": "Active",
        "post_code": "SP4 6EB",
        "uprn": "Unknown"
    },
    {
        "org_id": "P3F1",
        "name": "YORCARE LTD",
        "primary_role_id": "RO181",
        "role_ids": [
            "RO181"
        ],
        "status": "Active",
        "post_code": "YO23 2SJ",
        "uprn": "Unknown"
    },
    {
        "org_id": "P0Q5",
        "name": "MISS MICHELLE WARNER",
        "primary_role_id": "RO181",
        "role_ids": [
            "RO181"
        ],
        "status": "Active",
        "post_code": "BN1 9RW",
        "uprn": "Unknown"
    },
    {
        "org_id": "P0Q6",
        "name": "PILL SOLUTIONS LTD",
        "primary_role_id": "RO181",
        "role_ids": [
            "RO181"
        ],
        "status": "Active",
        "post_code": "TW18 4PA",
        "uprn": "33036937"
    },
    {
        "org_id": "P0PY",
        "name": "COPMANTHORPE PHARMACY LTD",
        "primary_role_id": "RO181",
        "role_ids": [
            "RO181"
        ],
        "status": "Active",
        "post_code": "YO23 3GG",
        "uprn": "100052162465"
    },
    {
        "org_id": "P0WM",
        "name": "JASRUP LTD",
        "primary_role_id": "RO181",
        "role_ids": [
            "RO181"
        ],
        "status": "Active",
        "post_code": "NW3 6HN",
        "uprn": "Unknown"
    },
    {
        "org_id": "P0WW",
        "name": "KIRKLEY PHARMACY LTD",
        "primary_role_id": "RO181",
        "role_ids": [
            "RO181"
        ],
        "status": "Active",
        "post_code": "NR33 0BB",
        "uprn": "100091171926"
    },
    {
        "org_id": "P0X1",
        "name": "OLIVE TREE HEALTHCARE LTD",
        "primary_role_id": "RO181",
        "role_ids": [
            "RO181"
        ],
        "status": "Active",
        "post_code": "B11 4LD",
        "uprn": "100070527452"
    },
    {
        "org_id": "P643",
        "name": "PRESTWICH PHARMACY LTD",
        "primary_role_id": "RO181",
        "role_ids": [
            "RO181"
        ],
        "status": "Active",
        "post_code": "M25 1AS",
        "uprn": "Unknown"
    },
    {
        "org_id": "P0QV",
        "name": "ST MATHIAS LTD",
        "primary_role_id": "RO181",
        "role_ids": [
            "RO181"
        ],
        "status": "Active",
        "post_code": "BS16 2JD",
        "uprn": "Unknown"
    },
    {
        "org_id": "P0QY",
        "name": "WOODEND HEALTHCARE LTD",
        "primary_role_id": "RO181",
        "role_ids": [
            "RO181"
        ],
        "status": "Active",
        "post_code": "ST17 4AH",
        "uprn": "200001319615"
    },
    {
        "org_id": "P0R1",
        "name": "WARWICK RADCLIFFE HEALTHCARE LTD",
        "primary_role_id": "RO181",
        "role_ids": [
            "RO181"
        ],
        "status": "Active",
        "post_code": "BN27 4LE",
        "uprn": "Unknown"
    },
    {
        "org_id": "P0R2",
        "name": "AUDLEY MILLS LIMITED",
        "primary_role_id": "RO181",
        "role_ids": [
            "RO181"
        ],
        "status": "Active",
        "post_code": "SS6 7JF",
        "uprn": "Unknown"
    },
    {
        "org_id": "P0W2",
        "name": "ADNAN ALI",
        "primary_role_id": "RO181",
        "role_ids": [
            "RO181"
        ],
        "status": "Active",
        "post_code": "CV2 4PR",
        "uprn": "100071366093"
    },
    {
        "org_id": "P0W4",
        "name": "ADVANCE PHARMACIES LTD",
        "primary_role_id": "RO181",
        "role_ids": [
            "RO181"
        ],
        "status": "Active",
        "post_code": "SO30 2AD",
        "uprn": "Unknown"
    },
    {
        "org_id": "P54L",
        "name": "KNIGHTS DISPENSING CHEMIST",
        "primary_role_id": "RO181",
        "role_ids": [
            "RO181"
        ],
        "status": "Active",
        "post_code": "LE2 1TT",
        "uprn": "2465197235"
    },
    {
        "org_id": "P0JT",
        "name": "C & D HEALTHCARE LTD",
        "primary_role_id": "RO181",
        "role_ids": [
            "RO181"
        ],
        "status": "Active",
        "post_code": "M25 9JY",
        "uprn": "Unknown"
    },
    {
        "org_id": "P3DK",
        "name": "WEST MID HEALTHCARE UK LTD",
        "primary_role_id": "RO181",
        "role_ids": [
            "RO181"
        ],
        "status": "Active",
        "post_code": "DY9 8LF",
        "uprn": "90123106"
    },
    {
        "org_id": "P3DN",
        "name": "APRIS MEDICAL SERVICES LTD",
        "primary_role_id": "RO181",
        "role_ids": [
            "RO181"
        ],
        "status": "Active",
        "post_code": "NR27 0AJ",
        "uprn": "100091557681"
    },
    {
        "org_id": "P3DP",
        "name": "PK PHARMACARE LTD",
        "primary_role_id": "RO181",
        "role_ids": [
            "RO181"
        ],
        "status": "Active",
        "post_code": "HA8 6RW",
        "uprn": "Unknown"
    },
    {
        "org_id": "P3DR",
        "name": "MOHAMMED YASIR / WARRENSHOW LTD",
        "primary_role_id": "RO181",
        "role_ids": [
            "RO181"
        ],
        "status": "Active",
        "post_code": "BB6 7AL",
        "uprn": "100012546669"
    },
    {
        "org_id": "P0ML",
        "name": "WHIPPENDELL HEALTH CARE LTD",
        "primary_role_id": "RO181",
        "role_ids": [
            "RO181"
        ],
        "status": "Active",
        "post_code": "WD18 7QJ",
        "uprn": "Unknown"
    },
    {
        "org_id": "P0MM",
        "name": "PATEL DA",
        "primary_role_id": "RO181",
        "role_ids": [
            "RO181"
        ],
        "status": "Active",
        "post_code": "WD18 7LR",
        "uprn": "Unknown"
    },
    {
        "org_id": "P0MP",
        "name": "ARK HEALTHCARE LTD",
        "primary_role_id": "RO181",
        "role_ids": [
            "RO181"
        ],
        "status": "Active",
        "post_code": "B11 4AN",
        "uprn": "Unknown"
    },
    {
        "org_id": "P0MR",
        "name": "HINTONS PHARMACY LTD",
        "primary_role_id": "RO181",
        "role_ids": [
            "RO181"
        ],
        "status": "Active",
        "post_code": "WD17 1BD",
        "uprn": "Unknown"
    },
    {
        "org_id": "P0MT",
        "name": "BUCKDEN MINI MARKET LTD",
        "primary_role_id": "RO181",
        "role_ids": [
            "RO181"
        ],
        "status": "Active",
        "post_code": "PE19 5SU",
        "uprn": "Unknown"
    },
    {
        "org_id": "P9A5",
        "name": "UNIDRUGS PHARMACY",
        "primary_role_id": "RO181",
        "role_ids": [
            "RO181"
        ],
        "status": "Active",
        "post_code": "NN4 9UW",
        "uprn": "Unknown"
    },
    {
        "org_id": "P9A6",
        "name": "SUTTON PHARMACY",
        "primary_role_id": "RO181",
        "role_ids": [
            "RO181"
        ],
        "status": "Active",
        "post_code": "CH66 3RF",
        "uprn": "100012876943"
    },
    {
        "org_id": "P9A7",
        "name": "REGENTS PARK PHARMACY",
        "primary_role_id": "RO181",
        "role_ids": [
            "RO181"
        ],
        "status": "Active",
        "post_code": "SO15 8PF",
        "uprn": "100062507702"
    },
    {
        "org_id": "P9AL",
        "name": "BUXTON & GRANT",
        "primary_role_id": "RO181",
        "role_ids": [
            "RO181"
        ],
        "status": "Active",
        "post_code": "BS8 2XU",
        "uprn": "64133"
    },
    {
        "org_id": "P9AT",
        "name": "ESOMS CHEMIST",
        "primary_role_id": "RO181",
        "role_ids": [
            "RO181"
        ],
        "status": "Active",
        "post_code": "WD19 7AE",
        "uprn": "10001120102"
    },
    {
        "org_id": "P9AX",
        "name": "K & A PHARMACY",
        "primary_role_id": "RO181",
        "role_ids": [
            "RO181"
        ],
        "status": "Active",
        "post_code": "NE8 4BQ",
        "uprn": "100000518315"
    },
    {
        "org_id": "P3C2",
        "name": "ST MARY PHARMACY",
        "primary_role_id": "RO181",
        "role_ids": [
            "RO181"
        ],
        "status": "Active",
        "post_code": "WR9 9EQ",
        "uprn": "10013936201"
    },
    {
        "org_id": "P42Y",
        "name": "FAWDON PARK PHARMACY",
        "primary_role_id": "RO181",
        "role_ids": [
            "RO181"
        ],
        "status": "Active",
        "post_code": "NE3 2PE",
        "uprn": "Unknown"
    },
    {
        "org_id": "P45Y",
        "name": "DICKINSONS CHEMIST",
        "primary_role_id": "RO181",
        "role_ids": [
            "RO181"
        ],
        "status": "Active",
        "post_code": "HD3 4AJ",
        "uprn": "83035558"
    },
    {
        "org_id": "P52Y",
        "name": "GORDON DAVIE CHEMIST",
        "primary_role_id": "RO181",
        "role_ids": [
            "RO181"
        ],
        "status": "Active",
        "post_code": "BR2 8AR",
        "uprn": "100022892070"
    },
    {
        "org_id": "P64Y",
        "name": "EVERGREEN PHARMACY",
        "primary_role_id": "RO181",
        "role_ids": [
            "RO181"
        ],
        "status": "Active",
        "post_code": "NW1 1BP",
        "uprn": "5016338"
    },
    {
        "org_id": "P69Y",
        "name": "ENGLAND PHARMACY",
        "primary_role_id": "RO181",
        "role_ids": [
            "RO181"
        ],
        "status": "Active",
        "post_code": "WN6 7PG",
        "uprn": "10014066584"
    },
    {
        "org_id": "P72Y",
        "name": "LYGON PHARMACY",
        "primary_role_id": "RO181",
        "role_ids": [
            "RO181"
        ],
        "status": "Active",
        "post_code": "WR14 1NY",
        "uprn": "100121348799"
    },
    {
        "org_id": "P73Y",
        "name": "O'FLINN PHARMACY",
        "primary_role_id": "RO181",
        "role_ids": [
            "RO181"
        ],
        "status": "Active",
        "post_code": "BN2 9SL",
        "uprn": "22205753"
    },
    {
        "org_id": "P78Y",
        "name": "LATE NIGHT PHARMACY",
        "primary_role_id": "RO181",
        "role_ids": [
            "RO181"
        ],
        "status": "Active",
        "post_code": "NG2 4LQ",
        "uprn": "100031592920"
    },
    {
        "org_id": "P83Y",
        "name": "HEALTHSTOP PHARMACY",
        "primary_role_id": "RO181",
        "role_ids": [
            "RO181"
        ],
        "status": "Active",
        "post_code": "B20 2QR",
        "uprn": "100070392358"
    },
    {
        "org_id": "P90Y",
        "name": "ST JOHNS PHARMACY",
        "primary_role_id": "RO181",
        "role_ids": [
            "RO181"
        ],
        "status": "Active",
        "post_code": "DA14 6EH",
        "uprn": "10011847063"
    },
    {
        "org_id": "P91Y",
        "name": "CROOK LOG CHEMISAL LTD",
        "primary_role_id": "RO181",
        "role_ids": [
            "RO181"
        ],
        "status": "Active",
        "post_code": "DA5 1LQ",
        "uprn": "Unknown"
    },
    {
        "org_id": "P0A0",
        "name": "OVAL PHARMACY",
        "primary_role_id": "RO181",
        "role_ids": [
            "RO181"
        ],
        "status": "Active",
        "post_code": "SG1 5RB",
        "uprn": "200000584857"
    },
    {
        "org_id": "P0A3",
        "name": "DRUIDS HEATH PHARMACY",
        "primary_role_id": "RO181",
        "role_ids": [
            "RO181"
        ],
        "status": "Active",
        "post_code": "B14 5SB",
        "uprn": "100071392411"
    },
    {
        "org_id": "P0A9",
        "name": "DUKES PHARMACY",
        "primary_role_id": "RO181",
        "role_ids": [
            "RO181"
        ],
        "status": "Active",
        "post_code": "RG45 6DS",
        "uprn": "100081242250"
    },
    {
        "org_id": "P0A8",
        "name": "PEARCARE PHARMACY",
        "primary_role_id": "RO181",
        "role_ids": [
            "RO181"
        ],
        "status": "Active",
        "post_code": "KT5 9AG",
        "uprn": "128033742"
    },
    {
        "org_id": "P0AA",
        "name": "MORETON PHARMACY",
        "primary_role_id": "RO181",
        "role_ids": [
            "RO181"
        ],
        "status": "Active",
        "post_code": "TQ13 8LN",
        "uprn": "100041036181"
    },
    {
        "org_id": "P0AH",
        "name": "JEPHSON PHARMACY",
        "primary_role_id": "RO181",
        "role_ids": [
            "RO181"
        ],
        "status": "Active",
        "post_code": "SN4 9LW",
        "uprn": "Unknown"
    },
    {
        "org_id": "P0AM",
        "name": "MORECAMBE BAY CHEMIST",
        "primary_role_id": "RO181",
        "role_ids": [
            "RO181"
        ],
        "status": "Active",
        "post_code": "LA3 1QN",
        "uprn": "100012624549"
    },
    {
        "org_id": "P1AF",
        "name": "MCLAREN PHARMACY",
        "primary_role_id": "RO181",
        "role_ids": [
            "RO181"
        ],
        "status": "Active",
        "post_code": "MK43 0LA",
        "uprn": "10012427623"
    },
    {
        "org_id": "P1AJ",
        "name": "FOREST PHARMACY",
        "primary_role_id": "RO181",
        "role_ids": [
            "RO181"
        ],
        "status": "Active",
        "post_code": "NG5 5HR",
        "uprn": "100031513736"
    },
    {
        "org_id": "P1AM",
        "name": "STOTFOLD PHARMACY",
        "primary_role_id": "RO181",
        "role_ids": [
            "RO181"
        ],
        "status": "Active",
        "post_code": "SG5 4LA",
        "uprn": "100081257267"
    },
    {
        "org_id": "P3C6",
        "name": "PENN CARE PHARMACY",
        "primary_role_id": "RO181",
        "role_ids": [
            "RO181"
        ],
        "status": "Active",
        "post_code": "WV4 4LP",
        "uprn": "Unknown"
    },
    {
        "org_id": "P77T",
        "name": "TAYZANA LTD",
        "primary_role_id": "RO181",
        "role_ids": [
            "RO181"
        ],
        "status": "Active",
        "post_code": "CR0 4UQ",
        "uprn": "Unknown"
    },
    {
        "org_id": "P3C4",
        "name": "MS CHEMISTS LTD",
        "primary_role_id": "RO181",
        "role_ids": [
            "RO181"
        ],
        "status": "Active",
        "post_code": "CM15 0NG",
        "uprn": "100091435330"
    },
    {
        "org_id": "P2CY",
        "name": "TETTENHALL WOOD LTD",
        "primary_role_id": "RO181",
        "role_ids": [
            "RO181"
        ],
        "status": "Active",
        "post_code": "WV6 8EJ",
        "uprn": "100071374192"
    },
    {
        "org_id": "P3C7",
        "name": "SHALDON PHARMACY",
        "primary_role_id": "RO181",
        "role_ids": [
            "RO181"
        ],
        "status": "Active",
        "post_code": "TQ14 0DE",
        "uprn": "100040341686"
    },
    {
        "org_id": "P3C9",
        "name": "KEY CHEMISTS",
        "primary_role_id": "RO181",
        "role_ids": [
            "RO181"
        ],
        "status": "Active",
        "post_code": "PE34 4PQ",
        "uprn": "100091619249"
    },
    {
        "org_id": "P4C1",
        "name": "OSLOND LTD",
        "primary_role_id": "RO181",
        "role_ids": [
            "RO181"
        ],
        "status": "Active",
        "post_code": "PO4 0JW",
        "uprn": "Unknown"
    },
    {
        "org_id": "P2WE",
        "name": "TRI-PHARMA LTD",
        "primary_role_id": "RO181",
        "role_ids": [
            "RO181"
        ],
        "status": "Active",
        "post_code": "CV2 3LA",
        "uprn": "Unknown"
    },
    {
        "org_id": "P1E7",
        "name": "PHARMTA LTD",
        "primary_role_id": "RO181",
        "role_ids": [
            "RO181"
        ],
        "status": "Active",
        "post_code": "BL9 9AX",
        "uprn": "Unknown"
    },
    {
        "org_id": "P1E8",
        "name": "GUILSBOROUGH MED SUPP LTD",
        "primary_role_id": "RO181",
        "role_ids": [
            "RO181"
        ],
        "status": "Active",
        "post_code": "NN6 8QE",
        "uprn": "Unknown"
    },
    {
        "org_id": "P1DG",
        "name": "HENDRAS@PENRYN LTD",
        "primary_role_id": "RO181",
        "role_ids": [
            "RO181"
        ],
        "status": "Active",
        "post_code": "TR10 8BH",
        "uprn": "Unknown"
    },
    {
        "org_id": "P1DJ",
        "name": "JAMES FOWLER PHARMACY LTD",
        "primary_role_id": "RO181",
        "role_ids": [
            "RO181"
        ],
        "status": "Active",
        "post_code": "CA3 8RF",
        "uprn": "Unknown"
    },
    {
        "org_id": "P0P3",
        "name": "DAY-NIGHT PHARMACY LTD",
        "primary_role_id": "RO181",
        "role_ids": [
            "RO181"
        ],
        "status": "Active",
        "post_code": "DE1 1PG",
        "uprn": "100031997810"
    },
    {
        "org_id": "P1DY",
        "name": "PRENTEX LTD",
        "primary_role_id": "RO181",
        "role_ids": [
            "RO181"
        ],
        "status": "Active",
        "post_code": "WV1 2NE",
        "uprn": "Unknown"
    },
    {
        "org_id": "P1E1",
        "name": "NO 8 PHARMACY LTD",
        "primary_role_id": "RO181",
        "role_ids": [
            "RO181"
        ],
        "status": "Active",
        "post_code": "CV12 8NF",
        "uprn": "100071359982"
    },
    {
        "org_id": "P1E2",
        "name": "INCABELL LTD",
        "primary_role_id": "RO181",
        "role_ids": [
            "RO181"
        ],
        "status": "Active",
        "post_code": "SW10 0LU",
        "uprn": "Unknown"
    },
    {
        "org_id": "P1E3",
        "name": "KHAN AJAIZ",
        "primary_role_id": "RO181",
        "role_ids": [
            "RO181"
        ],
        "status": "Active",
        "post_code": "ST6 2ER",
        "uprn": "3455101445"
    },
    {
        "org_id": "P0PE",
        "name": "TAMRUSH LTD",
        "primary_role_id": "RO181",
        "role_ids": [
            "RO181"
        ],
        "status": "Active",
        "post_code": "BR1 4JX",
        "uprn": "Unknown"
    },
    {
        "org_id": "P0LJ",
        "name": "WHITE ROSE SURGERY LTD",
        "primary_role_id": "RO181",
        "role_ids": [
            "RO181"
        ],
        "status": "Active",
        "post_code": "WF9 2RD",
        "uprn": "Unknown"
    },
    {
        "org_id": "P0LK",
        "name": "HENGATE HEALTHCARE LTD",
        "primary_role_id": "RO181",
        "role_ids": [
            "RO181"
        ],
        "status": "Active",
        "post_code": "HU17 8BN",
        "uprn": "Unknown"
    },
    {
        "org_id": "P0JD",
        "name": "H Z H PHARMACY LTD",
        "primary_role_id": "RO181",
        "role_ids": [
            "RO181"
        ],
        "status": "Active",
        "post_code": "ME10 3RN",
        "uprn": "Unknown"
    },
    {
        "org_id": "P0JF",
        "name": "S KHOSLA",
        "primary_role_id": "RO181",
        "role_ids": [
            "RO181"
        ],
        "status": "Active",
        "post_code": "E11 3HR",
        "uprn": "Unknown"
    },
    {
        "org_id": "P3N2",
        "name": "SINGHS MEDICAL LIMITED",
        "primary_role_id": "RO181",
        "role_ids": [
            "RO181"
        ],
        "status": "Active",
        "post_code": "S80 2TP",
        "uprn": "Unknown"
    },
    {
        "org_id": "P3N1",
        "name": "WGA UK LTD",
        "primary_role_id": "RO181",
        "role_ids": [
            "RO181"
        ],
        "status": "Active",
        "post_code": "L34 1LT",
        "uprn": "Unknown"
    },
    {
        "org_id": "P3N3",
        "name": "NAZIA KAUSAR YOUNAS",
        "primary_role_id": "RO181",
        "role_ids": [
            "RO181"
        ],
        "status": "Active",
        "post_code": "BD18 3HZ",
        "uprn": "100051937243"
    },
    {
        "org_id": "P3N4",
        "name": "FIRST CARE PHARMACY LTD",
        "primary_role_id": "RO181",
        "role_ids": [
            "RO181"
        ],
        "status": "Active",
        "post_code": "SE28 0NY",
        "uprn": "10010223978"
    },
    {
        "org_id": "P3LN",
        "name": "SZ ENTERPRISE LIMITED",
        "primary_role_id": "RO181",
        "role_ids": [
            "RO181"
        ],
        "status": "Active",
        "post_code": "OL6 6HE",
        "uprn": "Unknown"
    },
    {
        "org_id": "P3FT",
        "name": "SAJAD KHAN AND RASHID MAHMOOD",
        "primary_role_id": "RO181",
        "role_ids": [
            "RO181"
        ],
        "status": "Active",
        "post_code": "B5 7TU",
        "uprn": "Unknown"
    },
    {
        "org_id": "P3FR",
        "name": "IMRAN NAZIR",
        "primary_role_id": "RO181",
        "role_ids": [
            "RO181"
        ],
        "status": "Active",
        "post_code": "BB10 1LG",
        "uprn": "Unknown"
    },
    {
        "org_id": "P3FV",
        "name": "EXPERTRETURN LTD",
        "primary_role_id": "RO181",
        "role_ids": [
            "RO181"
        ],
        "status": "Active",
        "post_code": "SE10 0PE",
        "uprn": "10010231909"
    },
    {
        "org_id": "P0PG",
        "name": "WOODROFFE RICHARD",
        "primary_role_id": "RO181",
        "role_ids": [
            "RO181"
        ],
        "status": "Active",
        "post_code": "RH4 1SD",
        "uprn": "Unknown"
    },
    {
        "org_id": "P0PJ",
        "name": "SHAH SS",
        "primary_role_id": "RO181",
        "role_ids": [
            "RO181"
        ],
        "status": "Active",
        "post_code": "SG15 6RA",
        "uprn": "100080046023"
    },
    {
        "org_id": "P1DV",
        "name": "DAMIAN LTD",
        "primary_role_id": "RO181",
        "role_ids": [
            "RO181"
        ],
        "status": "Active",
        "post_code": "DN20 0DY",
        "uprn": "100050184788"
    },
    {
        "org_id": "P1DW",
        "name": "RONEXIS LTD",
        "primary_role_id": "RO181",
        "role_ids": [
            "RO181"
        ],
        "status": "Active",
        "post_code": "SO23 7PJ",
        "uprn": "10034507617"
    },
    {
        "org_id": "P2TW",
        "name": "DIALACHEMIST LTD",
        "primary_role_id": "RO181",
        "role_ids": [
            "RO181"
        ],
        "status": "Active",
        "post_code": "BB5 5JG",
        "uprn": "Unknown"
    },
    {
        "org_id": "P2TX",
        "name": "VICARAGE CONSORTIUM LTD",
        "primary_role_id": "RO181",
        "role_ids": [
            "RO181"
        ],
        "status": "Active",
        "post_code": "E15 4ES",
        "uprn": "Unknown"
    },
    {
        "org_id": "P2V1",
        "name": "MPHARM LTD",
        "primary_role_id": "RO181",
        "role_ids": [
            "RO181"
        ],
        "status": "Active",
        "post_code": "BB3 1PS",
        "uprn": "Unknown"
    },
    {
        "org_id": "P2P2",
        "name": "MYGLOBE LTD",
        "primary_role_id": "RO181",
        "role_ids": [
            "RO181"
        ],
        "status": "Active",
        "post_code": "BS15 4ND",
        "uprn": "544791"
    },
    {
        "org_id": "P2P3",
        "name": "FISHLOCKS PARTNERSHIP",
        "primary_role_id": "RO181",
        "role_ids": [
            "RO181"
        ],
        "status": "Active",
        "post_code": "L40 4BY",
        "uprn": "100012657060"
    },
    {
        "org_id": "P3N5",
        "name": "MUBARAK HEALTHCARE LTD",
        "primary_role_id": "RO181",
        "role_ids": [
            "RO181"
        ],
        "status": "Active",
        "post_code": "B10 0SW",
        "uprn": "100071384914"
    },
    {
        "org_id": "P3N6",
        "name": "DISPENSE4ME LTD",
        "primary_role_id": "RO181",
        "role_ids": [
            "RO181"
        ],
        "status": "Active",
        "post_code": "LE12 9AL",
        "uprn": "Unknown"
    },
    {
        "org_id": "P0XH",
        "name": "LEAL HEALTHCARE LTD",
        "primary_role_id": "RO181",
        "role_ids": [
            "RO181"
        ],
        "status": "Active",
        "post_code": "SO20 6EX",
        "uprn": "100062011175"
    },
    {
        "org_id": "P0XJ",
        "name": "HUDDERSFIELD HEALTH FOCUS LTD",
        "primary_role_id": "RO181",
        "role_ids": [
            "RO181"
        ],
        "status": "Active",
        "post_code": "HD1 4EL",
        "uprn": "Unknown"
    },
    {
        "org_id": "P0XK",
        "name": "CARING NATIONWIDE LIMITED",
        "primary_role_id": "RO181",
        "role_ids": [
            "RO181"
        ],
        "status": "Active",
        "post_code": "HU12 8EX",
        "uprn": "Unknown"
    },
    {
        "org_id": "P0XL",
        "name": "LARCHFIELD DAWA LTD",
        "primary_role_id": "RO181",
        "role_ids": [
            "RO181"
        ],
        "status": "Active",
        "post_code": "SL6 2SZ",
        "uprn": "100081274754"
    },
    {
        "org_id": "P0LE",
        "name": "NORTH VIEW PHARMACY LTD",
        "primary_role_id": "RO181",
        "role_ids": [
            "RO181"
        ],
        "status": "Active",
        "post_code": "BS6 7PT",
        "uprn": "Unknown"
    },
    {
        "org_id": "P0RX",
        "name": "MRS P C ONDHIA",
        "primary_role_id": "RO181",
        "role_ids": [
            "RO181"
        ],
        "status": "Active",
        "post_code": "NR34 7EF",
        "uprn": "Unknown"
    },
    {
        "org_id": "P0J3",
        "name": "MAPLEWOOD INVESTMENTS LTD",
        "primary_role_id": "RO181",
        "role_ids": [
            "RO181"
        ],
        "status": "Active",
        "post_code": "SS0 7JJ",
        "uprn": "100090710715"
    },
    {
        "org_id": "P0LN",
        "name": "MEDICHEM (LEEDS) LTD",
        "primary_role_id": "RO181",
        "role_ids": [
            "RO181"
        ],
        "status": "Active",
        "post_code": "LS7 4LA",
        "uprn": "Unknown"
    },
    {
        "org_id": "P0LP",
        "name": "CLEAR PHARMACY (IOM) LTD",
        "primary_role_id": "RO181",
        "role_ids": [
            "RO181"
        ],
        "status": "Active",
        "post_code": "IM5 1HD",
        "uprn": "Unknown"
    },
    {
        "org_id": "P0M5",
        "name": "LISA CORKER",
        "primary_role_id": "RO181",
        "role_ids": [
            "RO181"
        ],
        "status": "Active",
        "post_code": "WA1 2AR",
        "uprn": "Unknown"
    },
    {
        "org_id": "P0M6",
        "name": "MR N GOMPELS",
        "primary_role_id": "RO181",
        "role_ids": [
            "RO181"
        ],
        "status": "Active",
        "post_code": "WR4 9FA",
        "uprn": "Unknown"
    },
    {
        "org_id": "P0W5",
        "name": "ARIDOR LIMITED",
        "primary_role_id": "RO181",
        "role_ids": [
            "RO181"
        ],
        "status": "Active",
        "post_code": "IG4 5ET",
        "uprn": "100022233028"
    },
    {
        "org_id": "P0W6",
        "name": "CHALGROVE PHARMACY LTD",
        "primary_role_id": "RO181",
        "role_ids": [
            "RO181"
        ],
        "status": "Active",
        "post_code": "OX44 7SS",
        "uprn": "100121365608"
    },
    {
        "org_id": "P0PP",
        "name": "SEBPHARM LTD",
        "primary_role_id": "RO181",
        "role_ids": [
            "RO181"
        ],
        "status": "Active",
        "post_code": "WF3 3LJ",
        "uprn": "72371495"
    },
    {
        "org_id": "P4C2",
        "name": "G OSTROWSKI",
        "primary_role_id": "RO181",
        "role_ids": [
            "RO181"
        ],
        "status": "Active",
        "post_code": "WD3 3LE",
        "uprn": "100081289307"
    },
    {
        "org_id": "P3CD",
        "name": "NAYLORS LTD",
        "primary_role_id": "RO181",
        "role_ids": [
            "RO181"
        ],
        "status": "Active",
        "post_code": "HD6 3NA",
        "uprn": "Unknown"
    },
    {
        "org_id": "P3CE",
        "name": "NEELCHEM LTD",
        "primary_role_id": "RO181",
        "role_ids": [
            "RO181"
        ],
        "status": "Active",
        "post_code": "MK40 2PN",
        "uprn": "Unknown"
    },
    {
        "org_id": "P4C3",
        "name": "P EDWARD LTD",
        "primary_role_id": "RO181",
        "role_ids": [
            "RO181"
        ],
        "status": "Active",
        "post_code": "N1 1BB",
        "uprn": "Unknown"
    },
    {
        "org_id": "P0AK",
        "name": "NEMHILL LTD",
        "primary_role_id": "RO181",
        "role_ids": [
            "RO181"
        ],
        "status": "Active",
        "post_code": "SW19 1SB",
        "uprn": "Unknown"
    },
    {
        "org_id": "P1CQ",
        "name": "VASANI DN",
        "primary_role_id": "RO181",
        "role_ids": [
            "RO181"
        ],
        "status": "Active",
        "post_code": "CM16 6BU",
        "uprn": "Unknown"
    },
    {
        "org_id": "P4C4",
        "name": "SHANTYS",
        "primary_role_id": "RO181",
        "role_ids": [
            "RO181"
        ],
        "status": "Active",
        "post_code": "CM2 0DL",
        "uprn": "100091440925"
    },
    {
        "org_id": "P3CF",
        "name": "NESTBURG LTD",
        "primary_role_id": "RO181",
        "role_ids": [
            "RO181"
        ],
        "status": "Active",
        "post_code": "M16 7WW",
        "uprn": "Unknown"
    },
    {
        "org_id": "P4C5",
        "name": "PANACEA PHARMACY LTD",
        "primary_role_id": "RO181",
        "role_ids": [
            "RO181"
        ],
        "status": "Active",
        "post_code": "LS26 0QD",
        "uprn": "Unknown"
    },
    {
        "org_id": "P3CH",
        "name": "NEWPORT PHARMACY BOLTON LTD",
        "primary_role_id": "RO181",
        "role_ids": [
            "RO181"
        ],
        "status": "Active",
        "post_code": "BL1 1NE",
        "uprn": "Unknown"
    },
    {
        "org_id": "P1CT",
        "name": "VIBIKAS LTD",
        "primary_role_id": "RO181",
        "role_ids": [
            "RO181"
        ],
        "status": "Active",
        "post_code": "KT20 7RT",
        "uprn": "68150963"
    },
    {
        "org_id": "P4C8",
        "name": "MAYFIELD PHARMACY",
        "primary_role_id": "RO181",
        "role_ids": [
            "RO181"
        ],
        "status": "Active",
        "post_code": "LU5 4AP",
        "uprn": "100081195207"
    },
    {
        "org_id": "P4CE",
        "name": "AC PATEL (PREENTREE) LTD",
        "primary_role_id": "RO181",
        "role_ids": [
            "RO181"
        ],
        "status": "Active",
        "post_code": "NW3 2PY",
        "uprn": "Unknown"
    },
    {
        "org_id": "P3CL",
        "name": "NEWLYN PHARMACY",
        "primary_role_id": "RO181",
        "role_ids": [
            "RO181"
        ],
        "status": "Active",
        "post_code": "TR18 5HH",
        "uprn": "10093023554"
    },
    {
        "org_id": "P4CK",
        "name": "OLINS PHARMACY",
        "primary_role_id": "RO181",
        "role_ids": [
            "RO181"
        ],
        "status": "Active",
        "post_code": "DA15 9ER",
        "uprn": "100022920055"
    },
    {
        "org_id": "P4CL",
        "name": "MARKAND PHARMACY",
        "primary_role_id": "RO181",
        "role_ids": [
            "RO181"
        ],
        "status": "Active",
        "post_code": "RG4 6DH",
        "uprn": "310009616"
    },
    {
        "org_id": "P4CN",
        "name": "MILLARD & BULLOCK",
        "primary_role_id": "RO181",
        "role_ids": [
            "RO181"
        ],
        "status": "Active",
        "post_code": "WV14 9DD",
        "uprn": "90119755"
    },
    {
        "org_id": "P4CQ",
        "name": "COOMBE HILL PHARMACY",
        "primary_role_id": "RO181",
        "role_ids": [
            "RO181"
        ],
        "status": "Active",
        "post_code": "KT1 3RU",
        "uprn": "100021768521"
    },
    {
        "org_id": "P4CR",
        "name": "BECKTON PHARMACY",
        "primary_role_id": "RO181",
        "role_ids": [
            "RO181"
        ],
        "status": "Active",
        "post_code": "E6 5LX",
        "uprn": "46252594"
    },
    {
        "org_id": "P4CT",
        "name": "BISHOPS PHARMACY",
        "primary_role_id": "RO181",
        "role_ids": [
            "RO181"
        ],
        "status": "Active",
        "post_code": "N2 0DR",
        "uprn": "Unknown"
    },
    {
        "org_id": "P3CV",
        "name": "RIVERSIDE PHARMACY",
        "primary_role_id": "RO181",
        "role_ids": [
            "RO181"
        ],
        "status": "Active",
        "post_code": "L8 6QP",
        "uprn": "Unknown"
    },
    {
        "org_id": "P4CV",
        "name": "FAIRLEY'S PHARMACY",
        "primary_role_id": "RO181",
        "role_ids": [
            "RO181"
        ],
        "status": "Active",
        "post_code": "MK41 0PW",
        "uprn": "100081209245"
    },
    {
        "org_id": "P4CX",
        "name": "PARKLANDS PHARMACY",
        "primary_role_id": "RO181",
        "role_ids": [
            "RO181"
        ],
        "status": "Active",
        "post_code": "NN3 6ND",
        "uprn": "15024401"
    },
    {
        "org_id": "P3CY",
        "name": "RC ODEDRA",
        "primary_role_id": "RO181",
        "role_ids": [
            "RO181"
        ],
        "status": "Active",
        "post_code": "PE2 8AY",
        "uprn": "Unknown"
    },
    {
        "org_id": "P4CY",
        "name": "JP PATEL",
        "primary_role_id": "RO181",
        "role_ids": [
            "RO181"
        ],
        "status": "Active",
        "post_code": "CT20 1ES",
        "uprn": "50116863"
    },
    {
        "org_id": "P6C0",
        "name": "ODESSEY LTD",
        "primary_role_id": "RO181",
        "role_ids": [
            "RO181"
        ],
        "status": "Active",
        "post_code": "NN16 8DH",
        "uprn": "Unknown"
    },
    {
        "org_id": "P3AY",
        "name": "PE LOGAN LTD",
        "primary_role_id": "RO181",
        "role_ids": [
            "RO181"
        ],
        "status": "Active",
        "post_code": "SE14 6TA",
        "uprn": "Unknown"
    },
    {
        "org_id": "P00T",
        "name": "NR PATEL CHEMISTS",
        "primary_role_id": "RO181",
        "role_ids": [
            "RO181"
        ],
        "status": "Active",
        "post_code": "N13 4SE",
        "uprn": "207048982"
    },
    {
        "org_id": "P03E",
        "name": "NIEMANS CHEMIST LTD",
        "primary_role_id": "RO181",
        "role_ids": [
            "RO181"
        ],
        "status": "Active",
        "post_code": "EC3R 5AS",
        "uprn": "100022935264"
    },
    {
        "org_id": "P03V",
        "name": "WOODSIDE (LONDON) LTD",
        "primary_role_id": "RO181",
        "role_ids": [
            "RO181"
        ],
        "status": "Active",
        "post_code": "E11 1HH",
        "uprn": "Unknown"
    },
    {
        "org_id": "P04C",
        "name": "TRACEWICK LTD",
        "primary_role_id": "RO181",
        "role_ids": [
            "RO181"
        ],
        "status": "Active",
        "post_code": "W4 3RS",
        "uprn": "Unknown"
    },
    {
        "org_id": "P5C3",
        "name": "WYLDE GREEN PHARMACY",
        "primary_role_id": "RO181",
        "role_ids": [
            "RO181"
        ],
        "status": "Active",
        "post_code": "B72 1AX",
        "uprn": "100071397718"
    },
    {
        "org_id": "P06L",
        "name": "SAFEDALE LIMITED",
        "primary_role_id": "RO181",
        "role_ids": [
            "RO181"
        ],
        "status": "Active",
        "post_code": "N21 1RA",
        "uprn": "Unknown"
    },
    {
        "org_id": "P06V",
        "name": "AKHTAR S",
        "primary_role_id": "RO181",
        "role_ids": [
            "RO181"
        ],
        "status": "Active",
        "post_code": "NW2 3EE",
        "uprn": "200028867"
    },
    {
        "org_id": "P07Q",
        "name": "W. PRICE CHEMIST",
        "primary_role_id": "RO181",
        "role_ids": [
            "RO181"
        ],
        "status": "Active",
        "post_code": "NW2 1NT",
        "uprn": "Unknown"
    },
    {
        "org_id": "P07T",
        "name": "SATURN PHARMACY",
        "primary_role_id": "RO181",
        "role_ids": [
            "RO181"
        ],
        "status": "Active",
        "post_code": "SW16 6LY",
        "uprn": "10008158959"
    },
    {
        "org_id": "P5C4",
        "name": "BOWER CHEMISTS",
        "primary_role_id": "RO181",
        "role_ids": [
            "RO181"
        ],
        "status": "Active",
        "post_code": "E11 4EA",
        "uprn": "100022549103"
    },
    {
        "org_id": "P03W",
        "name": "BERKLEY TRADERS LTD",
        "primary_role_id": "RO181",
        "role_ids": [
            "RO181"
        ],
        "status": "Active",
        "post_code": "SE12 0AA",
        "uprn": "Unknown"
    },
    {
        "org_id": "P0XW",
        "name": "ADUR MEDICAL LTD",
        "primary_role_id": "RO181",
        "role_ids": [
            "RO181"
        ],
        "status": "Active",
        "post_code": "BN43 5ZE",
        "uprn": "Unknown"
    },
    {
        "org_id": "P0XX",
        "name": "IXWORTH MEDICAL SERVICES LTD",
        "primary_role_id": "RO181",
        "role_ids": [
            "RO181"
        ],
        "status": "Active",
        "post_code": "IP31 2HD",
        "uprn": "Unknown"
    },
    {
        "org_id": "P1LC",
        "name": "MATRIX PRIMARY HEALTHCARE LTD",
        "primary_role_id": "RO181",
        "role_ids": [
            "RO181"
        ],
        "status": "Active",
        "post_code": "DY13 0NQ",
        "uprn": "100121286115"
    },
    {
        "org_id": "P1LG",
        "name": "PHARMACY CARE PLUS LIMITED",
        "primary_role_id": "RO181",
        "role_ids": [
            "RO181"
        ],
        "status": "Active",
        "post_code": "HX1 4NE",
        "uprn": "100052039219"
    },
    {
        "org_id": "P97C",
        "name": "DNR RITZ HEALTHCARE LTD",
        "primary_role_id": "RO181",
        "role_ids": [
            "RO181"
        ],
        "status": "Active",
        "post_code": "NW3 6UA",
        "uprn": "5067995"
    },
    {
        "org_id": "P3D2",
        "name": "EAGLEBOND LIMITED",
        "primary_role_id": "RO181",
        "role_ids": [
            "RO181"
        ],
        "status": "Active",
        "post_code": "CB7 5JD",
        "uprn": "Unknown"
    },
    {
        "org_id": "P3D3",
        "name": "MR IRFAN HANIF",
        "primary_role_id": "RO181",
        "role_ids": [
            "RO181"
        ],
        "status": "Active",
        "post_code": "BD9 4RQ",
        "uprn": "Unknown"
    },
    {
        "org_id": "P1F9",
        "name": "CLINPHARM HEALTHCARE LTD",
        "primary_role_id": "RO181",
        "role_ids": [
            "RO181"
        ],
        "status": "Active",
        "post_code": "B10 0UU",
        "uprn": "100071385063"
    },
    {
        "org_id": "P1F1",
        "name": "D G NEIL LIMITED",
        "primary_role_id": "RO181",
        "role_ids": [
            "RO181"
        ],
        "status": "Active",
        "post_code": "NE34 9BD",
        "uprn": "200000005290"
    },
    {
        "org_id": "P1F2",
        "name": "MEDICENTRE (NEWCASTLE) LTD",
        "primary_role_id": "RO181",
        "role_ids": [
            "RO181"
        ],
        "status": "Active",
        "post_code": "NE1 5AE",
        "uprn": "Unknown"
    },
    {
        "org_id": "P1F3",
        "name": "WELLE LTD",
        "primary_role_id": "RO181",
        "role_ids": [
            "RO181"
        ],
        "status": "Active",
        "post_code": "PE14 9BT",
        "uprn": "Unknown"
    },
    {
        "org_id": "P1F4",
        "name": "BORG PHARMA LTD",
        "primary_role_id": "RO181",
        "role_ids": [
            "RO181"
        ],
        "status": "Active",
        "post_code": "PO20 8EA",
        "uprn": "Unknown"
    },
    {
        "org_id": "P1F6",
        "name": "MRS ISHRIT AHMED",
        "primary_role_id": "RO181",
        "role_ids": [
            "RO181"
        ],
        "status": "Active",
        "post_code": "UB10 9HP",
        "uprn": "100023414174"
    },
    {
        "org_id": "P1F7",
        "name": "MOUL PHARMACY LTD",
        "primary_role_id": "RO181",
        "role_ids": [
            "RO181"
        ],
        "status": "Active",
        "post_code": "BS36 2LE",
        "uprn": "577272"
    },
    {
        "org_id": "P0X9",
        "name": "SURE HEALTH LTD",
        "primary_role_id": "RO181",
        "role_ids": [
            "RO181"
        ],
        "status": "Active",
        "post_code": "WS1 2LD",
        "uprn": "Unknown"
    },
    {
        "org_id": "P0XE",
        "name": "DK WOOD LTD",
        "primary_role_id": "RO181",
        "role_ids": [
            "RO181"
        ],
        "status": "Active",
        "post_code": "SK10 4DG",
        "uprn": "Unknown"
    },
    {
        "org_id": "P0R9",
        "name": "FURSEWOOD LTD",
        "primary_role_id": "RO181",
        "role_ids": [
            "RO181"
        ],
        "status": "Active",
        "post_code": "TS24 9LA",
        "uprn": "Unknown"
    },
    {
        "org_id": "P0YD",
        "name": "M & B HEALTHCARE",
        "primary_role_id": "RO181",
        "role_ids": [
            "RO181"
        ],
        "status": "Active",
        "post_code": "LS16 8EX",
        "uprn": "Unknown"
    },
    {
        "org_id": "P0YE",
        "name": "DAVENTRY PHARMA LTD",
        "primary_role_id": "RO181",
        "role_ids": [
            "RO181"
        ],
        "status": "Active",
        "post_code": "NN11 4FG",
        "uprn": "28009387"
    },
    {
        "org_id": "P1FX",
        "name": "F P CROSS LTD",
        "primary_role_id": "RO181",
        "role_ids": [
            "RO181"
        ],
        "status": "Active",
        "post_code": "NR32 4PT",
        "uprn": "Unknown"
    },
    {
        "org_id": "P1G3",
        "name": "M E CRONIN LTD",
        "primary_role_id": "RO181",
        "role_ids": [
            "RO181"
        ],
        "status": "Active",
        "post_code": "TS19 8PD",
        "uprn": "Unknown"
    },
    {
        "org_id": "P1G4",
        "name": "RX HEALTHCARE LTD",
        "primary_role_id": "RO181",
        "role_ids": [
            "RO181"
        ],
        "status": "Active",
        "post_code": "B20 2QL",
        "uprn": "Unknown"
    },
    {
        "org_id": "P0YN",
        "name": "S&D HEALTHPHARM LTD",
        "primary_role_id": "RO181",
        "role_ids": [
            "RO181"
        ],
        "status": "Active",
        "post_code": "M5 4BS",
        "uprn": "100012717318"
    },
    {
        "org_id": "P0YT",
        "name": "ALPINECARE LIMITED",
        "primary_role_id": "RO181",
        "role_ids": [
            "RO181"
        ],
        "status": "Active",
        "post_code": "W11 4SX",
        "uprn": "34038494"
    },
    {
        "org_id": "P2ND",
        "name": "LOOKING AFTER YOU LTD",
        "primary_role_id": "RO181",
        "role_ids": [
            "RO181"
        ],
        "status": "Active",
        "post_code": "S80 2AF",
        "uprn": "Unknown"
    },
    {
        "org_id": "P2NH",
        "name": "MUHAMMAD ABDULMALIK ALI",
        "primary_role_id": "RO181",
        "role_ids": [
            "RO181"
        ],
        "status": "Active",
        "post_code": "SK14 1JY",
        "uprn": "Unknown"
    },
    {
        "org_id": "P2NJ",
        "name": "THURMASTON PHARMACY LTD",
        "primary_role_id": "RO181",
        "role_ids": [
            "RO181"
        ],
        "status": "Active",
        "post_code": "LE4 8ED",
        "uprn": "100032063349"
    },
    {
        "org_id": "P11R",
        "name": "GEE PHARM CHEMIST",
        "primary_role_id": "RO181",
        "role_ids": [
            "RO181"
        ],
        "status": "Active",
        "post_code": "SE10 8PB",
        "uprn": "Unknown"
    },
    {
        "org_id": "P125",
        "name": "EASTPHARM LTD",
        "primary_role_id": "RO181",
        "role_ids": [
            "RO181"
        ],
        "status": "Active",
        "post_code": "E11 3NJ",
        "uprn": "Unknown"
    },
    {
        "org_id": "P0TR",
        "name": "WOODSIDE (EA) LIMITED",
        "primary_role_id": "RO181",
        "role_ids": [
            "RO181"
        ],
        "status": "Active",
        "post_code": "NR7 9QL",
        "uprn": "Unknown"
    },
    {
        "org_id": "P0TT",
        "name": "JAN-PHARMA LIMITED",
        "primary_role_id": "RO181",
        "role_ids": [
            "RO181"
        ],
        "status": "Active",
        "post_code": "E18 2PB",
        "uprn": "10034917594"
    },
    {
        "org_id": "P15J",
        "name": "PCT HEALTHCARE LTD",
        "primary_role_id": "RO181",
        "role_ids": [
            "RO181"
        ],
        "status": "Active",
        "post_code": "S41 9PZ",
        "uprn": "Unknown"
    },
    {
        "org_id": "P0JH",
        "name": "PRAREN LTD",
        "primary_role_id": "RO181",
        "role_ids": [
            "RO181"
        ],
        "status": "Active",
        "post_code": "CV3 6FQ",
        "uprn": "100071365039"
    },
    {
        "org_id": "P0T3",
        "name": "PAUL BARRY",
        "primary_role_id": "RO181",
        "role_ids": [
            "RO181"
        ],
        "status": "Active",
        "post_code": "NW3 4AX",
        "uprn": "Unknown"
    },
    {
        "org_id": "P0T4",
        "name": "DIAMOND HEALTHCARE (N.W.) LIMITED",
        "primary_role_id": "RO181",
        "role_ids": [
            "RO181"
        ],
        "status": "Active",
        "post_code": "BL3 6LH",
        "uprn": "Unknown"
    },
    {
        "org_id": "P0HW",
        "name": "DAVEE LTD",
        "primary_role_id": "RO181",
        "role_ids": [
            "RO181"
        ],
        "status": "Active",
        "post_code": "S75 5HQ",
        "uprn": "Unknown"
    },
    {
        "org_id": "P1EQ",
        "name": "MR JOYNAL MEAH",
        "primary_role_id": "RO181",
        "role_ids": [
            "RO181"
        ],
        "status": "Active",
        "post_code": "W1H 4JH",
        "uprn": "Unknown"
    },
    {
        "org_id": "P1KM",
        "name": "LOCTECH PHARMACIA LIMITED",
        "primary_role_id": "RO181",
        "role_ids": [
            "RO181"
        ],
        "status": "Active",
        "post_code": "HD3 4AL",
        "uprn": "Unknown"
    },
    {
        "org_id": "P1KN",
        "name": "LEADING 2 HEALTH LIMITED",
        "primary_role_id": "RO181",
        "role_ids": [
            "RO181"
        ],
        "status": "Active",
        "post_code": "B9 5PU",
        "uprn": "Unknown"
    },
    {
        "org_id": "P1KQ",
        "name": "ANSER IQBAL",
        "primary_role_id": "RO181",
        "role_ids": [
            "RO181"
        ],
        "status": "Active",
        "post_code": "WF4 4NS",
        "uprn": "Unknown"
    },
    {
        "org_id": "P1KR",
        "name": "MR NADEEM M YASIN",
        "primary_role_id": "RO181",
        "role_ids": [
            "RO181"
        ],
        "status": "Active",
        "post_code": "BS5 0PS",
        "uprn": "88045"
    },
    {
        "org_id": "P1KV",
        "name": "PLATT BRIDGE CONSORTIUM LLP",
        "primary_role_id": "RO181",
        "role_ids": [
            "RO181"
        ],
        "status": "Active",
        "post_code": "WN2 5BB",
        "uprn": "Unknown"
    },
    {
        "org_id": "P1ET",
        "name": "ALLCURES COM (2006) LIMITED",
        "primary_role_id": "RO181",
        "role_ids": [
            "RO181"
        ],
        "status": "Active",
        "post_code": "RM17 6SP",
        "uprn": "Unknown"
    },
    {
        "org_id": "P1EW",
        "name": "MR M HOLLAND & MRS M HOLLAND",
        "primary_role_id": "RO181",
        "role_ids": [
            "RO181"
        ],
        "status": "Active",
        "post_code": "WA6 8EF",
        "uprn": "Unknown"
    },
    {
        "org_id": "P1KK",
        "name": "MEDICATION EVERY DAY SERVICES LIMITED",
        "primary_role_id": "RO181",
        "role_ids": [
            "RO181"
        ],
        "status": "Active",
        "post_code": "PO2 0AU",
        "uprn": "Unknown"
    },
    {
        "org_id": "P0R3",
        "name": "MS REENA KANDA",
        "primary_role_id": "RO181",
        "role_ids": [
            "RO181"
        ],
        "status": "Active",
        "post_code": "IG11 7NP",
        "uprn": "Unknown"
    },
    {
        "org_id": "P2TP",
        "name": "7 - 11 LTD",
        "primary_role_id": "RO181",
        "role_ids": [
            "RO181"
        ],
        "status": "Active",
        "post_code": "LE2 0FS",
        "uprn": "Unknown"
    },
    {
        "org_id": "P2TQ",
        "name": "BEST LIGHTING & ELECTRICAL LTD",
        "primary_role_id": "RO181",
        "role_ids": [
            "RO181"
        ],
        "status": "Active",
        "post_code": "B66 4ES",
        "uprn": "Unknown"
    },
    {
        "org_id": "P2TR",
        "name": "MILL PHARM LTD",
        "primary_role_id": "RO181",
        "role_ids": [
            "RO181"
        ],
        "status": "Active",
        "post_code": "IP7 5DN",
        "uprn": "Unknown"
    },
    {
        "org_id": "P1K1",
        "name": "BRADPHARM LTD",
        "primary_role_id": "RO181",
        "role_ids": [
            "RO181"
        ],
        "status": "Active",
        "post_code": "WN5 0AB",
        "uprn": "Unknown"
    },
    {
        "org_id": "P1K2",
        "name": "SEEMED HEALTHCARE LIMITED",
        "primary_role_id": "RO181",
        "role_ids": [
            "RO181"
        ],
        "status": "Active",
        "post_code": "OL4 1DU",
        "uprn": "422000073742"
    },
    {
        "org_id": "P1K3",
        "name": "RAJKEL LIMITED",
        "primary_role_id": "RO181",
        "role_ids": [
            "RO181"
        ],
        "status": "Active",
        "post_code": "CR0 7RA",
        "uprn": "Unknown"
    },
    {
        "org_id": "P1K7",
        "name": "B.S. LOCUMS LTD",
        "primary_role_id": "RO181",
        "role_ids": [
            "RO181"
        ],
        "status": "Active",
        "post_code": "SL2 4LR",
        "uprn": "Unknown"
    },
    {
        "org_id": "P1K4",
        "name": "ROSE MEDICAL LIMITED",
        "primary_role_id": "RO181",
        "role_ids": [
            "RO181"
        ],
        "status": "Active",
        "post_code": "OL8 3BE",
        "uprn": "422000110520"
    },
    {
        "org_id": "P1K8",
        "name": "SHIRAZ & SONS LIMITED",
        "primary_role_id": "RO181",
        "role_ids": [
            "RO181"
        ],
        "status": "Active",
        "post_code": "B77 1LG",
        "uprn": "394028148"
    },
    {
        "org_id": "P1K9",
        "name": "MOHAMMED ASIM",
        "primary_role_id": "RO181",
        "role_ids": [
            "RO181"
        ],
        "status": "Active",
        "post_code": "NG2 4BU",
        "uprn": "Unknown"
    },
    {
        "org_id": "P0PT",
        "name": "SABIR LTD",
        "primary_role_id": "RO181",
        "role_ids": [
            "RO181"
        ],
        "status": "Active",
        "post_code": "CV2 4BL",
        "uprn": "100071367542"
    },
    {
        "org_id": "P1GQ",
        "name": "PHARMACENTRIC LTD",
        "primary_role_id": "RO181",
        "role_ids": [
            "RO181"
        ],
        "status": "Active",
        "post_code": "GU17 9AA",
        "uprn": "100062330476"
    },
    {
        "org_id": "P1GR",
        "name": "HR PHARM LIMITED",
        "primary_role_id": "RO181",
        "role_ids": [
            "RO181"
        ],
        "status": "Active",
        "post_code": "N8 8DT",
        "uprn": "Unknown"
    },
    {
        "org_id": "P1KC",
        "name": "LAMSON LIMITED",
        "primary_role_id": "RO181",
        "role_ids": [
            "RO181"
        ],
        "status": "Active",
        "post_code": "IP2 9RR",
        "uprn": "10004562797"
    },
    {
        "org_id": "P0LA",
        "name": "MR YOGESH PATEL",
        "primary_role_id": "RO181",
        "role_ids": [
            "RO181"
        ],
        "status": "Active",
        "post_code": "NW9 9HH",
        "uprn": "202078114"
    },
    {
        "org_id": "P0LD",
        "name": "TSGK ENTERPRISES LTD",
        "primary_role_id": "RO181",
        "role_ids": [
            "RO181"
        ],
        "status": "Active",
        "post_code": "IG9 6LL",
        "uprn": "100091481868"
    },
    {
        "org_id": "P0HP",
        "name": "HIGHTOWN PHARMACY (MERSEYSIDE) LTD",
        "primary_role_id": "RO181",
        "role_ids": [
            "RO181"
        ],
        "status": "Active",
        "post_code": "L38 0BB",
        "uprn": "Unknown"
    },
    {
        "org_id": "P0EM",
        "name": "GILES EVANS",
        "primary_role_id": "RO181",
        "role_ids": [
            "RO181"
        ],
        "status": "Active",
        "post_code": "WV16 6LP",
        "uprn": "Unknown"
    },
    {
        "org_id": "P2VF",
        "name": "BALBY HEALTHCARE LIMITED",
        "primary_role_id": "RO181",
        "role_ids": [
            "RO181"
        ],
        "status": "Active",
        "post_code": "DN4 0QF",
        "uprn": "Unknown"
    },
    {
        "org_id": "P1KY",
        "name": "WATERTON PHARMACY LTD",
        "primary_role_id": "RO181",
        "role_ids": [
            "RO181"
        ],
        "status": "Active",
        "post_code": "IP12 4FD",
        "uprn": "Unknown"
    },
    {
        "org_id": "P1L2",
        "name": "THE MOUNTS PARTNERSHIP LTD",
        "primary_role_id": "RO181",
        "role_ids": [
            "RO181"
        ],
        "status": "Active",
        "post_code": "NN1 3DS",
        "uprn": "Unknown"
    },
    {
        "org_id": "P1L9",
        "name": "A2Z HEALTHCARE (UK) LTD",
        "primary_role_id": "RO181",
        "role_ids": [
            "RO181"
        ],
        "status": "Active",
        "post_code": "B45 9JA",
        "uprn": "Unknown"
    },
    {
        "org_id": "P0WF",
        "name": "MR W AHMAD",
        "primary_role_id": "RO181",
        "role_ids": [
            "RO181"
        ],
        "status": "Active",
        "post_code": "L35 5DY",
        "uprn": "40029962"
    },
    {
        "org_id": "P0W9",
        "name": "MR M SHAH TSU (EUROPE) LTD",
        "primary_role_id": "RO181",
        "role_ids": [
            "RO181"
        ],
        "status": "Active",
        "post_code": "N13 5XG",
        "uprn": "Unknown"
    },
    {
        "org_id": "P0WA",
        "name": "CASTLE POINT (UK) LTD",
        "primary_role_id": "RO181",
        "role_ids": [
            "RO181"
        ],
        "status": "Active",
        "post_code": "BH8 9UD",
        "uprn": "100041057582"
    },
    {
        "org_id": "P0WC",
        "name": "TWILIGHT UK LTD",
        "primary_role_id": "RO181",
        "role_ids": [
            "RO181"
        ],
        "status": "Active",
        "post_code": "B11 1ND",
        "uprn": "100070276344"
    },
    {
        "org_id": "P1EK",
        "name": "FRESHNAME 376 LTD",
        "primary_role_id": "RO181",
        "role_ids": [
            "RO181"
        ],
        "status": "Active",
        "post_code": "TN27 9NL",
        "uprn": "200003699880"
    },
    {
        "org_id": "P1EL",
        "name": "WILLOW PHARMACY LTD",
        "primary_role_id": "RO181",
        "role_ids": [
            "RO181"
        ],
        "status": "Active",
        "post_code": "PO33 2LE",
        "uprn": "100060767592"
    },
    {
        "org_id": "P1EM",
        "name": "ZPHARM LTD (MR YAR JUSSAB)",
        "primary_role_id": "RO181",
        "role_ids": [
            "RO181"
        ],
        "status": "Active",
        "post_code": "LE3 2JW",
        "uprn": "Unknown"
    },
    {
        "org_id": "P1EP",
        "name": "N9 LIMITED",
        "primary_role_id": "RO181",
        "role_ids": [
            "RO181"
        ],
        "status": "Active",
        "post_code": "N9 7HD",
        "uprn": "Unknown"
    },
    {
        "org_id": "P0QC",
        "name": "BD HEALTHCARE LTD",
        "primary_role_id": "RO181",
        "role_ids": [
            "RO181"
        ],
        "status": "Active",
        "post_code": "B69 4SN",
        "uprn": "32085211"
    },
    {
        "org_id": "P0ET",
        "name": "MR NILESH MORJARIA",
        "primary_role_id": "RO181",
        "role_ids": [
            "RO181"
        ],
        "status": "Active",
        "post_code": "LU3 2BE",
        "uprn": "Unknown"
    },
    {
        "org_id": "P3L5",
        "name": "PRESTFORD LIMITED",
        "primary_role_id": "RO181",
        "role_ids": [
            "RO181"
        ],
        "status": "Active",
        "post_code": "BB3 2LZ",
        "uprn": "Unknown"
    },
    {
        "org_id": "P0HK",
        "name": "MR MAIK UDDIN",
        "primary_role_id": "RO181",
        "role_ids": [
            "RO181"
        ],
        "status": "Active",
        "post_code": "M41 9NU",
        "uprn": "100012711683"
    },
    {
        "org_id": "P0HL",
        "name": "MR G M LAD",
        "primary_role_id": "RO181",
        "role_ids": [
            "RO181"
        ],
        "status": "Active",
        "post_code": "NG14 7AB",
        "uprn": "100032099891"
    },
    {
        "org_id": "P1D6",
        "name": "VALEMED LTD",
        "primary_role_id": "RO181",
        "role_ids": [
            "RO181"
        ],
        "status": "Active",
        "post_code": "SR2 7RW",
        "uprn": "Unknown"
    },
    {
        "org_id": "P1GW",
        "name": "WEAVEDESIGN LTD",
        "primary_role_id": "RO181",
        "role_ids": [
            "RO181"
        ],
        "status": "Active",
        "post_code": "DN20 8AS",
        "uprn": "Unknown"
    },
    {
        "org_id": "P0EV",
        "name": "SUTTON & MERTON OOH COOP LIMITED",
        "primary_role_id": "RO181",
        "role_ids": [
            "RO181"
        ],
        "status": "Active",
        "post_code": "SM1 2RJ",
        "uprn": "Unknown"
    },
    {
        "org_id": "P3E5",
        "name": "MR DILIP MAROO",
        "primary_role_id": "RO181",
        "role_ids": [
            "RO181"
        ],
        "status": "Active",
        "post_code": "LU1 1BW",
        "uprn": "100081188878"
    },
    {
        "org_id": "P3DW",
        "name": "AVICENNA SANATIO PHARMA LTD",
        "primary_role_id": "RO181",
        "role_ids": [
            "RO181"
        ],
        "status": "Active",
        "post_code": "BD7 1QJ",
        "uprn": "100051952975"
    },
    {
        "org_id": "P3DX",
        "name": "JHOOTS HEALTHCARE LTD",
        "primary_role_id": "RO181",
        "role_ids": [
            "RO181"
        ],
        "status": "Active",
        "post_code": "WS4 2LA",
        "uprn": "Unknown"
    },
    {
        "org_id": "P3DY",
        "name": "BROUGHTON PARK PHARMACY LTD",
        "primary_role_id": "RO181",
        "role_ids": [
            "RO181"
        ],
        "status": "Active",
        "post_code": "M7 4AS",
        "uprn": "100012721749"
    },
    {
        "org_id": "P0H4",
        "name": "MS KAREN SMILLIE & MS DEBORAH BAKER",
        "primary_role_id": "RO181",
        "role_ids": [
            "RO181"
        ],
        "status": "Active",
        "post_code": "BN7 1RP",
        "uprn": "100062273979"
    },
    {
        "org_id": "P0H6",
        "name": "B K KANDOLA LTD",
        "primary_role_id": "RO181",
        "role_ids": [
            "RO181"
        ],
        "status": "Active",
        "post_code": "PE19 6PA",
        "uprn": "10002835358"
    },
    {
        "org_id": "P0H9",
        "name": "OSBON MEDICALS LIMITED",
        "primary_role_id": "RO181",
        "role_ids": [
            "RO181"
        ],
        "status": "Active",
        "post_code": "BR5 3NJ",
        "uprn": "100022898684"
    },
    {
        "org_id": "P0HE",
        "name": "RAMZAN LTD",
        "primary_role_id": "RO181",
        "role_ids": [
            "RO181"
        ],
        "status": "Active",
        "post_code": "DY5 4ED",
        "uprn": "90123472"
    },
    {
        "org_id": "P2QM",
        "name": "PHARMALINK SOLUTIONS LTD",
        "primary_role_id": "RO181",
        "role_ids": [
            "RO181"
        ],
        "status": "Active",
        "post_code": "BD16 1HS",
        "uprn": "Unknown"
    },
    {
        "org_id": "P2QL",
        "name": "SHERBY PHARMA LTD",
        "primary_role_id": "RO181",
        "role_ids": [
            "RO181"
        ],
        "status": "Active",
        "post_code": "OX14 1AH",
        "uprn": "100121312087"
    },
    {
        "org_id": "P2QN",
        "name": "SOGIM LTD",
        "primary_role_id": "RO181",
        "role_ids": [
            "RO181"
        ],
        "status": "Active",
        "post_code": "SE22 8HU",
        "uprn": "Unknown"
    },
    {
        "org_id": "P2QP",
        "name": "MR MEB DATOO",
        "primary_role_id": "RO181",
        "role_ids": [
            "RO181"
        ],
        "status": "Active",
        "post_code": "PE6 7RG",
        "uprn": "Unknown"
    },
    {
        "org_id": "P1FC",
        "name": "DOZ UK LTD",
        "primary_role_id": "RO181",
        "role_ids": [
            "RO181"
        ],
        "status": "Active",
        "post_code": "N1 9ER",
        "uprn": "Unknown"
    },
    {
        "org_id": "P1FF",
        "name": "NARESH SINGH & PERDITA SINGH-KAVANAGH",
        "primary_role_id": "RO181",
        "role_ids": [
            "RO181"
        ],
        "status": "Active",
        "post_code": "CR0 4QR",
        "uprn": "Unknown"
    },
    {
        "org_id": "P1FG",
        "name": "DRUGMART LTD",
        "primary_role_id": "RO181",
        "role_ids": [
            "RO181"
        ],
        "status": "Active",
        "post_code": "OL12 6PQ",
        "uprn": "23059894"
    },
    {
        "org_id": "P2PN",
        "name": "ENIMED LTD",
        "primary_role_id": "RO181",
        "role_ids": [
            "RO181"
        ],
        "status": "Active",
        "post_code": "W3 7DD",
        "uprn": "12107906"
    },
    {
        "org_id": "P2PQ",
        "name": "WHITELEAS WAY LTD",
        "primary_role_id": "RO181",
        "role_ids": [
            "RO181"
        ],
        "status": "Active",
        "post_code": "NE34 8HF",
        "uprn": "100000507769"
    },
    {
        "org_id": "P2PR",
        "name": "AMRAN PHARMACY LTD",
        "primary_role_id": "RO181",
        "role_ids": [
            "RO181"
        ],
        "status": "Active",
        "post_code": "N12 9QU",
        "uprn": "200060837"
    },
    {
        "org_id": "P0RJ",
        "name": "ROBERT AND ROBERTS LTD",
        "primary_role_id": "RO181",
        "role_ids": [
            "RO181"
        ],
        "status": "Active",
        "post_code": "DL5 5DH",
        "uprn": "100110751555"
    },
    {
        "org_id": "P0RP",
        "name": "JHL CARE LIMITED",
        "primary_role_id": "RO181",
        "role_ids": [
            "RO181"
        ],
        "status": "Active",
        "post_code": "HU13 9BB",
        "uprn": "100052016276"
    },
    {
        "org_id": "P0RR",
        "name": "NEWDAYS PHARMACY LTD",
        "primary_role_id": "RO181",
        "role_ids": [
            "RO181"
        ],
        "status": "Active",
        "post_code": "RG1 6DJ",
        "uprn": "310053053"
    },
    {
        "org_id": "P0RT",
        "name": "MEDICINE CLINIC LTD",
        "primary_role_id": "RO181",
        "role_ids": [
            "RO181"
        ],
        "status": "Active",
        "post_code": "BH22 8EB",
        "uprn": "Unknown"
    },
    {
        "org_id": "P1FJ",
        "name": "STEVEN LO",
        "primary_role_id": "RO181",
        "role_ids": [
            "RO181"
        ],
        "status": "Active",
        "post_code": "S63 5DB",
        "uprn": "Unknown"
    },
    {
        "org_id": "P2MC",
        "name": "MEDICX PHARMACY LTD",
        "primary_role_id": "RO181",
        "role_ids": [
            "RO181"
        ],
        "status": "Active",
        "post_code": "PR7 2EF",
        "uprn": "Unknown"
    },
    {
        "org_id": "P616",
        "name": "JM MCGILL LTD",
        "primary_role_id": "RO181",
        "role_ids": [
            "RO181"
        ],
        "status": "Active",
        "post_code": "DN4 0RS",
        "uprn": "10006623518"
    },
    {
        "org_id": "P2W5",
        "name": "HOWELLS & JOLLEY LTD",
        "primary_role_id": "RO181",
        "role_ids": [
            "RO181"
        ],
        "status": "Active",
        "post_code": "IP18 6DP",
        "uprn": "100091491645"
    },
    {
        "org_id": "P1DE",
        "name": "MED-CHEM PHARMACY",
        "primary_role_id": "RO181",
        "role_ids": [
            "RO181"
        ],
        "status": "Active",
        "post_code": "N4 1DU",
        "uprn": "100023183770"
    },
    {
        "org_id": "P2VH",
        "name": "AA AND OO LTD",
        "primary_role_id": "RO181",
        "role_ids": [
            "RO181"
        ],
        "status": "Active",
        "post_code": "BH12 5BU",
        "uprn": "100041057012"
    },
    {
        "org_id": "P2VJ",
        "name": "THIMMEGOWDA ASSOCIATES LIMITED",
        "primary_role_id": "RO181",
        "role_ids": [
            "RO181"
        ],
        "status": "Active",
        "post_code": "WF13 2JH",
        "uprn": "83165904"
    },
    {
        "org_id": "P2VK",
        "name": "TAK HEALTHCARE LTD",
        "primary_role_id": "RO181",
        "role_ids": [
            "RO181"
        ],
        "status": "Active",
        "post_code": "B33 8TL",
        "uprn": "Unknown"
    },
    {
        "org_id": "P2VL",
        "name": "CROYLAND LTD",
        "primary_role_id": "RO181",
        "role_ids": [
            "RO181"
        ],
        "status": "Active",
        "post_code": "NN29 7QP",
        "uprn": "100032147907"
    },
    {
        "org_id": "P0L2",
        "name": "PROGREZION UK LTD",
        "primary_role_id": "RO181",
        "role_ids": [
            "RO181"
        ],
        "status": "Active",
        "post_code": "M25 1FX",
        "uprn": "100012688912"
    },
    {
        "org_id": "P0RF",
        "name": "MID SUFFOLK MEDICAL SUPPLIES LTD",
        "primary_role_id": "RO181",
        "role_ids": [
            "RO181"
        ],
        "status": "Active",
        "post_code": "IP23 7AF",
        "uprn": "Unknown"
    },
    {
        "org_id": "P2XE",
        "name": "PHARMACY REPUBLIC LTD",
        "primary_role_id": "RO181",
        "role_ids": [
            "RO181"
        ],
        "status": "Active",
        "post_code": "CV11 5RE",
        "uprn": "100071359903"
    },
    {
        "org_id": "P2XH",
        "name": "AVON HEALTHCARE LIMITED",
        "primary_role_id": "RO181",
        "role_ids": [
            "RO181"
        ],
        "status": "Active",
        "post_code": "CV37 6HJ",
        "uprn": "Unknown"
    },
    {
        "org_id": "P2XJ",
        "name": "ECCLESHILL LTD",
        "primary_role_id": "RO181",
        "role_ids": [
            "RO181"
        ],
        "status": "Active",
        "post_code": "BD2 2HY",
        "uprn": "Unknown"
    },
    {
        "org_id": "P2XK",
        "name": "MR PAUL MIDDLETON",
        "primary_role_id": "RO181",
        "role_ids": [
            "RO181"
        ],
        "status": "Active",
        "post_code": "L39 2AU",
        "uprn": "Unknown"
    },
    {
        "org_id": "P2XL",
        "name": "FIVEQUBE LTD",
        "primary_role_id": "RO181",
        "role_ids": [
            "RO181"
        ],
        "status": "Active",
        "post_code": "BD3 0JF",
        "uprn": "Unknown"
    },
    {
        "org_id": "P2XM",
        "name": "MJ WILLIAMS LTD",
        "primary_role_id": "RO181",
        "role_ids": [
            "RO181"
        ],
        "status": "Active",
        "post_code": "BS6 7XR",
        "uprn": "43864"
    },
    {
        "org_id": "P2XR",
        "name": "RYECHEM LTD",
        "primary_role_id": "RO181",
        "role_ids": [
            "RO181"
        ],
        "status": "Active",
        "post_code": "YO62 5HD",
        "uprn": "Unknown"
    },
    {
        "org_id": "P0F1",
        "name": "COLLINS HEALTHCARE LTD",
        "primary_role_id": "RO181",
        "role_ids": [
            "RO181"
        ],
        "status": "Active",
        "post_code": "BB9 9EU",
        "uprn": "Unknown"
    },
    {
        "org_id": "P0F2",
        "name": "ARIEL OBERLANDER",
        "primary_role_id": "RO181",
        "role_ids": [
            "RO181"
        ],
        "status": "Active",
        "post_code": "IG1 3RD",
        "uprn": "100023044928"
    },
    {
        "org_id": "P0F3",
        "name": "MR KHALID AYUB",
        "primary_role_id": "RO181",
        "role_ids": [
            "RO181"
        ],
        "status": "Active",
        "post_code": "MK40 2SF",
        "uprn": "Unknown"
    },
    {
        "org_id": "P1FY",
        "name": "S FLEMING LIMITED",
        "primary_role_id": "RO181",
        "role_ids": [
            "RO181"
        ],
        "status": "Active",
        "post_code": "NE32 3JU",
        "uprn": "Unknown"
    },
    {
        "org_id": "P1D9",
        "name": "MR N E SMITH",
        "primary_role_id": "RO181",
        "role_ids": [
            "RO181"
        ],
        "status": "Active",
        "post_code": "CO10 8NH",
        "uprn": "Unknown"
    },
    {
        "org_id": "P1DC",
        "name": "MRS HINA K SHAH",
        "primary_role_id": "RO181",
        "role_ids": [
            "RO181"
        ],
        "status": "Active",
        "post_code": "LE3 3RU",
        "uprn": "Unknown"
    },
    {
        "org_id": "P0X3",
        "name": "RADCLIFFE PHARMACY LIMITED",
        "primary_role_id": "RO181",
        "role_ids": [
            "RO181"
        ],
        "status": "Active",
        "post_code": "M26 2RF",
        "uprn": "100012690822"
    },
    {
        "org_id": "P03M",
        "name": "GLASSHOUSE CHEMIST",
        "primary_role_id": "RO181",
        "role_ids": [
            "RO181"
        ],
        "status": "Active",
        "post_code": "NG1 3LW",
        "uprn": "100032093688"
    },
    {
        "org_id": "P2N3",
        "name": "BIXLEY PHARMA LIMITED",
        "primary_role_id": "RO181",
        "role_ids": [
            "RO181"
        ],
        "status": "Active",
        "post_code": "IP3 8NQ",
        "uprn": "200004644858"
    },
    {
        "org_id": "P2MY",
        "name": "SYNC CHEM LTD",
        "primary_role_id": "RO181",
        "role_ids": [
            "RO181"
        ],
        "status": "Active",
        "post_code": "WV10 0NT",
        "uprn": "Unknown"
    },
    {
        "org_id": "P1GC",
        "name": "ARTHUR MEDICAL SERVICES LTD",
        "primary_role_id": "RO181",
        "role_ids": [
            "RO181"
        ],
        "status": "Active",
        "post_code": "DE7 6AX",
        "uprn": "Unknown"
    },
    {
        "org_id": "P1GE",
        "name": "MR NEIL SANGHVI",
        "primary_role_id": "RO181",
        "role_ids": [
            "RO181"
        ],
        "status": "Active",
        "post_code": "N3 3HP",
        "uprn": "Unknown"
    },
    {
        "org_id": "P1GJ",
        "name": "ADAMS HEALTHCARE LTD",
        "primary_role_id": "RO181",
        "role_ids": [
            "RO181"
        ],
        "status": "Active",
        "post_code": "B7 5PR",
        "uprn": "Unknown"
    },
    {
        "org_id": "P1GK",
        "name": "SOUDYRAH LTD",
        "primary_role_id": "RO181",
        "role_ids": [
            "RO181"
        ],
        "status": "Active",
        "post_code": "TN38 0AH",
        "uprn": "Unknown"
    },
    {
        "org_id": "P1GM",
        "name": "SHAAN LTD",
        "primary_role_id": "RO181",
        "role_ids": [
            "RO181"
        ],
        "status": "Active",
        "post_code": "TN17 1AG",
        "uprn": "100061188624"
    }
]