[
    {
        "org_id": "7A1A7",
        "name": "CHIRK COMMUNITY HOSPITAL",
        "primary_role_id": "RO148",
        "role_ids": [
            "RO148"
        ],
        "status": "Active",
        "post_code": "LL14 5LN",
        "uprn": "Unknown"
    },
    {
        "org_id": "7A1A8",
        "name": "COLWYN BAY COMMUNITY HOSPITAL",
        "primary_role_id": "RO148",
        "role_ids": [
            "RO148"
        ],
        "status": "Active",
        "post_code": "LL29 8AY",
        "uprn": "200002948426"
    },
    {
        "org_id": "7A1A9",
        "name": "DENBIGH COMMUNITY HOSPITAL",
        "primary_role_id": "RO148",
        "role_ids": [
            "RO148"
        ],
        "status": "Active",
        "post_code": "LL16 3ES",
        "uprn": "Unknown"
    },
    {
        "org_id": "7A1AB",
        "name": "HOLYWELL COMMUNITY HOSPITAL",
        "primary_role_id": "RO148",
        "role_ids": [
            "RO148"
        ],
        "status": "Active",
        "post_code": "CH8 7TZ",
        "uprn": "10023845904"
    },
    {
        "org_id": "7A1AD",
        "name": "MOLD COMMUNITY HOSPITAL",
        "primary_role_id": "RO148",
        "role_ids": [
            "RO148"
        ],
        "status": "Active",
        "post_code": "CH7 1XG",
        "uprn": "200002941218"
    },
    {
        "org_id": "7A1AF",
        "name": "RUTHIN COMMUNITY HOSPITAL",
        "primary_role_id": "RO148",
        "role_ids": [
            "RO148"
        ],
        "status": "Active",
        "post_code": "LL15 1PS",
        "uprn": "Unknown"
    },
    {
        "org_id": "7A1AU",
        "name": "YSBYTY GWYNEDD",
        "primary_role_id": "RO148",
        "role_ids": [
            "RO148"
        ],
        "status": "Active",
        "post_code": "LL57 2PW",
        "uprn": "Unknown"
    },
    {
        "org_id": "7A1AX",
        "name": "BRYN BERYL HOSPITAL",
        "primary_role_id": "RO148",
        "role_ids": [
            "RO148"
        ],
        "status": "Active",
        "post_code": "LL53 6TT",
        "uprn": "Unknown"
    },
    {
        "org_id": "7A6M5",
        "name": "RISCA HEALTH CENTRE",
        "primary_role_id": "RO148",
        "role_ids": [
            "RO148"
        ],
        "status": "Active",
        "post_code": "NP11 6YF",
        "uprn": "Unknown"
    },
    {
        "org_id": "7A1CA",
        "name": "YSBYTY ALLTWEN",
        "primary_role_id": "RO148",
        "role_ids": [
            "RO148"
        ],
        "status": "Active",
        "post_code": "LL49 9AQ",
        "uprn": "10070273452"
    },
    {
        "org_id": "7A6ML",
        "name": "ST WOOLOS OTHER",
        "primary_role_id": "RO148",
        "role_ids": [
            "RO148"
        ],
        "status": "Active",
        "post_code": "NP20 4SZ",
        "uprn": "Unknown"
    },
    {
        "org_id": "7A1CC",
        "name": "DEESIDE COMMUNITY HOSPITAL",
        "primary_role_id": "RO148",
        "role_ids": [
            "RO148"
        ],
        "status": "Active",
        "post_code": "CH5 1XS",
        "uprn": "200002940342"
    },
    {
        "org_id": "7A6QG",
        "name": "TY SIRIOL PSYCHIATRIC CLINIC",
        "primary_role_id": "RO148",
        "role_ids": [
            "RO148"
        ],
        "status": "Active",
        "post_code": "CF83 1EG",
        "uprn": "Unknown"
    },
    {
        "org_id": "7A1CF",
        "name": "MAELOR RENAL / DIABETIC UNIT",
        "primary_role_id": "RO148",
        "role_ids": [
            "RO148"
        ],
        "status": "Active",
        "post_code": "LL13 7TD",
        "uprn": "Unknown"
    },
    {
        "org_id": "7A1D4",
        "name": "PENLEY HOSPITAL",
        "primary_role_id": "RO148",
        "role_ids": [
            "RO148"
        ],
        "status": "Active",
        "post_code": "LL13 0LH",
        "uprn": "10013548089"
    },
    {
        "org_id": "7A1DC",
        "name": "YSBYTY PENRHOS STANLEY",
        "primary_role_id": "RO148",
        "role_ids": [
            "RO148"
        ],
        "status": "Active",
        "post_code": "LL65 2QA",
        "uprn": "200002641086"
    },
    {
        "org_id": "7A1DD",
        "name": "CEFNI HOSPITAL",
        "primary_role_id": "RO148",
        "role_ids": [
            "RO148"
        ],
        "status": "Active",
        "post_code": "LL77 7PP",
        "uprn": "Unknown"
    },
    {
        "org_id": "7A1DG",
        "name": "ERYRI HOSPITAL",
        "primary_role_id": "RO148",
        "role_ids": [
            "RO148"
        ],
        "status": "Active",
        "post_code": "LL55 2YE",
        "uprn": "Unknown"
    },
    {
        "org_id": "7A1E9",
        "name": "BRYNSEIONT HOSPITAL",
        "primary_role_id": "RO148",
        "role_ids": [
            "RO148"
        ],
        "status": "Active",
        "post_code": "LL55 2YU",
        "uprn": "Unknown"
    },
    {
        "org_id": "7A1F3",
        "name": "LLWYN-Y-GROES UNIT",
        "primary_role_id": "RO148",
        "role_ids": [
            "RO148"
        ],
        "status": "Active",
        "post_code": "LL13 7TD",
        "uprn": "Unknown"
    },
    {
        "org_id": "7A1F7",
        "name": "SOUTH CLWYD INTENSIVE REHABILITATION UNIT",
        "primary_role_id": "RO148",
        "role_ids": [
            "RO148"
        ],
        "status": "Active",
        "post_code": "LL12 7AA",
        "uprn": "Unknown"
    },
    {
        "org_id": "7A1F8",
        "name": "E.M.I UNIT",
        "primary_role_id": "RO148",
        "role_ids": [
            "RO148"
        ],
        "status": "Active",
        "post_code": "LL29 8AT",
        "uprn": "Unknown"
    },
    {
        "org_id": "7A1F9",
        "name": "ABLETT UNIT",
        "primary_role_id": "RO148",
        "role_ids": [
            "RO148"
        ],
        "status": "Active",
        "post_code": "LL18 5UJ",
        "uprn": "Unknown"
    },
    {
        "org_id": "7A1FS",
        "name": "GLAN TRAETH WARD",
        "primary_role_id": "RO148",
        "role_ids": [
            "RO148"
        ],
        "status": "Active",
        "post_code": "LL18 3AS",
        "uprn": "Unknown"
    },
    {
        "org_id": "7A1FT",
        "name": "YSBYTY GWYNEDD (PSYCHIATRIC)",
        "primary_role_id": "RO148",
        "role_ids": [
            "RO148"
        ],
        "status": "Active",
        "post_code": "LL57 2PW",
        "uprn": "Unknown"
    },
    {
        "org_id": "7A1G2",
        "name": "CARREG HAFAN",
        "primary_role_id": "RO148",
        "role_ids": [
            "RO148"
        ],
        "status": "Active",
        "post_code": "LL57 4PG",
        "uprn": "Unknown"
    },
    {
        "org_id": "7A1GE",
        "name": "BRYN-Y-NEUADD HOSPITAL",
        "primary_role_id": "RO148",
        "role_ids": [
            "RO148"
        ],
        "status": "Active",
        "post_code": "LL33 0HH",
        "uprn": "Unknown"
    },
    {
        "org_id": "7A1GQ",
        "name": "ROSLIN MENTAL HEALTH RESOURCE CENTRE",
        "primary_role_id": "RO148",
        "role_ids": [
            "RO148"
        ],
        "status": "Active",
        "post_code": "LL30 1UY",
        "uprn": "Unknown"
    },
    {
        "org_id": "7A1GR",
        "name": "MOLD MENTAL HEALTH RESOURCE CENTRE",
        "primary_role_id": "RO148",
        "role_ids": [
            "RO148"
        ],
        "status": "Active",
        "post_code": "CH7 1RH",
        "uprn": "Unknown"
    },
    {
        "org_id": "7A1HD",
        "name": "NORTH WALES CANCER TREATMENT CENTRE",
        "primary_role_id": "RO148",
        "role_ids": [
            "RO148"
        ],
        "status": "Active",
        "post_code": "LL18 5UJ",
        "uprn": "Unknown"
    },
    {
        "org_id": "7A1J2",
        "name": "NANT-Y-GLYN RESOURCE CENTRE",
        "primary_role_id": "RO148",
        "role_ids": [
            "RO148"
        ],
        "status": "Active",
        "post_code": "LL29 7PU",
        "uprn": "Unknown"
    },
    {
        "org_id": "7A1ND",
        "name": "PLAS BRITH RESOURCE CENTRE",
        "primary_role_id": "RO148",
        "role_ids": [
            "RO148"
        ],
        "status": "Active",
        "post_code": "LL40 1EB",
        "uprn": "Unknown"
    },
    {
        "org_id": "7A1NE",
        "name": "ST DAVIDS PRIORY CLINIC",
        "primary_role_id": "RO148",
        "role_ids": [
            "RO148"
        ],
        "status": "Active",
        "post_code": "LL65 2HF",
        "uprn": "Unknown"
    },
    {
        "org_id": "7A1JS",
        "name": "ST WINIFRED'S DAY CENTRE",
        "primary_role_id": "RO148",
        "role_ids": [
            "RO148"
        ],
        "status": "Active",
        "post_code": "LL18 3HN",
        "uprn": "Unknown"
    },
    {
        "org_id": "7A1KG",
        "name": "YSBYTY GWYNEDD DAY HOSPITAL",
        "primary_role_id": "RO148",
        "role_ids": [
            "RO148"
        ],
        "status": "Active",
        "post_code": "LL57 2PW",
        "uprn": "10070344614"
    },
    {
        "org_id": "7A1L1",
        "name": "FLINT CLINIC",
        "primary_role_id": "RO148",
        "role_ids": [
            "RO148"
        ],
        "status": "Active",
        "post_code": "CH6 5DR",
        "uprn": "Unknown"
    },
    {
        "org_id": "7A1NG",
        "name": "ARGYLL ROAD CLINIC",
        "primary_role_id": "RO148",
        "role_ids": [
            "RO148"
        ],
        "status": "Active",
        "post_code": "LL30 1DF",
        "uprn": "Unknown"
    },
    {
        "org_id": "7A1NH",
        "name": "PWILLHELI HEALTH UNIT",
        "primary_role_id": "RO148",
        "role_ids": [
            "RO148"
        ],
        "status": "Active",
        "post_code": "LL53 5BL",
        "uprn": "Unknown"
    },
    {
        "org_id": "7A1L2",
        "name": "CEFN CLINIC",
        "primary_role_id": "RO148",
        "role_ids": [
            "RO148"
        ],
        "status": "Active",
        "post_code": "LL14 3AE",
        "uprn": "Unknown"
    },
    {
        "org_id": "7A1NJ",
        "name": "TRAWSFYNYDD HEALTH CENTRE",
        "primary_role_id": "RO148",
        "role_ids": [
            "RO148"
        ],
        "status": "Active",
        "post_code": "LL41 4SB",
        "uprn": "Unknown"
    },
    {
        "org_id": "7A1L5",
        "name": "CONNAHS QUAY CLINIC",
        "primary_role_id": "RO148",
        "role_ids": [
            "RO148"
        ],
        "status": "Active",
        "post_code": "CH5 4HA",
        "uprn": "200002940926"
    },
    {
        "org_id": "7A1NK",
        "name": "TYWYN HEALTH CENTRE",
        "primary_role_id": "RO148",
        "role_ids": [
            "RO148"
        ],
        "status": "Active",
        "post_code": "LL36 0AT",
        "uprn": "Unknown"
    },
    {
        "org_id": "7A1L6",
        "name": "CORWEN CLINIC",
        "primary_role_id": "RO148",
        "role_ids": [
            "RO148"
        ],
        "status": "Active",
        "post_code": "LL21 0DN",
        "uprn": "Unknown"
    },
    {
        "org_id": "7A1NP",
        "name": "NEWRY STREET CLINIC",
        "primary_role_id": "RO148",
        "role_ids": [
            "RO148"
        ],
        "status": "Active",
        "post_code": "LL65 1HN",
        "uprn": "100100961640"
    },
    {
        "org_id": "7A1L7",
        "name": "FFORDYDDLAS CLINIC",
        "primary_role_id": "RO148",
        "role_ids": [
            "RO148"
        ],
        "status": "Active",
        "post_code": "LL18 2EB",
        "uprn": "Unknown"
    },
    {
        "org_id": "7A1NT",
        "name": "DOC FICTORIA HEALTH CENTRE",
        "primary_role_id": "RO148",
        "role_ids": [
            "RO148"
        ],
        "status": "Active",
        "post_code": "LL55 1TH",
        "uprn": "Unknown"
    },
    {
        "org_id": "7A1LA",
        "name": "MOLD CLINIC",
        "primary_role_id": "RO148",
        "role_ids": [
            "RO148"
        ],
        "status": "Active",
        "post_code": "CH7 1LB",
        "uprn": "200002941305"
    },
    {
        "org_id": "7A1P2",
        "name": "CHIRK INFANTS SCHOOL",
        "primary_role_id": "RO148",
        "role_ids": [
            "RO148"
        ],
        "status": "Active",
        "post_code": "LL14 5NF",
        "uprn": "Unknown"
    },
    {
        "org_id": "7A1LC",
        "name": "ABERGELE HEALTH CENTRE",
        "primary_role_id": "RO148",
        "role_ids": [
            "RO148"
        ],
        "status": "Active",
        "post_code": "LL22 7BP",
        "uprn": "Unknown"
    },
    {
        "org_id": "7A1P3",
        "name": "CEIRIOG JUNIOR SCHOOL",
        "primary_role_id": "RO148",
        "role_ids": [
            "RO148"
        ],
        "status": "Active",
        "post_code": "LL14 5NH",
        "uprn": "Unknown"
    },
    {
        "org_id": "7A1P4",
        "name": "FLINTSHIRE COMMUNITY DRUGS & ALCOHOL",
        "primary_role_id": "RO148",
        "role_ids": [
            "RO148"
        ],
        "status": "Active",
        "post_code": "CH5 1PU",
        "uprn": "Unknown"
    },
    {
        "org_id": "7A1LD",
        "name": "RUTHIN CLINIC",
        "primary_role_id": "RO148",
        "role_ids": [
            "RO148"
        ],
        "status": "Active",
        "post_code": "LL15 1BG",
        "uprn": "Unknown"
    },
    {
        "org_id": "7A1P6",
        "name": "CANOL UNIT",
        "primary_role_id": "RO148",
        "role_ids": [
            "RO148"
        ],
        "status": "Active",
        "post_code": "LL11 4HS",
        "uprn": "Unknown"
    },
    {
        "org_id": "7A1LF",
        "name": "CHIRK CLINIC",
        "primary_role_id": "RO148",
        "role_ids": [
            "RO148"
        ],
        "status": "Active",
        "post_code": "LL14 5LS",
        "uprn": "Unknown"
    },
    {
        "org_id": "7A1P7",
        "name": "BROUGHTON INFANT SCHOOL",
        "primary_role_id": "RO148",
        "role_ids": [
            "RO148"
        ],
        "status": "Active",
        "post_code": "CH4 0QQ",
        "uprn": "Unknown"
    },
    {
        "org_id": "7A1LG",
        "name": "RHOSLLANERCHRUGOG CLINIC",
        "primary_role_id": "RO148",
        "role_ids": [
            "RO148"
        ],
        "status": "Active",
        "post_code": "LL14 1AA",
        "uprn": "Unknown"
    },
    {
        "org_id": "7A1P8",
        "name": "DEESIDE LEISURE CENTRE",
        "primary_role_id": "RO148",
        "role_ids": [
            "RO148"
        ],
        "status": "Active",
        "post_code": "CH5 1SA",
        "uprn": "100101060367"
    },
    {
        "org_id": "7A1LJ",
        "name": "HAFOD LAS",
        "primary_role_id": "RO148",
        "role_ids": [
            "RO148"
        ],
        "status": "Active",
        "post_code": "LL77 7TS",
        "uprn": "Unknown"
    },
    {
        "org_id": "7A1P9",
        "name": "BUCKLEY SPORTS CENTRE",
        "primary_role_id": "RO148",
        "role_ids": [
            "RO148"
        ],
        "status": "Active",
        "post_code": "CH7 3HQ",
        "uprn": "Unknown"
    },
    {
        "org_id": "7A1LM",
        "name": "TREFEIRIAN (DAY CENTRE)",
        "primary_role_id": "RO148",
        "role_ids": [
            "RO148"
        ],
        "status": "Active",
        "post_code": "LL16 3LY",
        "uprn": "Unknown"
    },
    {
        "org_id": "7A1PA",
        "name": "FLINTSHIRE PRIMARY SERVICES FOR CHILDREN",
        "primary_role_id": "RO148",
        "role_ids": [
            "RO148"
        ],
        "status": "Active",
        "post_code": "CH5 1EY",
        "uprn": "Unknown"
    },
    {
        "org_id": "7A1PB",
        "name": "CLWYD HOUSE ADMINISTRATIVE BASE",
        "primary_role_id": "RO148",
        "role_ids": [
            "RO148"
        ],
        "status": "Active",
        "post_code": "CH7 3HZ",
        "uprn": "Unknown"
    },
    {
        "org_id": "7A1PC",
        "name": "LEARNING DISABILITY TEAM BASE",
        "primary_role_id": "RO148",
        "role_ids": [
            "RO148"
        ],
        "status": "Active",
        "post_code": "LL11 2NW",
        "uprn": "Unknown"
    },
    {
        "org_id": "7A1LP",
        "name": "DENBIGHSHIRE COMMUNITY LIVING TEAM LD",
        "primary_role_id": "RO148",
        "role_ids": [
            "RO148"
        ],
        "status": "Active",
        "post_code": "LL15 1EJ",
        "uprn": "Unknown"
    },
    {
        "org_id": "7A1PD",
        "name": "DANIEL OWEN COMMUNITY ASSOCIATION",
        "primary_role_id": "RO148",
        "role_ids": [
            "RO148"
        ],
        "status": "Active",
        "post_code": "CH7 1AP",
        "uprn": "Unknown"
    },
    {
        "org_id": "7A1LR",
        "name": "CONWY CLINIC",
        "primary_role_id": "RO148",
        "role_ids": [
            "RO148"
        ],
        "status": "Active",
        "post_code": "LL32 8LD",
        "uprn": "Unknown"
    },
    {
        "org_id": "7A1PH",
        "name": "WREXHAM UNIVERSITY (GLYNDWR)",
        "primary_role_id": "RO148",
        "role_ids": [
            "RO148"
        ],
        "status": "Active",
        "post_code": "LL11 2AW",
        "uprn": "Unknown"
    },
    {
        "org_id": "7A1LT",
        "name": "FFESTINIOG PHYSIOTHERAPY ANNEXE",
        "primary_role_id": "RO148",
        "role_ids": [
            "RO148"
        ],
        "status": "Active",
        "post_code": "LL41 3UR",
        "uprn": "Unknown"
    },
    {
        "org_id": "7A1LU",
        "name": "AMLWYCH CLINIC",
        "primary_role_id": "RO148",
        "role_ids": [
            "RO148"
        ],
        "status": "Active",
        "post_code": "LL68 9DL",
        "uprn": "Unknown"
    },
    {
        "org_id": "7A1RA",
        "name": "PEN-Y-MAES HEALTH CENTRE",
        "primary_role_id": "RO148",
        "role_ids": [
            "RO148"
        ],
        "status": "Active",
        "post_code": "LL11 4UF",
        "uprn": "10070383634"
    },
    {
        "org_id": "7A1LV",
        "name": "BLAENAU FFESTINIOG HEALTH CENTRE",
        "primary_role_id": "RO148",
        "role_ids": [
            "RO148"
        ],
        "status": "Active",
        "post_code": "LL41 3DN",
        "uprn": "Unknown"
    },
    {
        "org_id": "7A1RB",
        "name": "CMHT WREXHAM NORTH",
        "primary_role_id": "RO148",
        "role_ids": [
            "RO148"
        ],
        "status": "Active",
        "post_code": "LL11 1DU",
        "uprn": "Unknown"
    },
    {
        "org_id": "7A1RC",
        "name": "PLAS Y BRYN MEDICAL CENTRE",
        "primary_role_id": "RO148",
        "role_ids": [
            "RO148"
        ],
        "status": "Active",
        "post_code": "LL13 7DE",
        "uprn": "200002944635"
    },
    {
        "org_id": "7A1RD",
        "name": "WREXHAM ADHD SERVICE",
        "primary_role_id": "RO148",
        "role_ids": [
            "RO148"
        ],
        "status": "Active",
        "post_code": "LL13 7YT",
        "uprn": "10023167338"
    },
    {
        "org_id": "7A1M2",
        "name": "POWYS SCHOOL (LEARNING DISABILITIES)",
        "primary_role_id": "RO148",
        "role_ids": [
            "RO148"
        ],
        "status": "Active",
        "post_code": "LL11 4PA",
        "uprn": "Unknown"
    },
    {
        "org_id": "7A1RE",
        "name": "DEESIDE MENTAL HEALTH RESOURCES CENTRE",
        "primary_role_id": "RO148",
        "role_ids": [
            "RO148"
        ],
        "status": "Active",
        "post_code": "CH5 1XS",
        "uprn": "200002940342"
    },
    {
        "org_id": "7A1RF",
        "name": "RUABON CLINIC",
        "primary_role_id": "RO148",
        "role_ids": [
            "RO148"
        ],
        "status": "Active",
        "post_code": "LL14 6NH",
        "uprn": "Unknown"
    },
    {
        "org_id": "7A1M3",
        "name": "BRO DYFFRYN SCHOOL (LEARNING DISABILITIES)",
        "primary_role_id": "RO148",
        "role_ids": [
            "RO148"
        ],
        "status": "Active",
        "post_code": "LL16 4RH",
        "uprn": "Unknown"
    },
    {
        "org_id": "7A1M4",
        "name": "MAELOR PAEDIATRIC UNIT (LD)",
        "primary_role_id": "RO148",
        "role_ids": [
            "RO148"
        ],
        "status": "Active",
        "post_code": "LL13 7TD",
        "uprn": "Unknown"
    },
    {
        "org_id": "7A1M5",
        "name": "FAIRHOLME NURSING HOME",
        "primary_role_id": "RO148",
        "role_ids": [
            "RO148"
        ],
        "status": "Active",
        "post_code": "LL13 7PR",
        "uprn": "Unknown"
    },
    {
        "org_id": "7A1M6",
        "name": "CEFNDY RESOURCE CENTRE",
        "primary_role_id": "RO148",
        "role_ids": [
            "RO148"
        ],
        "status": "Active",
        "post_code": "LL18 2HG",
        "uprn": "Unknown"
    },
    {
        "org_id": "7A1RG",
        "name": "OVERTON HEALTH CENTRE",
        "primary_role_id": "RO148",
        "role_ids": [
            "RO148"
        ],
        "status": "Active",
        "post_code": "LL13 0ED",
        "uprn": "Unknown"
    },
    {
        "org_id": "7A1M7",
        "name": "TREFALYN LEARNING DISABILITIES",
        "primary_role_id": "RO148",
        "role_ids": [
            "RO148"
        ],
        "status": "Active",
        "post_code": "CH7 1QH",
        "uprn": "Unknown"
    },
    {
        "org_id": "7A1M8",
        "name": "MARINE COURT PRIVATE PSYCHIATRIC NURSING HOME",
        "primary_role_id": "RO148",
        "role_ids": [
            "RO148"
        ],
        "status": "Active",
        "post_code": "LL29 8PH",
        "uprn": "Unknown"
    },
    {
        "org_id": "7A1MC",
        "name": "PSYCHOLOGICAL THERAPIES TEAM BASE",
        "primary_role_id": "RO148",
        "role_ids": [
            "RO148"
        ],
        "status": "Active",
        "post_code": "LL11 1DY",
        "uprn": "Unknown"
    },
    {
        "org_id": "7A1MD",
        "name": "DRUGS SERVICE (OUTPATIENTS CLINIC)",
        "primary_role_id": "RO148",
        "role_ids": [
            "RO148"
        ],
        "status": "Active",
        "post_code": "LL15 1BP",
        "uprn": "200002945622"
    },
    {
        "org_id": "7A2PH",
        "name": "CRUN-ERRY HOUSE",
        "primary_role_id": "RO148",
        "role_ids": [
            "RO148"
        ],
        "status": "Active",
        "post_code": "SA71 4HL",
        "uprn": "10013176103"
    },
    {
        "org_id": "7A75P",
        "name": "MACHYNLLETH HEALTH CENTRE",
        "primary_role_id": "RO148",
        "role_ids": [
            "RO148"
        ],
        "status": "Active",
        "post_code": "SY20 8EQ",
        "uprn": "Unknown"
    },
    {
        "org_id": "7A72A",
        "name": "CEMMAES ROAD HEALTH CENTRE",
        "primary_role_id": "RO148",
        "role_ids": [
            "RO148"
        ],
        "status": "Active",
        "post_code": "SY20 8LX",
        "uprn": "Unknown"
    },
    {
        "org_id": "7A2PL",
        "name": "LAUGHARNE CHILD HEALTH CLINIC",
        "primary_role_id": "RO148",
        "role_ids": [
            "RO148"
        ],
        "status": "Active",
        "post_code": "SA33 4SP",
        "uprn": "Unknown"
    },
    {
        "org_id": "7A72Q",
        "name": "BRYNTIRION MENTAL HEALTH RESOURCE CENTRE",
        "primary_role_id": "RO148",
        "role_ids": [
            "RO148"
        ],
        "status": "Active",
        "post_code": "SY21 0BL",
        "uprn": "Unknown"
    },
    {
        "org_id": "7A2PN",
        "name": "MEDDYGBA TAF",
        "primary_role_id": "RO148",
        "role_ids": [
            "RO148"
        ],
        "status": "Active",
        "post_code": "SA34 0AT",
        "uprn": "Unknown"
    },
    {
        "org_id": "7A2PP",
        "name": "MEDDYGFA TYWI",
        "primary_role_id": "RO148",
        "role_ids": [
            "RO148"
        ],
        "status": "Active",
        "post_code": "SA32 7LG",
        "uprn": "10004853830"
    },
    {
        "org_id": "7A74M",
        "name": "LLANFAIR CAEREINION HEALTH CENTRE",
        "primary_role_id": "RO148",
        "role_ids": [
            "RO148"
        ],
        "status": "Active",
        "post_code": "SY21 0RT",
        "uprn": "Unknown"
    },
    {
        "org_id": "7A7BS",
        "name": "VICTORIA MEMORIAL HOSPITAL",
        "primary_role_id": "RO148",
        "role_ids": [
            "RO148"
        ],
        "status": "Active",
        "post_code": "SY21 7DU",
        "uprn": "10011764621"
    },
    {
        "org_id": "7A2PS",
        "name": "DOLYCWRT SURGERY",
        "primary_role_id": "RO148",
        "role_ids": [
            "RO148"
        ],
        "status": "Active",
        "post_code": "SA34 0PZ",
        "uprn": "Unknown"
    },
    {
        "org_id": "7A739",
        "name": "WELSHPOOL MEDICAL CENTRE",
        "primary_role_id": "RO148",
        "role_ids": [
            "RO148"
        ],
        "status": "Active",
        "post_code": "SY21 7ER",
        "uprn": "Unknown"
    },
    {
        "org_id": "7A2Q1",
        "name": "MENTAL HEALTH CLINIC",
        "primary_role_id": "RO148",
        "role_ids": [
            "RO148"
        ],
        "status": "Active",
        "post_code": "SA46 0JB",
        "uprn": "Unknown"
    },
    {
        "org_id": "7A2PT",
        "name": "LLYN-Y-FRYN SURGERY",
        "primary_role_id": "RO148",
        "role_ids": [
            "RO148"
        ],
        "status": "Active",
        "post_code": "SA20 0HY",
        "uprn": "Unknown"
    },
    {
        "org_id": "7A2R4",
        "name": "YSTRADOWEN CP SCHOOL",
        "primary_role_id": "RO148",
        "role_ids": [
            "RO148"
        ],
        "status": "Active",
        "post_code": "SA9 2YN",
        "uprn": "Unknown"
    },
    {
        "org_id": "7A72D",
        "name": "LLANFYLLIN MEDICAL CENTRE",
        "primary_role_id": "RO148",
        "role_ids": [
            "RO148"
        ],
        "status": "Active",
        "post_code": "SY22 5DG",
        "uprn": "Unknown"
    },
    {
        "org_id": "7A2R5",
        "name": "PANTYFEDWEN",
        "primary_role_id": "RO148",
        "role_ids": [
            "RO148"
        ],
        "status": "Active",
        "post_code": "SY23 1DL",
        "uprn": "49019360"
    },
    {
        "org_id": "7A74L",
        "name": "LLANDRINIO HEALTH CLINIC",
        "primary_role_id": "RO148",
        "role_ids": [
            "RO148"
        ],
        "status": "Active",
        "post_code": "SY22 6ER",
        "uprn": "Unknown"
    },
    {
        "org_id": "7A2R6",
        "name": "DENTAL SUITE",
        "primary_role_id": "RO148",
        "role_ids": [
            "RO148"
        ],
        "status": "Active",
        "post_code": "SA44 4HP",
        "uprn": "Unknown"
    },
    {
        "org_id": "7A2R7",
        "name": "ABERAERON DENTAL SUITE",
        "primary_role_id": "RO148",
        "role_ids": [
            "RO148"
        ],
        "status": "Active",
        "post_code": "SA46 0DT",
        "uprn": "Unknown"
    },
    {
        "org_id": "7A2RC",
        "name": "WINCH LANE MEDICAL CENTRE",
        "primary_role_id": "RO148",
        "role_ids": [
            "RO148"
        ],
        "status": "Active",
        "post_code": "SA61 1RN",
        "uprn": "Unknown"
    },
    {
        "org_id": "7A2RD",
        "name": "MEDDYGFA EMLYN",
        "primary_role_id": "RO148",
        "role_ids": [
            "RO148"
        ],
        "status": "Active",
        "post_code": "SA38 9NS",
        "uprn": "Unknown"
    },
    {
        "org_id": "7A3PC",
        "name": "CHILDREN'S ORTHOPAEDIC CLINIC",
        "primary_role_id": "RO148",
        "role_ids": [
            "RO148"
        ],
        "status": "Active",
        "post_code": "SA1 4JL",
        "uprn": "Unknown"
    },
    {
        "org_id": "7A3PF",
        "name": "BISHOPSTON CLINIC",
        "primary_role_id": "RO148",
        "role_ids": [
            "RO148"
        ],
        "status": "Active",
        "post_code": "SA3 3AR",
        "uprn": "Unknown"
    },
    {
        "org_id": "7A3PG",
        "name": "BONYMAEN CLINIC",
        "primary_role_id": "RO148",
        "role_ids": [
            "RO148"
        ],
        "status": "Active",
        "post_code": "SA1 7HJ",
        "uprn": "10010030640"
    },
    {
        "org_id": "7A3PH",
        "name": "BIRCHGROVE COMMUNITY CLINIC",
        "primary_role_id": "RO148",
        "role_ids": [
            "RO148"
        ],
        "status": "Active",
        "post_code": "SA7 9LD",
        "uprn": "Unknown"
    },
    {
        "org_id": "7A3PP",
        "name": "CENTRAL CLINIC",
        "primary_role_id": "RO148",
        "role_ids": [
            "RO148"
        ],
        "status": "Active",
        "post_code": "SA1 5AT",
        "uprn": "Unknown"
    },
    {
        "org_id": "7A3PR",
        "name": "CLASE COMMUNITY CENTRE",
        "primary_role_id": "RO148",
        "role_ids": [
            "RO148"
        ],
        "status": "Active",
        "post_code": "SA6 7NZ",
        "uprn": "Unknown"
    },
    {
        "org_id": "7A3PW",
        "name": "CWMBWRLA HEALTH CENTRE",
        "primary_role_id": "RO148",
        "role_ids": [
            "RO148"
        ],
        "status": "Active",
        "post_code": "SA1 1HW",
        "uprn": "Unknown"
    },
    {
        "org_id": "7A3Q2",
        "name": "DUNVANT UNEMPLOYMENT & SOCIAL CENTRE",
        "primary_role_id": "RO148",
        "role_ids": [
            "RO148"
        ],
        "status": "Active",
        "post_code": "SA2 7AB",
        "uprn": "Unknown"
    },
    {
        "org_id": "7A3Q3",
        "name": "FFORESTFACH HEALTH CENTRE",
        "primary_role_id": "RO148",
        "role_ids": [
            "RO148"
        ],
        "status": "Active",
        "post_code": "SA5 5AA",
        "uprn": "Unknown"
    },
    {
        "org_id": "7A3MP",
        "name": "LEARNING DISABILITIES - CST - BRIDGEND",
        "primary_role_id": "RO148",
        "role_ids": [
            "RO148"
        ],
        "status": "Active",
        "post_code": "CF31 1TZ",
        "uprn": "Unknown"
    },
    {
        "org_id": "7A3MR",
        "name": "LEARNING DISABILITIES - CST - NEATH",
        "primary_role_id": "RO148",
        "role_ids": [
            "RO148"
        ],
        "status": "Active",
        "post_code": "SA11 3QZ",
        "uprn": "Unknown"
    },
    {
        "org_id": "7A3MS",
        "name": "LEARNING DISABILITIES - CST - VALE",
        "primary_role_id": "RO148",
        "role_ids": [
            "RO148"
        ],
        "status": "Active",
        "post_code": "CF63 1NH",
        "uprn": "Unknown"
    },
    {
        "org_id": "7A4VY",
        "name": "UNIVERSITY OF WALES COLLEGE OF MEDICINE",
        "primary_role_id": "RO148",
        "role_ids": [
            "RO148"
        ],
        "status": "Active",
        "post_code": "CF14 4XN",
        "uprn": "Unknown"
    },
    {
        "org_id": "7A3MT",
        "name": "LEARNING DISABILITIES - CST - RCT EAST",
        "primary_role_id": "RO148",
        "role_ids": [
            "RO148"
        ],
        "status": "Active",
        "post_code": "CF37 5PN",
        "uprn": "Unknown"
    },
    {
        "org_id": "7A3MU",
        "name": "LEARNING DISABILITIES - CST - RCT WEST",
        "primary_role_id": "RO148",
        "role_ids": [
            "RO148"
        ],
        "status": "Active",
        "post_code": "CF40 2JQ",
        "uprn": "Unknown"
    },
    {
        "org_id": "7A3MV",
        "name": "LEARNING DISABILITIES - CST - MERTYR",
        "primary_role_id": "RO148",
        "role_ids": [
            "RO148"
        ],
        "status": "Active",
        "post_code": "CF48 4TQ",
        "uprn": "Unknown"
    }
]