[
    {
        "org_id": "0AD",
        "name": "NHS CENTRAL MIDLANDS COMMISSIONING SUPPORT UNIT",
        "primary_role_id": "RO213",
        "role_ids": [
            "RO213"
        ],
        "status": "Active",
        "post_code": "B70 9LD",
        "uprn": "Unknown"
    },
    {
        "org_id": "0AE",
        "name": "NHS CENTRAL SOUTHERN COMMISSIONING SUPPORT UNIT",
        "primary_role_id": "RO213",
        "role_ids": [
            "RO213"
        ],
        "status": "Active",
        "post_code": "RG14 1PA",
        "uprn": "Unknown"
    },
    {
        "org_id": "0AR",
        "name": "NHS NORTH OF ENGLAND COMMISSIONING SUPPORT UNIT",
        "primary_role_id": "RO213",
        "role_ids": [
            "RO213"
        ],
        "status": "Active",
        "post_code": "DH1 3YG",
        "uprn": "Unknown"
    },
    {
        "org_id": "0CH",
        "name": "NHS STAFFORDSHIRE AND LANCASHIRE COMMISSIONING SUPPORT UNIT",
        "primary_role_id": "RO213",
        "role_ids": [
            "RO213"
        ],
        "status": "Active",
        "post_code": "WS15 1UZ",
        "uprn": "Unknown"
    },
    {
        "org_id": "0CX",
        "name": "NHS MIDLANDS AND LANCASHIRE COMMISSIONING SUPPORT UNIT",
        "primary_role_id": "RO213",
        "role_ids": [
            "RO213"
        ],
        "status": "Active",
        "post_code": "ST4 4LX",
        "uprn": "3455115409"
    },
    {
        "org_id": "0DE",
        "name": "NHS ARDEN AND GREATER EAST MIDLANDS COMMISSIONING SUPPORT UNIT",
        "primary_role_id": "RO213",
        "role_ids": [
            "RO213"
        ],
        "status": "Active",
        "post_code": "LE1 6NB",
        "uprn": "10091807238"
    },
    {
        "org_id": "0DF",
        "name": "NHS SOUTH, CENTRAL AND WEST COMMISSIONING SUPPORT UNIT",
        "primary_role_id": "RO213",
        "role_ids": [
            "RO213"
        ],
        "status": "Active",
        "post_code": "SO50 5PB",
        "uprn": "100062534427"
    },
    {
        "org_id": "0DG",
        "name": "OPTUM HEALTH SOLUTIONS (UK) LIMITED",
        "primary_role_id": "RO213",
        "role_ids": [
            "RO213"
        ],
        "status": "Active",
        "post_code": "SL6 1EH",
        "uprn": "200002899229"
    }
]