[
    {
        "org_id": "XDA",
        "name": "AUDIT COMMISSION",
        "primary_role_id": "RO126",
        "role_ids": [
            "RO126"
        ],
        "status": "Active",
        "post_code": "SW1P 4HQ",
        "uprn": "Unknown"
    },
    {
        "org_id": "XDM",
        "name": "MINISTRY OF DEFENCE",
        "primary_role_id": "RO126",
        "role_ids": [
            "RO126"
        ],
        "status": "Active",
        "post_code": "SW1A 2HB",
        "uprn": "Unknown"
    },
    {
        "org_id": "XDE",
        "name": "MRC HEARING AND COMMUNICATIONS GROUP",
        "primary_role_id": "RO126",
        "role_ids": [
            "RO126"
        ],
        "status": "Active",
        "post_code": "M13 9PL",
        "uprn": "Unknown"
    },
    {
        "org_id": "XDF",
        "name": "DEPARTMENT FOR WORK AND PENSIONS",
        "primary_role_id": "RO126",
        "role_ids": [
            "RO126"
        ],
        "status": "Active",
        "post_code": "SW1H 9DA",
        "uprn": "Unknown"
    },
    {
        "org_id": "YAC",
        "name": "ISLE OF MAN DEPARTMENT OF HEALTH",
        "primary_role_id": "RO126",
        "role_ids": [
            "RO126"
        ],
        "status": "Active",
        "post_code": "IM1 3QA",
        "uprn": "Unknown"
    },
    {
        "org_id": "YAE",
        "name": "STATES OF GUERNSEY HEALTH AND SOCIAL SERVICES",
        "primary_role_id": "RO126",
        "role_ids": [
            "RO126"
        ],
        "status": "Active",
        "post_code": "GY4 6UU",
        "uprn": "Unknown"
    },
    {
        "org_id": "YAD",
        "name": "STATES OF JERSEY HEALTH AND SOCIAL SERVICES",
        "primary_role_id": "RO126",
        "role_ids": [
            "RO126"
        ],
        "status": "Active",
        "post_code": "JE1 3QS",
        "uprn": "Unknown"
    },
    {
        "org_id": "YAF",
        "name": "STATES OF ALDERNEY SOCIAL SECURITY AND MEDICAL CARE",
        "primary_role_id": "RO126",
        "role_ids": [
            "RO126"
        ],
        "status": "Active",
        "post_code": "GY9 3AA",
        "uprn": "Unknown"
    },
    {
        "org_id": "XDH",
        "name": "DEPARTMENT OF HEALTH AND SOCIAL CARE",
        "primary_role_id": "RO126",
        "role_ids": [
            "RO126"
        ],
        "status": "Active",
        "post_code": "SW1H 0EU",
        "uprn": "100023337655"
    },
    {
        "org_id": "XDC",
        "name": "OFFICE FOR NATIONAL STATISTICS (ONS)",
        "primary_role_id": "RO126",
        "role_ids": [
            "RO126"
        ],
        "status": "Active",
        "post_code": "PO15 5RR",
        "uprn": "Unknown"
    },
    {
        "org_id": "XDD",
        "name": "HM REVENUE & CUSTOMS",
        "primary_role_id": "RO126",
        "role_ids": [
            "RO126"
        ],
        "status": "Active",
        "post_code": "SW1A 2BQ",
        "uprn": "Unknown"
    },
    {
        "org_id": "XDT",
        "name": "DEPARTMENT FOR TRANSPORT",
        "primary_role_id": "RO126",
        "role_ids": [
            "RO126"
        ],
        "status": "Active",
        "post_code": "SW1P 4DR",
        "uprn": "Unknown"
    },
    {
        "org_id": "XDG",
        "name": "HOME OFFICE",
        "primary_role_id": "RO126",
        "role_ids": [
            "RO126"
        ],
        "status": "Active",
        "post_code": "SW1P 4DF",
        "uprn": "10033602695"
    },
    {
        "org_id": "XWP",
        "name": "DEPARTMENT OF WORK AND PENSIONS",
        "primary_role_id": "RO126",
        "role_ids": [
            "RO126"
        ],
        "status": "Active",
        "post_code": "LS11 5BD",
        "uprn": "Unknown"
    },
    {
        "org_id": "XDJ",
        "name": "THE MINISTRY OF HOUSING, COMMUNITIES & LOCAL GOVERNMENT (MHCLG)",
        "primary_role_id": "RO126",
        "role_ids": [
            "RO126"
        ],
        "status": "Active",
        "post_code": "SW1P 4DF",
        "uprn": "Unknown"
    },
    {
        "org_id": "XVW",
        "name": "DEPARTMENT FOR BUSINESS, ENERGY AND INDUSTRIAL STRATEGY",
        "primary_role_id": "RO126",
        "role_ids": [
            "RO126"
        ],
        "status": "Active",
        "post_code": "SW1H 0ET",
        "uprn": "100023337684"
    },
    {
        "org_id": "XDK",
        "name": "DEPARTMENT FOR EDUCATION",
        "primary_role_id": "RO126",
        "role_ids": [
            "RO126"
        ],
        "status": "Active",
        "post_code": "SW1P 3BT",
        "uprn": "10091843700"
    },
    {
        "org_id": "C1Z9C",
        "name": "DEPARTMENT FOR BUSINESS AND TRADE",
        "primary_role_id": "RO126",
        "role_ids": [
            "RO126"
        ],
        "status": "Active",
        "post_code": "SW1A 2DY",
        "uprn": "100023336958"
    }
]