[
    {
        "org_id": "Y1101",
        "name": "WELSH CANCER INTELLIGENCE & SURVEILLANCE UNIT",
        "primary_role_id": "RO105",
        "role_ids": [
            "RO105"
        ],
        "status": "Active",
        "post_code": "CF24 0HA",
        "uprn": "Unknown"
    },
    {
        "org_id": "Y0801",
        "name": "THAMES CANCER REGISTRY",
        "primary_role_id": "RO105",
        "role_ids": [
            "RO105"
        ],
        "status": "Active",
        "post_code": "SE1 3QD",
        "uprn": "Unknown"
    },
    {
        "org_id": "Y0901",
        "name": "OXFORD CANCER INTELLIGENCE UNIT",
        "primary_role_id": "RO105",
        "role_ids": [
            "RO105"
        ],
        "status": "Active",
        "post_code": "OX4 2GX",
        "uprn": "Unknown"
    },
    {
        "org_id": "Y1201",
        "name": "WEST MIDLANDS CANCER INTELLIGENCE UNIT",
        "primary_role_id": "RO105",
        "role_ids": [
            "RO105"
        ],
        "status": "Active",
        "post_code": "B15 2TT",
        "uprn": "Unknown"
    },
    {
        "org_id": "Y1601",
        "name": "THE CHILDHOOD CANCER RESEARCH GROUP",
        "primary_role_id": "RO105",
        "role_ids": [
            "RO105"
        ],
        "status": "Active",
        "post_code": "OX3 7LG",
        "uprn": "Unknown"
    },
    {
        "org_id": "Y0201",
        "name": "NORTHERN & YORKSHIRE CANCER REGISTRY & INFORMATION SERVICE",
        "primary_role_id": "RO105",
        "role_ids": [
            "RO105"
        ],
        "status": "Active",
        "post_code": "LS9 7TF",
        "uprn": "Unknown"
    },
    {
        "org_id": "Y0301",
        "name": "TRENT CANCER REGISTRY",
        "primary_role_id": "RO105",
        "role_ids": [
            "RO105"
        ],
        "status": "Active",
        "post_code": "S10 3TG",
        "uprn": "Unknown"
    },
    {
        "org_id": "Y0401",
        "name": "NATIONAL CANCER REGISTRATION & ANALYSIS SERVICE - EASTERN OFFICE",
        "primary_role_id": "RO105",
        "role_ids": [
            "RO105"
        ],
        "status": "Active",
        "post_code": "CB21 5XA",
        "uprn": "Unknown"
    },
    {
        "org_id": "Y1701",
        "name": "NORTH WEST CANCER INTELLIGENCE SERVICE",
        "primary_role_id": "RO105",
        "role_ids": [
            "RO105"
        ],
        "status": "Active",
        "post_code": "M1 3BN",
        "uprn": "Unknown"
    }
]