[
    {
        "org_id": "LSP0303",
        "name": "FUJITSU (BRACKNELL)",
        "primary_role_id": "RO147",
        "role_ids": [
            "RO147"
        ],
        "status": "Active",
        "post_code": "RG12 8SN",
        "uprn": "Unknown"
    },
    {
        "org_id": "LSP0201",
        "name": "DXC DATA CENTRE (MAIDSTONE)",
        "primary_role_id": "RO147",
        "role_ids": [
            "RO147"
        ],
        "status": "Active",
        "post_code": "ME14 5EH",
        "uprn": "Unknown"
    },
    {
        "org_id": "LSP0103",
        "name": "ACCENTURE DATACENTRE - LTC",
        "primary_role_id": "RO147",
        "role_ids": [
            "RO147"
        ],
        "status": "Active",
        "post_code": "TW4 6ER",
        "uprn": "Unknown"
    },
    {
        "org_id": "LSP0502",
        "name": "ACCENTURE DATACENTRE - TC2",
        "primary_role_id": "RO147",
        "role_ids": [
            "RO147"
        ],
        "status": "Active",
        "post_code": "E14 2AX",
        "uprn": "Unknown"
    },
    {
        "org_id": "LSP0101",
        "name": "ACCENTURE - FENCHURCH ST",
        "primary_role_id": "RO147",
        "role_ids": [
            "RO147"
        ],
        "status": "Active",
        "post_code": "EC3M 3BD",
        "uprn": "Unknown"
    },
    {
        "org_id": "LSP0102",
        "name": "ACCENTURE DATACENTRE - TC2",
        "primary_role_id": "RO147",
        "role_ids": [
            "RO147"
        ],
        "status": "Active",
        "post_code": "E14 2AX",
        "uprn": "Unknown"
    },
    {
        "org_id": "LSP0503",
        "name": "ACCENTURE DATACENTRE - LTC",
        "primary_role_id": "RO147",
        "role_ids": [
            "RO147"
        ],
        "status": "Active",
        "post_code": "TW4 6ER",
        "uprn": "Unknown"
    },
    {
        "org_id": "LSP0501",
        "name": "ACCENTURE - FENCHURCH ST",
        "primary_role_id": "RO147",
        "role_ids": [
            "RO147"
        ],
        "status": "Active",
        "post_code": "EC3M 3BD",
        "uprn": "Unknown"
    },
    {
        "org_id": "LSP0301",
        "name": "FUJITSU (SLOUGH)",
        "primary_role_id": "RO147",
        "role_ids": [
            "RO147"
        ],
        "status": "Active",
        "post_code": "SL1 2EY",
        "uprn": "Unknown"
    },
    {
        "org_id": "LSP0302",
        "name": "FUJITSU (WINNERSH)",
        "primary_role_id": "RO147",
        "role_ids": [
            "RO147"
        ],
        "status": "Active",
        "post_code": "RG41 5TT",
        "uprn": "Unknown"
    },
    {
        "org_id": "LSP0202",
        "name": "DXC.TECHNOLOGY (BUSINESS PARTNER)",
        "primary_role_id": "RO147",
        "role_ids": [
            "RO147"
        ],
        "status": "Active",
        "post_code": "GU11 1PZ",
        "uprn": "Unknown"
    },
    {
        "org_id": "LSP0104",
        "name": "ACCENTURE - AJAX DATA CENTRE",
        "primary_role_id": "RO147",
        "role_ids": [
            "RO147"
        ],
        "status": "Active",
        "post_code": "SL1 4BG",
        "uprn": "10022917938"
    },
    {
        "org_id": "LSP0105",
        "name": "ACCENTURE - MAYLANDS DATA CENTRE",
        "primary_role_id": "RO147",
        "role_ids": [
            "RO147"
        ],
        "status": "Active",
        "post_code": "HP2 7DF",
        "uprn": "100081177751"
    },
    {
        "org_id": "LSP0203",
        "name": "DXC AYLESFORD",
        "primary_role_id": "RO147",
        "role_ids": [
            "RO147"
        ],
        "status": "Active",
        "post_code": "ME20 6SP",
        "uprn": "Unknown"
    },
    {
        "org_id": "LSP0204",
        "name": "DXC SEVENOAKS",
        "primary_role_id": "RO147",
        "role_ids": [
            "RO147"
        ],
        "status": "Active",
        "post_code": "TN13 2TL",
        "uprn": "Unknown"
    },
    {
        "org_id": "LSP0205",
        "name": "DXC LEEDS",
        "primary_role_id": "RO147",
        "role_ids": [
            "RO147"
        ],
        "status": "Active",
        "post_code": "LS1 2RP",
        "uprn": "Unknown"
    },
    {
        "org_id": "LSP0206",
        "name": "DXC CHORLEY",
        "primary_role_id": "RO147",
        "role_ids": [
            "RO147"
        ],
        "status": "Active",
        "post_code": "PR7 6FE",
        "uprn": "10008937227"
    },
    {
        "org_id": "LSP0207",
        "name": "DXC BANBURY",
        "primary_role_id": "RO147",
        "role_ids": [
            "RO147"
        ],
        "status": "Active",
        "post_code": "OX16 3JT",
        "uprn": "Unknown"
    },
    {
        "org_id": "LSP0208",
        "name": "DXC CHESTERFIELD",
        "primary_role_id": "RO147",
        "role_ids": [
            "RO147"
        ],
        "status": "Active",
        "post_code": "S40 3QT",
        "uprn": "Unknown"
    },
    {
        "org_id": "LSP0209",
        "name": "DXC TECHNOLOGY (SWIFT)",
        "primary_role_id": "RO147",
        "role_ids": [
            "RO147"
        ],
        "status": "Active",
        "post_code": "BS34 8QZ",
        "uprn": "Unknown"
    }
]